{"type":"Feature","properties":{"GID_3":"TCD.16.3.10_1","GID_0":"TCD","country":"Chad","GID_1":"TCD.16_1","province":"Moyen-Chari","NL_NAME_1":"NA","GID_2":"TCD.16.3_1","county":"LacIro","NL_NAME_2":"NA","city":"Marabe","VARNAME_3":"NA","NL_NAME_3":"NA","TYPE_3":"Sub-prefecture","ENGTYPE_3":"Sub-prefecture","CC_3":"NA","HASC_3":"NA","name":"Marabe.city"},
"geometry":{"type": "MultiPolygon","coordinates": [[[[18.6581,9.2076,366.2466],[18.6706,9.2218,363.785],[18.6807,9.2376,363.0411],[18.6971,9.2531,365.9603],[18.7526,9.2702,366.607],[18.7731,9.2811,371.0934],[18.7776,9.2984,370.1064],[18.7752,9.3144,368.845],[18.7776,9.3312,366.5924],[18.7817,9.3371,367.0976],[18.7352,9.3897,449.3368],[18.7075,9.4083,490.7582],[18.6774,9.4318,545.4566],[18.6627,9.4494,571.7328],[18.6579,9.4738,526.1872],[18.6347,9.465,542.7505],[18.6129,9.4514,488.374],[18.59,9.4432,454.3286],[18.5709,9.452,432.8659],[18.5505,9.4655,442.158],[18.5474,9.4716,443.7983],[18.5337,9.4537,409.7522],[18.5086,9.4078,405.1496],[18.5048,9.385,406.7992],[18.5096,9.3612,364.34],[18.5202,9.3444,362.9292],[18.5376,9.3297,367.946],[18.556,9.3195,364.7486],[18.5788,9.2961,366.3118],[18.579,9.27,368.9883],[18.5724,9.2346,367.9513],[18.5764,9.223,368.2677],[18.5912,9.211,368.352],[18.6405,9.2097,368.4635],[18.6581,9.2076,366.2466]]]]}}