{"type":"Feature","properties":{"GID_3":"TCD.4.1.1_1","GID_0":"TCD","country":"Chad","GID_1":"TCD.4_1","province":"Chari-Baguirmi","NL_NAME_1":"NA","GID_2":"TCD.4.1_1","county":"Baguirmi","NL_NAME_2":"NA","city":"Batha-Lairi","VARNAME_3":"NA","NL_NAME_3":"NA","TYPE_3":"Sub-prefecture","ENGTYPE_3":"Sub-prefecture","CC_3":"NA","HASC_3":"NA","name":"Batha-Lairi.city"},
"geometry":{"type": "MultiPolygon","coordinates": [[[[16.508,11.803,314.1837],[16.533,11.734,318.4885],[16.562,11.637,327.4982],[16.624,11.525,328.7426],[16.686,11.426,329.8559],[16.757,11.341,332.5581],[16.841,11.285,332.0439],[16.931,11.251,332.3807],[17.026,11.232,332.7721],[17.106,11.237,331.2062],[17.183,11.203,333.6829],[17.252,11.153,334.5675],[17.289,11.12,336.3422],[17.329,11.075,337.7805],[17.305,11.23,336.3217],[17.311,11.304,335.3646],[17.315,11.324,335.8187],[17.335,11.472,334.7028],[17.139,11.566,329.0067],[17.088,11.627,328.0098],[17.019,11.668,327.9125],[16.906,11.684,326.8196],[16.858,11.676,327.1664],[16.826,11.726,327.0421],[16.812,11.823,325.9713],[16.797,11.874,325.781],[16.715,11.83,319.5126],[16.632,11.818,316.6855],[16.533,11.811,315.7049],[16.508,11.803,314.1837]]]]}}