{"type":"Feature","properties":{"GID_3":"TCD.7.2.1_1","GID_0":"TCD","country":"Chad","GID_1":"TCD.7_1","province":"Guéra","NL_NAME_1":"NA","GID_2":"TCD.7.2_1","county":"Bitkine","NL_NAME_2":"NA","city":"Bitkine","VARNAME_3":"NA","NL_NAME_3":"NA","TYPE_3":"Sub-prefecture","ENGTYPE_3":"Sub-prefecture","CC_3":"NA","HASC_3":"NA","name":"Bitkine.city"},
"geometry":{"type": "MultiPolygon","coordinates": [[[[18.097,12.016,465.4621],[18.1128,11.9724,401.6318],[18.1384,11.9402,410.1758],[18.1518,11.9194,415.7322],[18.1589,11.9018,598.9645],[18.165,11.88,909.4849],[18.201,11.876,533.6759],[18.253,11.888,500.2811],[18.28,11.913,520.0594],[18.297,11.946,542.4399],[18.292,12.016,488.5721],[18.294,12.057,460.1146],[18.241,12.029,509.0023],[18.097,12.016,465.4621]]]]}}