{"type": "Feature","bbox": [16.2793,8.2277,16.487,8.4688],"geometry": {"type": "MultiPolygon","coordinates": [[[[16.4502,8.4688,447.4025],[16.4381,8.4656,457.6656],[16.4011,8.4617,463.9583],[16.3909,8.4581,459.9005],[16.3535,8.4395,461.3062],[16.3377,8.4353,464.7188],[16.3288,8.4276,465.4552],[16.3081,8.4136,455.3305],[16.2793,8.3991,441.1281],[16.2838,8.3691,435.3211],[16.2825,8.3075,468.638],[16.2895,8.2918,477.9189],[16.289,8.2714,476.0772],[16.3014,8.2277,448.4703],[16.3062,8.2489,447.3147],[16.327,8.3141,439.1026],[16.3402,8.3398,445.466],[16.3648,8.3814,430.0503],[16.3933,8.3895,431.32],[16.4235,8.3894,417.3275],[16.4518,8.392,410.6774],[16.4723,8.3992,413.211],[16.487,8.4065,409.638],[16.4784,8.415,422.5359],[16.4758,8.4279,427.6505],[16.4606,8.4483,436.6808],[16.4562,8.4518,439.4509],[16.4502,8.4688,447.4025]]]]}
,"properties": {"GID_3": "TCD.12.3.5_1","GID_0": "TCD","country": "Chad","GID_1": "TCD.12_1","province": "LogoneOriental","NL_NAME_1": "NA","GID_2": "TCD.12.3_1","county": "NyaPendé","NL_NAME_2": "NA","city": "Kaba-Donia","VARNAME_3": "NA","NL_NAME_3": "NA","TYPE_3": "Sub-prefecture","ENGTYPE_3": "Sub-prefecture","CC_3": "NA","HASC_3": "NA","name": "Kaba-Donia.city","area_km2": 209.0416,"hist_schema_id": "Elevation0-9000","hist_area_km2": {"400": 4.4047,"425": 98.2883,"450": 90.4467,"475": 15.713,"500": 0.1888}}}