{"type": "Feature","bbox": [22.206,14.0172,22.4707,14.213],"geometry": {"type": "MultiPolygon","coordinates": [[[[22.34,14.196,996.0217],[22.28,14.213,1045.6553],[22.206,14.2,1097.5249],[22.248,14.151,1036.8701],[22.316,14.106,1116.1603],[22.355,14.039,1116.5254],[22.3519,14.0172,1139.1527],[22.3584,14.0175,1101.595],[22.3669,14.0229,1098.938],[22.3927,14.05,1074.967],[22.4261,14.0498,1070.6296],[22.431,14.0511,1067.4977],[22.4529,14.0656,1040.2036],[22.4707,14.081,1017.5857],[22.395,14.163,1000.3318],[22.34,14.196,996.0217]]]]}
,"properties": {"GID_3": "TCD.23.2.1_1","GID_0": "TCD","country": "Chad","GID_1": "TCD.23_1","province": "WadiFira","NL_NAME_1": "NA","GID_2": "TCD.23.2_1","county": "DarTama","NL_NAME_2": "NA","city": "Bali","VARNAME_3": "NA","NL_NAME_3": "NA","TYPE_3": "Sub-prefecture","ENGTYPE_3": "Sub-prefecture","CC_3": "NA","HASC_3": "NA","name": "Bali.city","area_km2": 264.9889,"hist_schema_id": "Elevation0-9000","hist_area_km2": {"975": 0.37,"1000": 27.238,"1025": 98.1302,"1050": 67.8739,"1075": 40.9826,"1100": 19.1447,"1125": 8.4936,"1150": 2.2417,"1175": 0.4525,"1200": 0.0617}}}