{"type":"Feature","properties":{"GID_3":"TCD.7.4.3_1","GID_0":"TCD","country":"Chad","GID_1":"TCD.7_1","province":"Guéra","NL_NAME_1":"NA","GID_2":"TCD.7.4_1","county":"Mangalmé","NL_NAME_2":"NA","city":"Moubi-Hadaba","VARNAME_3":"NA","NL_NAME_3":"NA","TYPE_3":"Sub-prefecture","ENGTYPE_3":"Sub-prefecture","CC_3":"NA","HASC_3":"NA","name":"Moubi-Hadaba.city"},
"geometry":{"type": "MultiPolygon","coordinates": [[[[19.36,12.798,373.4059],[19.424,12.75,379.265],[19.496,12.689,390.7884],[19.55,12.615,418.6556],[19.58,12.558,426.7791],[19.553,12.474,432.9182],[19.595,12.505,447.2159],[19.649,12.515,463.8564],[19.691,12.497,472.5173],[19.784,12.508,484.2668],[19.761,12.585,445.319],[19.758,12.635,429.4722],[19.764,12.724,425.1376],[19.753,12.808,414.4506],[19.727,12.902,414.8365],[19.698,12.943,396.0042],[19.671,12.948,398.6121],[19.601,12.939,401.1452],[19.36,12.798,373.4059]]]]}}