{"type":"Feature","properties":{"GID_3":"TCD.23.2.4_1","GID_0":"TCD","country":"Chad","GID_1":"TCD.23_1","province":"WadiFira","NL_NAME_1":"NA","GID_2":"TCD.23.2_1","county":"DarTama","NL_NAME_2":"NA","city":"Fare","VARNAME_3":"NA","NL_NAME_3":"NA","TYPE_3":"Sub-prefecture","ENGTYPE_3":"Sub-prefecture","CC_3":"NA","HASC_3":"NA","name":"Fare.city"},
"geometry":{"type": "MultiPolygon","coordinates": [[[[22.4291,14.3025,1051.6038],[22.4354,14.3125,1020.5233],[22.4459,14.3201,1023.2845],[22.4595,14.3239,1000.2334],[22.4618,14.329,1012.724],[22.4554,14.3567,968.1611],[22.45,14.3594,959.5049],[22.4436,14.3654,962.1785],[22.4412,14.4193,958.2303],[22.4435,14.426,951.6795],[22.4429,14.4308,946.7843],[22.348,14.386,980.8199],[22.27,14.326,1022.1744],[22.31,14.276,1011.0813],[22.363,14.242,1007.0457],[22.405,14.292,999.6196],[22.4291,14.3025,1051.6038]]]]}}