{"type": "Feature","bbox": [21.479,14.905,22.115,15.962],"geometry": {"type": "MultiPolygon","coordinates": [[[[21.7464,15.962,580.8164],[21.672,15.931,608.6798],[21.634,15.819,589.6953],[21.593,15.733,573.2524],[21.57,15.626,565.2358],[21.564,15.537,575.7991],[21.532,15.453,581.0582],[21.492,15.379,585.0834],[21.479,15.358,585.3672],[21.518,15.334,599.6587],[21.553,15.282,648.4578],[21.595,15.238,624.5457],[21.655,15.189,653.7043],[21.709,15.126,804.8644],[21.748,15.077,764.6881],[21.774,15.014,827.3629],[21.777,14.96,930.4042],[21.924,14.982,963.4553],[22.022,14.976,963.542],[22.079,14.905,976.9131],[22.114,15.001,964.6237],[22.115,15.085,926.8116],[22.072,15.186,997.3854],[22.039,15.257,1038.9501],[22.051,15.397,961.9553],[22.006,15.469,743.41],[21.945,15.534,689.5889],[21.932,15.596,713.1028],[21.956,15.65,717.5568],[21.984,15.7,734.6525],[21.974,15.757,685.191],[21.962,15.856,650.0502],[21.971,15.918,640.2643],[21.897,15.929,625.6002],[21.7464,15.962,580.8164]]]]}
,"properties": {"GID_3": "TCD.23.3.3_1","GID_0": "TCD","country": "Chad","GID_1": "TCD.23_1","province": "WadiFira","NL_NAME_1": "NA","GID_2": "TCD.23.3_1","county": "Kobé","NL_NAME_2": "NA","city": "Kapka-Bakaore","VARNAME_3": "NA","NL_NAME_3": "NA","TYPE_3": "Sub-prefecture","ENGTYPE_3": "Sub-prefecture","CC_3": "NA","HASC_3": "NA","name": "Kapka-Bakaore.city","area_km2": 4696.621,"hist_schema_id": "Elevation0-9000","hist_area_km2": {"575": 118.302,"600": 428.809,"625": 624.212,"650": 525.196,"675": 417.362,"700": 268.64,"725": 202.846,"750": 146.732,"775": 115.054,"800": 111.168,"825": 130.021,"850": 132.739,"875": 125.336,"900": 110.888,"925": 176.514,"950": 390.82,"975": 320.962,"1000": 178.442,"1025": 128.032,"1050": 39.146,"1075": 3.907,"1100": 0.859,"1125": 0.511,"1150": 0.102}}}