{"type":"Feature","properties":{"GID_3":"TCD.14.2.15_1","GID_0":"TCD","country":"Chad","GID_1":"TCD.14_1","province":"Mayo-KebbiEst","NL_NAME_1":"NA","GID_2":"TCD.14.2_1","county":"Mayo-Boneye","NL_NAME_2":"NA","city":"Toura","VARNAME_3":"NA","NL_NAME_3":"NA","TYPE_3":"Sub-prefecture","ENGTYPE_3":"Sub-prefecture","CC_3":"NA","HASC_3":"NA","name":"Toura.city"},
"geometry":{"type": "MultiPolygon","coordinates": [[[[15.8198,10.3089,330.9351],[15.838,10.3017,330.9248],[15.8782,10.2968,331.1241],[15.9215,10.2865,331.8111],[15.9512,10.2836,331.6948],[15.9694,10.286,331.6017],[15.981,10.2996,332.4611],[15.9943,10.3278,330.5492],[16.0015,10.3676,333.042],[15.9962,10.4128,329.3437],[15.9789,10.4483,329.4591],[15.9726,10.4723,330.7769],[15.9684,10.5005,327.6565],[15.9699,10.5168,323.9068],[15.9325,10.5085,324.7283],[15.8969,10.5061,328.0209],[15.8792,10.507,328.246],[15.8599,10.5037,327.9328],[15.8465,10.5131,327.8542],[15.8274,10.5206,324.4785],[15.8083,10.5314,323.6883],[15.7922,10.5328,325.7829],[15.7399,10.503,325.5794],[15.7111,10.4918,322.1316],[15.691,10.497,324.7956],[15.6283,10.5394,325.0536],[15.6041,10.5434,323.5558],[15.551,10.5322,319.6467],[15.5146,10.5192,320.5403],[15.4948,10.5252,320.0071],[15.4787,10.5477,318.7874],[15.4631,10.5647,316.8801],[15.4334,10.5858,315.7539],[15.4047,10.6026,315.4482],[15.3836,10.6007,315.365],[15.3485,10.5918,315.6584],[15.3147,10.5856,315.8059],[15.2933,10.5871,315.8681],[15.2912,10.5831,315.7314],[15.2946,10.5408,317.5955],[15.2939,10.5213,317.5386],[15.3003,10.5002,318.0145],[15.3209,10.488,318.1084],[15.3287,10.4695,318.8347],[15.3514,10.4562,318.7048],[15.3721,10.44,319.2618],[15.3894,10.4351,319.4001],[15.4155,10.4345,319.2041],[15.4492,10.4376,322.2861],[15.4657,10.4421,322.4259],[15.535,10.4426,322.2893],[15.5497,10.4472,322.7863],[15.5857,10.45,323.4423],[15.6618,10.4279,327.2724],[15.685,10.4117,326.5316],[15.7193,10.4228,326.2851],[15.7418,10.4058,327.6238],[15.7561,10.3897,329.1201],[15.7873,10.3464,330.5767],[15.8198,10.3089,330.9351]]]]}}