{"type": "Feature","bbox": [20.442,13.904,21.108,14.32],"geometry": {"type": "MultiPolygon","coordinates": [[[[21.108,14.129,654.3206],[21.084,14.139,682.8083],[21.032,14.142,695.3797],[21.005,14.153,662.5126],[20.962,14.197,601.5369],[20.923,14.25,558.4091],[20.846,14.32,511.6616],[20.82,14.274,512.2519],[20.766,14.245,500.6804],[20.707,14.231,506.596],[20.652,14.206,473.46],[20.648,14.164,483.1897],[20.647,14.12,475.5139],[20.614,14.098,486.5026],[20.564,14.086,480.9852],[20.508,14.094,476.645],[20.469,14.074,470.8717],[20.442,14.022,462.973],[20.451,13.989,452.6847],[20.485,13.977,460.8898],[20.534,13.97,471.3053],[20.574,13.973,480.8985],[20.607,13.956,484.7357],[20.695,13.904,648.8698],[20.746,13.934,525.0389],[20.853,13.976,563.5139],[21.02,14.053,637.5182],[21.108,14.129,654.3206]]]]}
,"properties": {"GID_3": "TCD.17.3.1_1","GID_0": "TCD","country": "Chad","GID_1": "TCD.17_1","province": "Ouaddaï","NL_NAME_1": "NA","GID_2": "TCD.17.3_1","county": "Ouara","NL_NAME_2": "NA","city": "Bourtail","VARNAME_3": "NA","NL_NAME_3": "NA","TYPE_3": "Sub-prefecture","ENGTYPE_3": "Sub-prefecture","CC_3": "NA","HASC_3": "NA","name": "Bourtail.city","area_km2": 1534.976,"hist_schema_id": "Elevation0-9000","hist_area_km2": {"450": 31.206,"475": 309.707,"500": 290.077,"525": 241.821,"550": 141.968,"575": 102.412,"600": 95.139,"625": 94.948,"650": 106.496,"675": 70.099,"700": 35.679,"725": 14.355,"750": 1.028,"775": 0.041}}}