{"type": "Feature","bbox": [15.258,12.222,16.195,12.619],"geometry": {"type": "MultiPolygon","coordinates": [[[[16.09,12.432,292.7798],[16.159,12.537,290.6696],[16.195,12.619,290.2295],[16.143,12.617,289.8712],[16.011,12.604,290.2397],[15.958,12.584,291.0378],[15.869,12.578,291.0919],[15.824,12.569,290.6633],[15.78,12.553,290.8895],[15.717,12.559,290.5153],[15.637,12.55,290.593],[15.592,12.567,291.0685],[15.475,12.571,289.0596],[15.409,12.56,288.8842],[15.342,12.579,288.8643],[15.26,12.589,288.7074],[15.258,12.528,289.1428],[15.292,12.474,290.6261],[15.326,12.434,291.0319],[15.373,12.363,292.2918],[15.404,12.322,290.8799],[15.435,12.29,294.9079],[15.506,12.222,294.2401],[15.564,12.273,293.4708],[15.684,12.338,293.4362],[15.831,12.343,294.2556],[15.976,12.338,294.7421],[16.048,12.382,293.9361],[16.09,12.432,292.7798]]]]}
,"properties": {"GID_3": "TCD.8.3.3_1","GID_0": "TCD","country": "Chad","GID_1": "TCD.8_1","province": "Hadjer-Lamis","NL_NAME_1": "NA","GID_2": "TCD.8.3_1","county": "HarazeAlBiar","NL_NAME_2": "NA","city": "Massaguet","VARNAME_3": "NA","NL_NAME_3": "NA","TYPE_3": "Sub-prefecture","ENGTYPE_3": "Sub-prefecture","CC_3": "NA","HASC_3": "NA","name": "Massaguet.city","area_km2": 2472.73,"hist_schema_id": "Elevation0-9000","hist_area_km2": {"275": 11.612,"300": 2461.118}}}