{"type": "Feature","bbox": [14.7287,8.8765,15.0344,9.2343],"geometry": {"type": "MultiPolygon","coordinates": [[[[14.8516,8.8765,418.752],[14.8641,8.8767,408.8976],[14.8829,8.8872,431.0223],[14.9145,8.9265,442.2706],[14.9356,8.9617,384.2674],[14.9425,8.9681,377.3606],[14.9477,8.9764,371.562],[14.9495,8.9849,378.2969],[14.9746,9.0303,378.9164],[14.9824,9.0511,392.7897],[15.0023,9.0868,393.5521],[15.0096,9.1059,381.6588],[15.0244,9.135,391.2113],[15.0312,9.1555,401.383],[15.0344,9.1741,415.1238],[15.0192,9.1901,416.5999],[15.0073,9.2128,411.4284],[14.992,9.2343,413.0433],[14.9909,9.2177,402.9465],[14.9595,9.1847,409.6284],[14.9482,9.1759,393.1786],[14.9335,9.1685,386.2407],[14.9238,9.1687,392.1216],[14.898,9.1547,399.4956],[14.8683,9.1414,398.9976],[14.8453,9.1381,421.4329],[14.7923,9.1231,422.4541],[14.7574,9.1059,406.3208],[14.7287,9.0853,412.8426],[14.7466,9.0733,394.151],[14.7563,9.0578,402.7242],[14.7638,9.0508,398.0645],[14.7915,9.0146,402.6434],[14.8055,9.0006,376.9349],[14.8322,8.9577,387.1099],[14.8405,8.9396,409.8368],[14.8446,8.9261,416.1151],[14.8478,8.8947,433.7438],[14.8516,8.8765,418.752]]]]}
,"properties": {"GID_3": "TCD.15.2.7_1","GID_0": "TCD","country": "Chad","GID_1": "TCD.15_1","province": "Mayo-KebbiOuest","NL_NAME_1": "NA","GID_2": "TCD.15.2_1","county": "Mayo-Dallah","NL_NAME_2": "NA","city": "Goumadji","VARNAME_3": "NA","NL_NAME_3": "NA","TYPE_3": "Sub-prefecture","ENGTYPE_3": "Sub-prefecture","CC_3": "NA","HASC_3": "NA","name": "Goumadji.city","area_km2": 582.7782,"hist_schema_id": "Elevation0-9000","hist_area_km2": {"350": 22.9295,"375": 268.6133,"400": 245.5846,"425": 42.6347,"450": 3.0162}}}