{"type":"Feature","properties":{"GID_3":"TCD.13.1.2_1","GID_0":"TCD","country":"Chad","GID_1":"TCD.13_1","province":"Mandoul","NL_NAME_1":"NA","GID_2":"TCD.13.1_1","county":"BarhSara","NL_NAME_2":"NA","city":"Begara","VARNAME_3":"NA","NL_NAME_3":"NA","TYPE_3":"Sub-prefecture","ENGTYPE_3":"Sub-prefecture","CC_3":"NA","HASC_3":"NA","name":"Begara.city"},
"geometry":{"type": "MultiPolygon","coordinates": [[[[17.6651,8.5683,378.4319],[17.6447,8.5308,378.6305],[17.6364,8.5,379.0574],[17.6365,8.4813,377.9008],[17.6421,8.4657,378.552],[17.6477,8.4567,380.0888],[17.6481,8.4504,379.7332],[17.6521,8.4401,379.7303],[17.6638,8.4455,382.1029],[17.7144,8.4463,382.6859],[17.749,8.4529,385.3792],[17.7709,8.4594,383.8514],[17.7906,8.4763,380.9377],[17.8226,8.5119,380.1283],[17.8016,8.5233,381.7653],[17.785,8.5369,378.3713],[17.7685,8.5643,376.174],[17.7639,8.5669,375.6913],[17.7274,8.5722,379.0646],[17.7188,8.5694,377.0684],[17.7082,8.5705,378.0501],[17.6912,8.5677,377.9389],[17.6836,8.5683,376.9746],[17.6795,8.5658,377.6442],[17.6651,8.5683,378.4319]]]]}}