{"type": "Feature","bbox": [15.3901,10.752,16.105,11.472],"geometry": {"type": "MultiPolygon","coordinates": [[[[15.4121,11.3081,300.9598],[15.4231,11.2821,297.0],[15.3901,11.2291,298.0282],[15.408,11.181,298.0],[15.421,11.114,301.1137],[15.438,11.061,306.764],[15.475,11.022,306.9132],[15.505,11.006,314.3303],[15.527,10.981,304.3098],[15.539,10.967,308.5309],[15.544,10.94,306.0294],[15.613,10.902,304.4703],[15.649,10.899,318.3393],[15.673,10.879,310.0078],[15.697,10.867,309.1096],[15.745,10.825,307.319],[15.84,10.795,310.9168],[15.872,10.79,313.5784],[15.907,10.778,313.1072],[15.996,10.779,310.0],[16.048,10.752,315.7698],[16.039,10.833,325.5534],[16.061,10.897,327.458],[16.038,10.947,326.8686],[16.031,11.026,327.3215],[16.044,11.159,327.6158],[16.075,11.219,330.6521],[16.105,11.284,329.3875],[16.037,11.321,328.9298],[15.963,11.378,327.9974],[15.803,11.472,325.6321],[15.718,11.445,317.1257],[15.628,11.403,315.2914],[15.544,11.368,310.8978],[15.4121,11.3081,300.9598]]]]}
,"properties": {"GID_3": "TCD.4.1.6_1","GID_0": "TCD","country": "Chad","GID_1": "TCD.4_1","province": "Chari-Baguirmi","NL_NAME_1": "NA","GID_2": "TCD.4.1_1","county": "Baguirmi","NL_NAME_2": "NA","city": "Mandjafa","VARNAME_3": "NA","NL_NAME_3": "NA","TYPE_3": "Sub-prefecture","ENGTYPE_3": "Sub-prefecture","CC_3": "NA","HASC_3": "NA","name": "Mandjafa.city","area_km2": 4079.615,"hist_schema_id": "Elevation0-9000","hist_area_km2": {"300": 543.995,"325": 3535.599}}}