{"type": "Feature","bbox": [17.2192,8.638,17.3894,8.9227],"geometry": {"type": "MultiPolygon","coordinates": [[[[17.2802,8.6716,407.2454],[17.2967,8.6988,395.0127],[17.3119,8.711,394.4037],[17.3303,8.7162,390.743],[17.3422,8.7234,383.9341],[17.3541,8.7344,380.2145],[17.3864,8.7751,378.6511],[17.3666,8.782,372.1028],[17.3621,8.7937,381.3332],[17.3633,8.8133,381.162],[17.3776,8.8338,378.5979],[17.3894,8.8447,379.0005],[17.3569,8.8565,378.344],[17.3329,8.873,378.3602],[17.3059,8.8936,378.0069],[17.2849,8.9227,376.5716],[17.2774,8.9204,377.3029],[17.2547,8.9062,378.7637],[17.2442,8.8792,377.2685],[17.2384,8.8485,380.1915],[17.237,8.816,380.756],[17.2315,8.7811,379.9545],[17.2286,8.7343,382.1841],[17.226,8.7186,382.0195],[17.2192,8.695,380.285],[17.2235,8.6693,380.3411],[17.2267,8.6623,374.7076],[17.2541,8.638,414.4606],[17.2614,8.6452,416.3884],[17.2802,8.6716,407.2454]]]]}
,"properties": {"GID_3": "TCD.13.2.6_1","GID_0": "TCD","country": "Chad","GID_1": "TCD.13_1","province": "Mandoul","NL_NAME_1": "NA","GID_2": "TCD.13.2_1","county": "MandoulOccidental","NL_NAME_2": "NA","city": "Peni-Tchad","VARNAME_3": "NA","NL_NAME_3": "NA","TYPE_3": "Sub-prefecture","ENGTYPE_3": "Sub-prefecture","CC_3": "NA","HASC_3": "NA","name": "Peni-Tchad.city","area_km2": 334.8358,"hist_schema_id": "Elevation0-9000","hist_area_km2": {"375": 310.2716,"400": 23.9983,"425": 0.5659}}}