{"type":"Feature","properties":{"GID_1":"TCD.8_1","GID_0":"TCD","country":"Chad","province":"Hadjer-Lamis","VARNAME_1":"NA","NL_NAME_1":"NA","TYPE_1":"Région","ENGTYPE_1":"Region","CC_1":"NA","HASC_1":"TD.HD","ISO_1":"NA","name":"Hadjer-Lamis.province"},
"geometry":{"type": "MultiPolygon","coordinates": [[[[17.088,11.627,328.0098],[17.139,11.566,329.0067],[17.335,11.472,334.7028],[17.378,11.539,336.1009],[17.425,11.586,338.4037],[17.487,11.632,349.4591],[17.545,11.672,357.7475],[17.619,11.679,349.8398],[17.68,11.68,358.85],[17.634,11.796,350.3899],[17.578,11.871,346.9734],[17.545,11.911,336.3253],[17.542,11.95,336.4068],[17.576,12.04,334.7657],[17.598,12.125,335.4867],[17.552,12.133,328.4498],[17.504,12.158,319.8728],[17.446,12.155,317.6791],[17.411,12.184,315.6617],[17.408,12.229,312.0338],[17.388,12.27,306.7254],[17.34,12.3,304.9272],[17.31,12.346,302.7043],[17.295,12.406,299.3244],[17.293,12.487,297.0349],[17.254,12.501,295.9987],[17.15,12.609,295.0515],[17.113,12.735,290.3555],[17.092,12.783,289.5598],[17.054,12.816,289.5462],[17.016,12.832,289.6426],[16.974,12.857,288.722],[16.958,12.88,288.6144],[16.997,12.937,288.4872],[17.077,13.007,287.8844],[17.13,13.046,287.5225],[17.161,13.099,288.7693],[17.101,13.133,288.6976],[17.063,13.137,289.6341],[17.024,13.157,289.636],[16.997,13.137,288.3198],[16.9,13.109,289.1455],[16.846,13.136,288.6379],[16.787,13.111,288.475],[16.762,13.09,288.1464],[16.547,13.07,286.9514],[16.493,13.055,287.8038],[16.468,13.034,286.8527],[16.425,13.044,288.1811],[16.361,13.051,290.7913],[16.261,13.036,288.6932],[16.215,13.04,290.783],[16.179,13.023,289.3748],[16.108,13.036,289.4623],[15.998,13.044,288.3004],[15.991,13.08,287.7307],[15.966,13.122,285.1739],[15.91,13.173,285.6227],[15.862,13.154,286.2017],[15.755,13.163,290.146],[15.736,13.179,293.3441],[15.576,13.247,293.9448],[15.428,13.317,298.4993],[15.38,13.393,287.6427],[15.231,13.372,290.2999],[15.258,13.299,292.5529],[15.313,13.239,278.5508],[15.378,13.215,290.5552],[15.399,13.189,295.1014],[15.332,13.136,285.0241],[15.31,13.149,281.5468],[15.29,13.14,290.7212],[15.275,13.103,283.5964],[15.26,13.095,286.427],[15.244,13.116,281.8274],[15.208,13.156,281.6046],[15.19,13.199,281.835],[15.145,13.223,285.5361],[15.101,13.219,278.8374],[15.027,13.252,279.2312],[15.009,13.244,286.179],[15.001,13.227,284.9877],[15.042,13.171,283.8838],[15.042,13.111,279.6314],[15.019,12.996,280.7685],[14.835,12.993,280.7745],[14.5168,12.9949,281.386],[14.5334,12.9705,281.6108],[14.5329,12.9665,281.6617],[14.5292,12.961,281.8945],[14.5397,12.937,281.3929],[14.5516,12.9343,281.5793],[14.5527,12.9262,281.9055],[14.5616,12.9149,282.1289],[14.5641,12.9077,282.2438],[14.5642,12.8899,283.5499],[14.5716,12.8838,280.4121],[14.5701,12.8801,283.8204],[14.56,12.8806,284.7725],[14.5577,12.8787,281.7338],[14.5564,12.8593,282.2644],[14.5655,12.8402,280.5144],[14.5655,12.8327,280.0],[14.5612,12.8182,285.4652],[14.5529,12.8073,282.7689],[14.5474,12.796,280.0],[14.5483,12.7872,280.0],[14.5569,12.7727,288.394],[14.5597,12.7709,285.9818],[14.5664,12.7781,282.9105],[14.5726,12.7796,283.6458],[14.5744,12.7784,283.7292],[14.578,12.775,280.5],[14.579,12.7702,280.5],[14.578,12.7561,285.8617],[14.5793,12.7528,286.6434],[14.5885,12.7447,285.8616],[14.5952,12.7439,286.3903],[14.6013,12.7478,287.4982],[14.6061,12.7531,281.1434],[14.6148,12.7677,281.558],[14.6218,12.7704,287.5103],[14.6247,12.7684,283.6481],[14.6256,12.7606,285.1983],[14.6209,12.7469,284.141],[14.6171,12.7435,284.3614],[14.6176,12.7374,286.1119],[14.6216,12.7365,285.6445],[14.6343,12.7387,284.6205],[14.6374,12.7377,284.7071],[14.6465,12.7308,283.6185],[14.6532,12.7224,286.4507],[14.663,12.7186,288.3486],[14.676,12.7178,283.0326],[14.7036,12.7239,288.8439],[14.7175,12.719,284.549],[14.724,12.711,284.1047],[14.7259,12.7073,281.5],[14.7259,12.7032,287.8147],[14.7193,12.6919,286.616],[14.71,12.6839,288.063],[14.7063,12.6781,290.0729],[14.7051,12.6714,283.2057],[14.707,12.6609,282.9474],[14.7146,12.6549,287.2065],[14.7183,12.6534,288.548],[14.7228,12.6539,287.5188],[14.7307,12.6594,287.7385],[14.7331,12.6652,288.415],[14.735,12.6802,287.1211],[14.7422,12.6851,288.1364],[14.7473,12.6854,289.2031],[14.7542,12.6814,282.6509],[14.7574,12.6755,286.6318],[14.762,12.6598,283.3066],[14.7635,12.6416,285.128],[14.7727,12.6319,287.9807],[14.7769,12.6296,288.4183],[14.7904,12.6283,285.8013],[14.8239,12.6335,289.7836],[14.831,12.6295,288.8094],[14.8359,12.6177,282.875],[14.8377,12.6075,283.0],[14.8368,12.6012,287.8182],[14.8409,12.586,283.6856],[14.8527,12.5596,283.9639],[14.854,12.5451,288.9908],[14.8512,12.5134,284.0],[14.857,12.5035,284.0],[14.859,12.4965,284.5],[14.8582,12.48,290.4669],[14.8476,12.4735,289.6422],[14.845,12.4697,284.5],[14.8443,12.4636,286.6662],[14.8461,12.4567,286.636],[14.8502,12.449,289.7702],[14.8552,12.446,289.6495],[14.8611,12.4473,290.4895],[14.8646,12.4512,289.991],[14.8659,12.4606,288.6398],[14.8725,12.4626,289.758],[14.877,12.4604,286.256],[14.8799,12.4539,285.0],[14.8783,12.4387,285.0],[14.8807,12.4266,287.3936],[14.9,12.3984,285.5],[14.9096,12.3762,288.8732],[14.9067,12.362,290.6303],[14.9013,12.3499,291.1546],[14.9009,12.3409,290.0703],[14.9039,12.3351,289.8406],[14.9105,12.3297,287.995],[14.9104,12.3249,290.3963],[14.9021,12.3135,291.1174],[14.8937,12.3059,286.0],[14.8932,12.3024,286.0],[14.8961,12.2944,288.5369],[14.905,12.2814,291.0866],[14.9066,12.2745,290.9888],[14.9054,12.2633,291.6375],[14.9,12.2567,291.1343],[14.8965,12.2431,286.0],[14.9038,12.2245,287.1835],[14.9023,12.2153,291.9813],[14.8955,12.2065,291.5662],[14.8931,12.2004,286.25],[14.8976,12.191,292.9893],[14.9073,12.1873,291.4755],[14.9007,12.2002,292.7068],[14.9,12.2055,291.5931],[14.9049,12.2175,294.1061],[14.9061,12.2253,292.5177],[14.961,12.244,291.793],[14.991,12.229,290.978],[15.049,12.225,292.8783],[15.096,12.232,292.7736],[15.191,12.253,290.8426],[15.269,12.279,292.2951],[15.335,12.319,293.0239],[15.373,12.363,292.2918],[15.404,12.322,290.8799],[15.435,12.29,294.9079],[15.506,12.222,294.2401],[15.564,12.273,293.4708],[15.684,12.338,293.4362],[15.831,12.343,294.2556],[15.976,12.338,294.7421],[16.048,12.382,293.9361],[16.09,12.432,292.7798],[16.302,12.354,293.8242],[16.45,12.305,295.1011],[16.493,12.296,296.2957],[16.666,12.229,301.8358],[16.695,12.198,303.9737],[16.725,12.133,308.4584],[16.708,11.995,316.1006],[16.744,11.932,318.2285],[16.79,11.904,317.8187],[16.797,11.874,325.781],[16.812,11.823,325.9713],[16.826,11.726,327.0421],[16.858,11.676,327.1664],[16.906,11.684,326.8196],[17.019,11.668,327.9125],[17.088,11.627,328.0098]]]]}}