{"type": "Feature","id": "1464","bbox": [14.48104,11.49319,17.62557,13.40513],"geometry": {"type": "Polygon","coordinates": [[[15.56014,13.26483,288.4129],[15.44105,13.31867,287.0449],[15.43222,13.32404,291.4095],[15.41423,13.3411,290.6682],[15.40214,13.3566,294.7458],[15.37837,13.39577,281.549],[15.37449,13.40022,283.841],[15.36814,13.40497,283.9916],[15.35682,13.40513,286.7411],[15.2299,13.38141,281.156],[15.21905,13.37779,284.6748],[15.2145,13.37241,278.7844],[15.21946,13.36141,284.1767],[15.30592,13.24105,281.1181],[15.30917,13.23795,283.6654],[15.31336,13.23521,293.7049],[15.31817,13.23315,293.5829],[15.36674,13.22369,288.7203],[15.37201,13.22183,289.1617],[15.37573,13.21852,289.3056],[15.37821,13.21418,290.5552],[15.38318,13.19878,298.0114],[15.38349,13.19367,289.4373],[15.38209,13.18886,287.5683],[15.3793,13.18504,298.9712],[15.32798,13.14416,293.7478],[15.32266,13.14132,289.8123],[15.31894,13.14209,291.4582],[15.31165,13.14979,289.4285],[15.30669,13.15072,287.3245],[15.30127,13.15021,291.1773],[15.29321,13.14741,281.7303],[15.29011,13.14607,280.9016],[15.28654,13.14369,284.0625],[15.2839,13.13966,290.878],[15.28235,13.13413,281.6196],[15.28049,13.12168,291.2862],[15.27848,13.11522,292.1036],[15.27569,13.10886,287.2057],[15.2699,13.10204,282.6265],[15.26463,13.10049,283.6937],[15.25951,13.10122,286.9535],[15.25533,13.1039,282.8126],[15.25161,13.10721,282.0536],[15.24866,13.11114,280.9284],[15.24587,13.11538,282.2484],[15.23858,13.13537,291.7913],[15.23548,13.13925,291.5417],[15.23161,13.14235,290.2203],[15.22742,13.14519,290.1848],[15.2237,13.14855,284.7962],[15.21812,13.15672,291.4085],[15.21419,13.15992,291.392],[15.1897,13.17119,287.4578],[15.18551,13.17377,289.8209],[15.18257,13.17708,289.5634],[15.1821,13.18168,283.0055],[15.18226,13.19268,280.9691],[15.1804,13.19723,282.929],[15.17776,13.20105,282.4219],[15.17404,13.20374,282.1455],[15.16954,13.20607,281.8466],[15.13539,13.218,283.2723],[15.10516,13.22348,281.4751],[15.09534,13.22658,284.5851],[15.08821,13.22979,290.0909],[15.08402,13.23253,280.4529],[15.07906,13.23475,284.6031],[15.07363,13.2364,291.3849],[15.06154,13.23878,279.2964],[15.04041,13.24632,283.511],[15.02459,13.25387,289.5338],[15.00428,13.26007,279.1592],[14.99664,13.25966,285.5049],[14.99121,13.25749,279.7574],[14.98857,13.25325,280.9433],[14.98811,13.24787,284.1946],[14.9895,13.24291,280.4635],[14.99415,13.23377,279.0],[14.99808,13.22431,283.8035],[15.00165,13.207,283.623],[15.00258,13.18824,283.7267],[15.00413,13.18297,279.5699],[15.00723,13.17899,283.2774],[15.01514,13.17279,283.9318],[15.0187,13.16922,281.1315],[15.0218,13.16509,284.4542],[15.02413,13.16049,284.3423],[15.04227,13.10364,279.575],[15.0432,13.09796,279.7439],[15.04304,13.09186,282.8115],[15.03777,13.06907,280.2827],[15.02382,13.03342,281.355],[15.01746,13.0098,282.5112],[15.01405,13.00334,279.8389],[15.00723,13.00096,281.3407],[14.99839,12.99983,280.5532],[14.5009,13.00148,280.0],[14.48104,13.00051,281.8398],[14.48214,12.99882,281.7052],[14.4963,12.98381,280.0],[14.50467,12.969,280.9767],[14.50767,12.95244,281.6335],[14.50612,12.93208,281.656],[14.49062,12.88635,282.024],[14.4901,12.87361,282.0571],[14.50044,12.85911,282.1217],[14.53103,12.83625,284.7476],[14.54901,12.81821,286.3582],[14.54901,12.78046,285.7207],[14.55108,12.77157,286.9977],[14.5548,12.7669,286.3802],[14.56069,12.76622,284.1561],[14.56937,12.7694,285.4034],[14.56937,12.75961,284.4071],[14.57072,12.75039,285.8851],[14.57526,12.74491,285.7578],[14.58488,12.74635,285.8269],[14.604,12.7608,288.7092],[14.61061,12.76235,281.0],[14.61836,12.7592,288.251],[14.62033,12.75405,282.6697],[14.62074,12.74785,284.1938],[14.62425,12.74188,284.7517],[14.64172,12.7309,286.5963],[14.64813,12.72512,286.9244],[14.66446,12.71597,288.1003],[14.69402,12.72372,288.9867],[14.70993,12.71824,287.6947],[14.71676,12.70181,289.2401],[14.70208,12.669,284.0449],[14.71365,12.65251,287.7697],[14.72885,12.67721,288.3673],[14.73412,12.68042,283.439],[14.74332,12.67716,287.9016],[14.7521,12.66894,287.7414],[14.75872,12.65882,287.6166],[14.7614,12.64936,282.0],[14.76884,12.63324,288.4297],[14.78621,12.63122,286.9513],[14.81918,12.63882,282.25],[14.83075,12.61825,288.3258],[14.86383,12.49547,289.0912],[14.86011,12.49009,289.635],[14.85204,12.47469,289.5638],[14.85018,12.46813,290.2629],[14.84956,12.45702,285.2816],[14.85101,12.45516,285.0],[14.85545,12.45454,288.0707],[14.86383,12.44704,290.1006],[14.86186,12.45201,290.3868],[14.86589,12.45257,290.1857],[14.8724,12.4504,289.4543],[14.87747,12.44704,285.0],[14.8785,12.44307,285.0],[14.87685,12.43159,288.1742],[14.87747,12.4272,289.7939],[14.89121,12.40265,289.5322],[14.90827,12.3269,286.8698],[14.9063,12.31796,291.3455],[14.90486,12.24866,290.5918],[14.99818,12.25907,291.1968],[15.06966,12.25907,292.4089],[15.16157,12.27949,291.5031],[15.26368,12.29991,292.0836],[15.30453,12.34076,291.578],[15.3658,12.33055,291.4053],[15.40665,12.27949,293.8251],[15.49855,12.26928,293.1775],[15.54961,12.31012,292.7213],[15.713,12.35097,293.6971],[15.87638,12.34076,294.177],[15.9785,12.37139,294.3366],[16.06019,12.4633,291.9575],[16.51972,12.2897,296.8999],[16.64226,12.22843,302.4632],[16.67289,12.1161,309.8685],[16.67289,12.00378,316.5349],[16.72395,11.94251,316.6663],[16.77501,11.88124,323.0313],[16.78522,11.73827,328.0076],[16.83628,11.69743,326.9378],[16.91797,11.69743,326.9521],[16.98945,11.68721,326.6764],[17.06093,11.62594,326.7654],[17.1222,11.56467,326.6968],[17.26517,11.49319,333.663],[17.45919,11.66679,348.3965],[17.62557,11.7151,345.9779],[17.52366,11.91514,336.2737],[17.5171,11.93281,336.988],[17.51731,11.9479,335.8991],[17.51989,11.96227,335.4847],[17.56738,12.12908,327.37],[17.5601,12.15564,330.1768],[17.55188,12.15859,324.2158],[17.54335,12.16298,327.8903],[17.53932,12.16613,322.9622],[17.5308,12.17176,319.5939],[17.52552,12.17373,318.7994],[17.51979,12.17517,319.0723],[17.49834,12.17745,318.2452],[17.49338,12.17859,317.0695],[17.48873,12.18055,317.8877],[17.48067,12.18659,316.728],[17.47617,12.18892,317.2648],[17.47059,12.19006,315.0208],[17.4647,12.18995,316.7632],[17.45891,12.18892,316.9817],[17.44837,12.18597,316.5177],[17.44264,12.18494,316.9239],[17.43659,12.18458,316.6472],[17.4245,12.18551,316.3856],[17.41241,12.18758,315.8422],[17.40693,12.18939,315.9774],[17.40212,12.19171,315.5553],[17.39825,12.19497,315.7511],[17.38445,12.20907,313.3487],[17.38197,12.21435,312.426],[17.38026,12.22117,310.8774],[17.3815,12.24866,307.7716],[17.38057,12.25615,306.9056],[17.37747,12.26344,306.7577],[17.3705,12.27315,306.7061],[17.36073,12.28287,305.8499],[17.35747,12.28783,305.6827],[17.35112,12.30375,304.6209],[17.34771,12.30979,304.3091],[17.34424,12.31418,304.4924],[17.34052,12.31687,304.0965],[17.31587,12.32555,303.1085],[17.31153,12.32824,302.9006],[17.30797,12.3316,302.7458],[17.28947,12.3547,301.2258],[17.28528,12.36875,300.6196],[17.25986,12.49376,295.4059],[17.25955,12.50637,296.1048],[17.25753,12.51552,295.851],[17.25071,12.5259,294.0832],[17.2442,12.53014,295.2665],[17.23733,12.53236,295.9437],[17.23081,12.53257,296.2167],[17.2181,12.53154,297.4919],[17.21175,12.53185,294.3655],[17.20616,12.53324,297.9299],[17.2012,12.53546,297.9024],[17.19717,12.53846,295.8414],[17.19361,12.54239,293.5252],[17.18565,12.55288,296.9149],[17.17743,12.56042,297.0936],[17.17294,12.56595,296.481],[17.1686,12.57386,293.9862],[17.1596,12.59794,295.0702],[17.15604,12.60419,295.034],[17.15216,12.60729,295.4906],[17.14751,12.60967,295.002],[17.13728,12.6136,294.7641],[17.13278,12.61639,294.0539],[17.1287,12.61949,293.4828],[17.12529,12.62311,293.0606],[17.12235,12.62714,293.091],[17.11583,12.63913,292.8856],[17.10219,12.67489,292.664],[17.08591,12.73969,290.334],[17.08188,12.74925,290.6281],[17.03889,12.82991,289.3],[17.03222,12.83725,289.2874],[17.00178,12.86144,288.2468],[16.97822,12.87508,288.032],[16.94701,12.89999,287.2006],[16.9436,12.90371,286.9052],[16.94112,12.90841,287.7568],[16.93957,12.91404,288.7328],[16.93988,12.922,287.7129],[16.94127,12.9281,288.4474],[16.9436,12.93342,288.4714],[16.96985,12.97058,287.9653],[17.05873,13.05378,287.6623],[17.07268,13.06396,289.0182],[17.08824,13.08101,289.3859],[17.1317,13.144,288.6817],[17.05966,13.17057,289.9495],[17.00582,13.18235,289.8779],[16.99729,13.18209,288.3282],[16.99372,13.17961,289.0085],[16.97993,13.16571,288.1985],[16.97403,13.16292,287.9636],[16.96628,13.16049,288.9901],[16.90887,13.15248,288.7705],[16.89766,13.14979,288.2953],[16.88014,13.14318,287.9651],[16.87192,13.14297,288.033],[16.84727,13.14726,288.9244],[16.83885,13.15124,287.7245],[16.82412,13.15982,288.2292],[16.81869,13.15951,287.7969],[16.81079,13.15687,287.0382],[16.80118,13.15253,288.9216],[16.78066,13.147,288.1531],[16.77074,13.14318,290.4929],[16.76345,13.13956,289.4492],[16.74841,13.12612,287.2816],[16.74004,13.12065,287.8083],[16.731,13.1161,288.7481],[16.71937,13.11305,288.0384],[16.48941,13.08163,287.9048],[16.48073,13.07631,285.8903],[16.47267,13.07042,287.4273],[16.46182,13.05905,287.5934],[16.45639,13.05517,287.8013],[16.44781,13.05099,287.6212],[16.44099,13.05026,287.5635],[16.43495,13.0513,287.9738],[16.42425,13.05497,287.5523],[16.40983,13.06184,288.2308],[16.39665,13.06463,287.6516],[16.37288,13.06608,292.5392],[16.36172,13.06918,289.4501],[16.32493,13.07445,289.0417],[16.31485,13.07434,286.9536],[16.3071,13.07316,291.2532],[16.29129,13.06788,288.731],[16.27154,13.05838,287.9595],[16.25666,13.05347,287.4827],[16.24689,13.05197,290.629],[15.99998,13.04758,287.7453],[15.98681,13.0515,287.0054],[15.97022,13.11352,284.5871],[15.96526,13.12199,285.1739],[15.88361,13.18788,285.399],[15.87167,13.1715,283.9684],[15.84764,13.16876,289.0333],[15.77623,13.17186,287.6417],[15.74305,13.18214,289.882],[15.56014,13.26483,288.4129]]]}
,"properties": {"ISO3166-1-Alpha-3": "TCD","country": "Chad","fill": "#00F","name": "Hadjer-Lamis","area_km2": 30410.71,"hist_schema_id": "Elevation0-9000","hist_area_km2": {"275": 6158.86,"300": 19518.56,"325": 4329.87,"350": 395.36,"375": 3.46,"400": 2.26,"425": 1.18,"450": 0.37,"475": 0.41}}}