{"type": "Feature","bbox": [14.247374947113144,12.870302144522896,14.768105088009094,13.253564238048341],"geometry": {"type": "Polygon","coordinates": [[[14.733664485134682,13.080772495422053,280.0],[14.72424483306645,13.089014690981742,280.0],[14.718651914650962,13.098728707177088,280.0],[14.717180094015305,13.109325815753806,280.0],[14.719829371159477,13.11639055480498,280.4797],[14.719535007032363,13.121983473220467,280.0],[14.718651914650962,13.127870755763126,280.0],[14.702756251785843,13.134935494814272,280.0],[14.692747871463382,13.148770608789476,280.0],[14.675380387962605,13.157307168476279,280.0],[14.670964926055632,13.164371907527453,280.0],[14.666843828275773,13.177029564994115,280.9737],[14.667726920657174,13.180561934519687,280.0],[14.673614203199804,13.188509765952233,280.0],[14.667432556530059,13.205582885325867,281.5735],[14.651242529537797,13.215885629775471,281.6288],[14.631814497147104,13.212353260249898,280.0],[14.609737187612239,13.217357450411129,281.7815],[14.611209008247897,13.209409618978583,281.0025],[14.614152649519212,13.202639244054552,281.6774],[14.612092100629297,13.197340689766179,280.0],[14.607676638722324,13.192925227859206,280.0],[14.598551350781236,13.199106874528979,280.0],[14.57058675870374,13.227660194860761,280.0],[14.550569998058791,13.242084037090194,280.1934],[14.544388351389017,13.248854412014225,280.0],[14.536734884083586,13.253564238048341,281.526],[14.513185753913064,13.251209325031283,283.1445],[14.46432130880919,13.230603836132076,282.4536],[14.462555124046418,13.222361640572387,281.6673],[14.469031134843306,13.214413809139813,280.0],[14.457256569758044,13.216474358029757,283.0651],[14.446953825308441,13.222067276445244,283.5638],[14.437534173240209,13.223539097080902,280.3113],[14.373951521779787,13.193808320240606,281.2182],[14.364237505584441,13.180267570392544,281.6526],[14.366886782728614,13.170259190070084,281.7604],[14.363648777330155,13.162900086891796,282.1385],[14.356289674151867,13.158778989111937,280.0],[14.346575657956521,13.15819026085768,281.6252],[14.337156005888318,13.15907335323908,280.0],[14.327147625565829,13.16231135863751,280.5361],[14.318022337624768,13.167609912925883,281.1722],[14.308897049683679,13.171731010705741,281.4526],[14.300360489996848,13.172614103087142,281.1989],[14.303304131268163,13.165549364035968,281.1777],[14.344809473193749,13.118745467822038,280.0],[14.359527679550325,13.11226945702515,280.0],[14.371302244635586,13.102555440829804,280.0],[14.373068429398387,13.083421772566226,280.0],[14.376306434796817,13.073413392243765,280.1599],[14.38072189670379,13.063699376048419,280.4783],[14.362765684948783,13.067820473828249,281.0781],[14.350696755736379,13.081655587803453,281.0013],[14.345986929702264,13.088720326854599,281.0471],[14.306836500793764,13.126693299254583,280.0],[14.278871908716241,13.136112951322815,281.7851],[14.284759191258871,13.125221478618926,282.1114],[14.296533756344132,13.11815673956778,281.3512],[14.302421038886791,13.109031451626691,280.0],[14.305953408412364,13.099023071304202,280.7908],[14.321260343023198,13.069881022718164,280.8275],[14.324792712548799,13.057223365251502,281.5327],[14.285053555386014,13.061638827158475,281.0302],[14.27386771855501,13.058106457632903,282.3255],[14.278577544589126,13.052807903344529,280.3482],[14.285347919513129,13.0486868055647,281.0249],[14.290352109674387,13.042210794767811,280.0],[14.291529566182902,13.034851691589495,280.8739],[14.294178843327103,13.027198224284092,281.1922],[14.29388447919996,13.019544756978661,280.9965],[14.282993006496099,13.013068746181773,281.377],[14.263270609978264,13.011596925546115,281.1809],[14.257677691562776,13.009830740783315,281.0276],[14.25120168076586,13.004532186494941,281.0088],[14.247374947113144,12.999233632206568,280.8857],[14.260621332834091,12.993935077918195,280.6898],[14.270924077283695,12.984809789977135,281.0988],[14.270335349029438,12.980099963943019,280.8511],[14.271807169665095,12.973918317273245,281.1341],[14.285936647767414,12.961849388060841,281.4423],[14.293590115072817,12.94683681757715,280.6179],[14.284170463004614,12.941243899161634,280.8729],[14.273278990300753,12.938300257890319,281.6787],[14.287997196657329,12.90415401914305,281.1831],[14.275928267444925,12.898561100727534,281.4601],[14.26886352839378,12.88825835627793,280.0],[14.300360489996848,12.887669628023673,280.4617],[14.310368870319337,12.8850203508795,280.0],[14.313312511590652,12.875011970557011,281.6079],[14.318611065879026,12.870302144522896,281.9634],[14.343043288430948,12.879133068336841,280.0],[14.353640397007695,12.878838704209727,280.0],[14.362765684948783,12.874128878175611,280.7256],[14.37247970114413,12.872951421667096,281.9926],[14.387492271627821,12.8823710737353,281.6417],[14.394557010678994,12.8832541661167,282.1104],[14.400444293221625,12.882076709608157,280.0],[14.406625939891399,12.882076709608157,280.0],[14.410158309416971,12.894440002947704,280.0],[14.39838374433171,12.907097660414365,280.0],[14.406037211637113,12.915928584228311,280.0],[14.415456863705344,12.9232876874066,280.0],[14.42340469513789,12.930941154712031,281.0805],[14.432529983078979,12.936239709000404,280.0],[14.441360906892925,12.933296067729088,281.1498],[14.448720010071213,12.926525692805058,281.2948],[14.450486194834014,12.929763698203487,281.1815],[14.452252379596786,12.933001703601946,280.0],[14.452546743723929,12.943598812178692,280.6938],[14.456373477376644,12.951252279484123,280.0],[14.461966395792132,12.957433926153868,280.0],[14.46520440119059,12.951546643611238,280.0],[14.469031134843306,12.939183350271719,280.0],[14.473446596750279,12.937122801381804,281.4133],[14.476684602148737,12.944187540432949,281.7727],[14.479039515165795,12.952429735992638,280.0],[14.485515525962683,12.957433926153868,280.0],[14.495523906285143,12.97009158362053,280.4394],[14.509064656133205,12.978039415053104,280.0],[14.540855981863444,12.983632333468591,281.1303],[14.550864362185905,12.985987246485649,280.0],[14.560578378381251,12.984515425849992,280.0],[14.564993840288224,12.977156322671703,280.0],[14.571469851085112,12.971563404256187,281.9365],[14.578534590136286,12.974212681400388,280.0],[14.580889503153344,12.981866148705819,280.0],[14.588248606331632,12.991285800774023,280.0],[14.598845714908379,12.996289990935253,280.0],[14.609442823485097,12.993935077918195,280.0],[14.619451203807586,12.990108344265479,280.0],[14.637113051435477,12.973035224891845,280.0],[14.644766518740909,12.972446496637588,280.0],[14.652714350173454,12.973918317273245,280.0],[14.667138192402916,12.974507045527503,280.0],[14.681267670505235,12.977745050925961,280.0],[14.683916947649436,12.983337969341477,281.8863],[14.680973306378093,12.989519616011222,280.0],[14.678618393361063,12.995406898553853,280.0],[14.681267670505235,13.001882909350769,280.0],[14.687154953047866,13.004237822367827,280.0],[14.688921137810667,13.007181463639142,281.2029],[14.690687322573439,13.009536376656172,280.0],[14.698635154006013,13.038972789369353,280.0],[14.7051111648029,13.044565707784841,280.0],[14.720712463540877,13.052219175090272,280.0],[14.768105088009094,13.069881022718164,280.8187],[14.7451446860928,13.075768305260823,280.0],[14.733664485134682,13.080772495422053,280.0]]]}
,"properties": {"featurecla": "Lake","scalerank": 1,"name": "Lake Chad","name_abb": "L. Chad","name_alt": null,"note": null,"delta": "New or modified in version 1.3","dam_name": null,"year": -99,"admin": "admin-0 more","min_zoom": 1.7,"min_label": 3.6,"area_km2": 1293.0365,"hist_schema_id": "Elevation0-9000","hist_area_km2": {"275": 1293.0159,"300": 0.0206}}}