{"type":"Feature","properties":{"GID_3":"TCD.16.3.9_1","GID_0":"TCD","country":"Chad","GID_1":"TCD.16_1","province":"Moyen-Chari","NL_NAME_1":"NA","GID_2":"TCD.16.3_1","county":"LacIro","NL_NAME_2":"NA","city":"Kyabe","VARNAME_3":"NA","NL_NAME_3":"NA","TYPE_3":"Sub-prefecture","ENGTYPE_3":"Sub-prefecture","CC_3":"NA","HASC_3":"NA","name":"Kyabe.city"},
"geometry":{"type": "MultiPolygon","coordinates": [[[[18.9253,9.4407,383.8477],[18.9232,9.4222,374.9085],[18.927,9.4109,373.1507],[18.9316,9.3826,374.2737],[18.9503,9.3783,372.3208],[18.9809,9.3644,375.1691],[19.0002,9.3662,374.0179],[19.0084,9.3706,374.7459],[19.0064,9.3824,368.7146],[18.9918,9.4129,374.8136],[18.9865,9.4275,374.0281],[18.9846,9.446,374.5217],[18.985,9.4555,375.8704],[18.9986,9.4666,376.4492],[19.0098,9.4803,383.1022],[19.012,9.4934,395.3992],[19.0032,9.5014,409.6549],[18.9911,9.5024,420.653],[18.9624,9.5124,429.3009],[18.9472,9.5292,435.3489],[18.9396,9.5459,452.1803],[18.9361,9.5628,470.618],[18.9261,9.5685,483.4604],[18.9222,9.5657,485.2513],[18.9191,9.5526,473.016],[18.9268,9.5023,428.9989],[18.9274,9.4836,413.4892],[18.9253,9.4407,383.8477]]]]}}