{"type":"Feature","properties":{"GID_3":"TCD.14.2.10_1","GID_0":"TCD","country":"Chad","GID_1":"TCD.14_1","province":"Mayo-KebbiEst","NL_NAME_1":"NA","GID_2":"TCD.14.2_1","county":"Mayo-Boneye","NL_NAME_2":"NA","city":"Mitau","VARNAME_3":"NA","NL_NAME_3":"NA","TYPE_3":"Sub-prefecture","ENGTYPE_3":"Sub-prefecture","CC_3":"NA","HASC_3":"NA","name":"Mitau.city"},
"geometry":{"type": "MultiPolygon","coordinates": [[[[15.544,10.94,306.0294],[15.5429,10.9191,316.9745],[15.5388,10.8909,313.9942],[15.5224,10.859,313.9598],[15.5135,10.8459,314.0728],[15.5,10.8314,313.6337],[15.4607,10.774,314.3219],[15.4908,10.7466,315.9661],[15.5381,10.7429,316.0946],[15.6209,10.7436,319.4892],[15.6467,10.7411,320.6473],[15.6672,10.7284,322.2753],[15.685,10.7156,322.6883],[15.6949,10.7032,326.2135],[15.7138,10.6409,326.0426],[15.7275,10.5856,326.7115],[15.7296,10.5623,327.3251],[15.7498,10.555,326.4108],[15.7676,10.553,325.457],[15.7869,10.5537,324.9942],[15.8132,10.5491,325.8593],[15.8286,10.5439,327.0013],[15.865,10.5229,324.0091],[15.8792,10.507,328.246],[15.8969,10.5061,328.0209],[15.9325,10.5085,324.7283],[15.9699,10.5168,323.9068],[15.9971,10.5825,327.8706],[16.0087,10.6041,327.9379],[16.0305,10.6303,327.3168],[16.0553,10.6549,325.9166],[16.0741,10.6711,327.1125],[16.14,10.74,327.4049],[16.117,10.767,314.739],[16.048,10.752,315.7698],[15.996,10.779,310.0],[15.907,10.778,313.1072],[15.872,10.79,313.5784],[15.84,10.795,310.9168],[15.745,10.825,307.319],[15.697,10.867,309.1096],[15.673,10.879,310.0078],[15.649,10.899,318.3393],[15.613,10.902,304.4703],[15.544,10.94,306.0294]]]]}}