{"type": "Feature","bbox": [17.381,9.4296,18.642,10.497],"geometry": {"type": "MultiPolygon","coordinates": [[[[17.381,9.826,347.7145],[17.461,9.785,353.3111],[17.521,9.74,358.116],[17.591,9.673,352.9009],[17.6246,9.6639,354.8649],[17.6511,9.6631,356.8795],[17.6741,9.6655,357.7847],[17.6902,9.6808,358.1494],[17.7082,9.6864,358.9033],[17.7298,9.6967,361.4467],[17.7482,9.7031,360.0367],[17.7912,9.7247,349.3992],[17.8008,9.7383,348.5896],[17.8101,9.7479,353.8467],[17.833,9.7645,354.6297],[17.88,9.7802,353.9424],[17.8994,9.7739,355.0126],[17.9005,9.7482,355.1863],[17.9186,9.7062,358.3043],[17.9294,9.6758,355.3742],[17.9498,9.6461,358.2757],[17.972,9.6256,358.5343],[17.9983,9.5882,358.2588],[18.0363,9.5599,360.9457],[18.0553,9.5367,361.5013],[18.0839,9.5096,359.3013],[18.0867,9.4652,359.411],[18.1025,9.4403,356.0626],[18.1313,9.4296,353.6941],[18.1405,9.4354,362.4986],[18.1601,9.4535,361.2542],[18.1947,9.4638,363.3269],[18.2171,9.4773,363.5344],[18.2546,9.511,367.6927],[18.277,9.5213,366.6291],[18.2953,9.5358,365.8579],[18.3076,9.5703,364.4988],[18.3111,9.5919,365.1766],[18.3233,9.6363,368.5447],[18.3299,9.6741,370.6097],[18.3412,9.7078,372.5966],[18.3604,9.7762,368.9551],[18.3783,9.8203,368.0287],[18.4047,9.8198,370.2719],[18.4133,9.8116,368.7338],[18.4434,9.8381,367.1696],[18.462,9.8235,369.3203],[18.4822,9.8183,371.2056],[18.4964,9.8342,372.9146],[18.5019,9.8499,374.1723],[18.5117,9.8642,375.4083],[18.5286,9.8787,377.2505],[18.5326,9.8939,376.8866],[18.5502,9.9025,375.4698],[18.5627,9.9011,375.1774],[18.5879,9.9029,373.0095],[18.6176,9.9119,372.7489],[18.632,9.919,371.116],[18.642,10.025,377.0905],[18.496,10.186,375.2409],[18.437,10.212,369.0147],[18.381,10.247,367.4492],[18.341,10.24,368.7788],[18.289,10.262,364.929],[18.209,10.322,365.8643],[18.164,10.346,361.2156],[18.104,10.365,359.2461],[18.067,10.35,358.4732],[18.013,10.381,358.4543],[17.962,10.397,356.0126],[17.864,10.497,396.2153],[17.543,10.451,350.8359],[17.489,10.172,345.8617],[17.381,9.826,347.7145]]]]}
,"properties": {"GID_3": "TCD.16.1.5_1","GID_0": "TCD","country": "Chad","GID_1": "TCD.16_1","province": "Moyen-Chari","NL_NAME_1": "NA","GID_2": "TCD.16.1_1","county": "BarhKöh","NL_NAME_2": "NA","city": "Korbol","VARNAME_3": "NA","NL_NAME_3": "NA","TYPE_3": "Sub-prefecture","ENGTYPE_3": "Sub-prefecture","CC_3": "NA","HASC_3": "NA","name": "Korbol.city","area_km2": 9404.681,"hist_schema_id": "Elevation0-9000","hist_area_km2": {"350": 5475.174,"375": 3844.917,"400": 64.484,"425": 7.196,"450": 3.629,"475": 2.461,"500": 2.107,"525": 1.085,"550": 0.897,"575": 0.897,"600": 0.501,"625": 0.417,"650": 0.438,"675": 0.292,"725": 0.104}}}