{"type":"Feature","properties":{"GID_3":"TCD.2.3.4_1","GID_0":"TCD","country":"Chad","GID_1":"TCD.2_1","province":"Batha","NL_NAME_1":"NA","GID_2":"TCD.2.3_1","county":"Fitri","NL_NAME_2":"NA","city":"Ouled-Rachid","VARNAME_3":"NA","NL_NAME_3":"NA","TYPE_3":"Sub-prefecture","ENGTYPE_3":"Sub-prefecture","CC_3":"NA","HASC_3":"NA","name":"Ouled-Rachid.city"},
"geometry":{"type": "MultiPolygon","coordinates": [[[[20.044,15.661,395.8506],[20.043,15.742,393.0444],[19.865,15.773,388.1422],[19.749,15.813,377.6882],[19.705,15.816,378.4165],[19.626,15.827,373.6362],[19.559,15.843,368.4338],[19.483,15.92,362.0444],[19.433,16.007,362.2748],[19.402,16.081,350.8624],[19.355,16.109,351.312],[19.2741,16.097,347.8762],[19.2811,16.0091,358.307],[19.2701,15.9161,356.5922],[19.2531,15.8291,352.2906],[19.2191,15.7361,352.3477],[19.1561,15.6291,351.988],[19.0901,15.5451,348.2359],[19.027,15.488,347.4782],[18.926,15.415,347.5593],[18.801,15.354,336.8184],[18.651,15.314,332.1689],[18.612,15.194,324.1477],[18.6,15.066,332.5483],[18.519,14.921,320.2179],[18.438,14.755,313.1575],[18.349,14.587,315.2105],[18.29,14.429,313.2871],[18.232,14.322,319.8515],[18.171,14.192,321.2242],[18.126,14.117,326.316],[18.192,14.094,331.5712],[18.236,14.067,324.1692],[18.314,13.996,331.2711],[18.403,13.837,334.6183],[18.439,13.762,335.1982],[18.482,13.736,335.6646],[18.553,13.689,338.9443],[18.582,13.625,338.3467],[18.599,13.567,340.3186],[18.625,13.444,340.4388],[18.634,13.391,341.4145],[18.637,13.358,341.153],[18.766,13.331,346.8111],[18.846,13.423,349.3728],[18.896,13.551,350.7895],[18.909,13.674,349.1914],[18.943,13.885,348.5945],[18.974,14.064,350.9891],[18.99,14.215,347.6998],[19.372,14.622,360.3961],[19.504,14.74,364.6904],[19.662,14.929,370.6092],[19.804,15.137,378.2955],[19.899,15.316,384.1512],[20.028,15.572,393.8312],[20.044,15.661,395.8506]]]]}}