{"type": "Feature","bbox": [18.5041,8.6408,19.1222,9.3465],"geometry": {"type": "MultiPolygon","coordinates": [[[[19.1057,8.6924,371.9655],[19.1051,8.6987,378.3035],[19.0998,8.6995,366.0119],[19.0822,8.7105,366.1223],[19.0595,8.7158,365.8912],[19.0417,8.7274,373.4809],[19.0333,8.7355,374.665],[19.0196,8.7614,385.5948],[19.0145,8.7657,380.6852],[19.0,8.7704,373.4348],[18.9971,8.7693,364.4854],[18.9704,8.7814,364.1634],[18.9604,8.7881,363.7707],[18.9566,8.7935,364.743],[18.9523,8.8092,372.1512],[18.9466,8.8128,372.6743],[18.9359,8.81,368.3324],[18.923,8.8004,370.9101],[18.9097,8.8069,371.4686],[18.9071,8.8146,363.3622],[18.9062,8.8468,361.8328],[18.9008,8.8506,366.0287],[18.8885,8.8513,368.4076],[18.8839,8.8482,367.9356],[18.8808,8.8437,366.7111],[18.8814,8.8405,368.2735],[18.8715,8.8428,365.612],[18.8686,8.8493,364.6728],[18.8636,8.8505,365.0717],[18.8625,8.8526,365.6757],[18.8673,8.8617,368.041],[18.8655,8.8659,365.5838],[18.8657,8.8714,367.4248],[18.8683,8.8757,370.1907],[18.8823,8.8811,367.7268],[18.8927,8.8896,370.7127],[18.8923,8.8935,370.2634],[18.8866,8.898,366.599],[18.889,8.901,367.3116],[18.8957,8.9013,368.3852],[18.9053,8.8978,373.0602],[18.9117,8.9126,374.5897],[18.9186,8.9231,367.5045],[18.9226,8.926,369.1739],[18.933,8.9264,374.1345],[18.9431,8.931,365.7291],[18.9482,8.9307,368.7248],[18.9571,8.927,372.9796],[18.9604,8.9276,373.617],[18.9624,8.9338,370.2406],[18.9661,8.936,370.5182],[18.9685,8.9403,370.8439],[18.9759,8.9415,368.3549],[18.9775,8.9484,370.2569],[18.9814,8.9537,369.296],[18.9838,8.9684,370.1972],[18.9876,8.9752,368.655],[18.9927,8.9792,369.473],[18.9988,8.9798,369.3768],[19.0042,8.977,370.4861],[19.0097,8.9781,370.3688],[19.0233,8.9951,369.2812],[18.9964,9.0303,375.7739],[18.9758,9.0511,373.3156],[18.9333,9.0727,372.5318],[18.9142,9.0793,373.2345],[18.8968,9.09,373.9454],[18.8719,9.1006,371.3459],[18.8551,9.1134,372.3795],[18.8426,9.1273,371.9526],[18.8392,9.1451,373.3746],[18.8366,9.1827,371.3875],[18.8352,9.2404,374.4268],[18.839,9.2764,372.6173],[18.8472,9.3227,372.1503],[18.8474,9.3465,370.9129],[18.8355,9.3405,371.0443],[18.8032,9.3294,370.8804],[18.7817,9.3371,367.0976],[18.7776,9.3312,366.5924],[18.7752,9.3144,368.845],[18.7776,9.2984,370.1064],[18.7731,9.2811,371.0934],[18.7526,9.2702,366.607],[18.6971,9.2531,365.9603],[18.6807,9.2376,363.0411],[18.6706,9.2218,363.785],[18.6581,9.2076,366.2466],[18.6445,9.1653,367.088],[18.6313,9.1467,367.2375],[18.6156,9.1189,374.366],[18.6013,9.1007,367.787],[18.5991,9.0927,367.9995],[18.5991,9.0817,368.4792],[18.6026,9.0702,367.0029],[18.6159,9.0502,367.4262],[18.6331,9.0345,367.9331],[18.6358,9.024,366.8738],[18.6333,9.0108,367.3157],[18.6028,9.0,368.062],[18.5965,8.993,367.8445],[18.5946,8.9893,368.5829],[18.593,8.9748,367.5765],[18.595,8.9499,366.8924],[18.5927,8.936,361.8615],[18.5848,8.9315,366.2905],[18.5759,8.9339,367.7799],[18.5634,8.9344,367.6186],[18.5545,8.9326,367.7017],[18.537,8.9343,366.4747],[18.5164,8.943,366.1209],[18.5077,8.9444,366.1901],[18.5041,8.9132,369.6882],[18.505,8.8784,371.7489],[18.5087,8.8678,371.5984],[18.5366,8.8816,370.6335],[18.5557,8.8755,370.7337],[18.5659,8.8649,371.5611],[18.5683,8.8437,372.7925],[18.5747,8.8149,374.6293],[18.6033,8.7994,377.5817],[18.6122,8.7844,378.1141],[18.6165,8.7648,379.4133],[18.6126,8.7403,381.244],[18.6365,8.7307,379.3419],[18.6583,8.7324,380.0771],[18.6702,8.7209,380.6779],[18.6761,8.7013,382.7094],[18.6861,8.6898,382.5535],[18.7039,8.6913,382.9333],[18.7166,8.7003,383.3098],[18.7432,8.6992,385.3008],[18.7649,8.6851,385.1175],[18.7725,8.6692,379.6565],[18.8196,8.6538,383.6719],[18.8525,8.661,384.4139],[18.8867,8.6525,382.4363],[18.9043,8.6682,384.3231],[18.9453,8.6585,385.7737],[18.9713,8.6723,381.8526],[19.0081,8.6805,379.9306],[19.0506,8.6735,376.4898],[19.0778,8.6408,373.1341],[19.0836,8.6492,375.6269],[19.091,8.6496,374.1594],[19.094,8.6519,372.9341],[19.0966,8.6577,375.2465],[19.1005,8.661,372.459],[19.1133,8.6647,366.8956],[19.1206,8.6687,366.676],[19.1222,8.6712,373.4364],[19.1214,8.6754,368.462],[19.1159,8.6782,370.3474],[19.109,8.6857,369.7831],[19.1057,8.6924,371.9655]]]]}
,"properties": {"GID_3": "TCD.16.1.7_1","GID_0": "TCD","country": "Chad","GID_1": "TCD.16_1","province": "Moyen-Chari","NL_NAME_1": "NA","GID_2": "TCD.16.1_1","county": "BarhKöh","NL_NAME_2": "NA","city": "Moussafoyo","VARNAME_3": "NA","NL_NAME_3": "NA","TYPE_3": "Sub-prefecture","ENGTYPE_3": "Sub-prefecture","CC_3": "NA","HASC_3": "NA","name": "Moussafoyo.city","area_km2": 2407.407,"hist_schema_id": "Elevation0-9000","hist_area_km2": {"350": 16.862,"375": 2383.713,"400": 6.832}}}