{"type": "Feature","bbox": [22.163,10.9309,22.9861,11.829],"geometry": {"type": "MultiPolygon","coordinates": [[[[22.8813,10.9309,500.8848],[22.8882,10.9472,502.5485],[22.8888,10.9552,501.7006],[22.9041,10.9926,517.8801],[22.9072,11.0057,523.0959],[22.9105,11.0098,524.0093],[22.938,11.0875,521.2301],[22.945,11.091,518.4415],[22.9658,11.1422,526.8984],[22.9777,11.1814,543.8061],[22.9861,11.1996,555.0748],[22.9821,11.2961,584.7581],[22.9652,11.3061,593.1419],[22.9636,11.3096,590.6487],[22.9533,11.312,585.3878],[22.9514,11.3228,575.0333],[22.9453,11.4172,601.8982],[22.9385,11.4181,602.7569],[22.8712,11.4148,606.8188],[22.789,11.4032,585.0231],[22.7878,11.4383,611.1888],[22.7776,11.4514,625.4238],[22.7542,11.4751,626.671],[22.7415,11.4794,628.4275],[22.6622,11.5155,663.7197],[22.6422,11.5365,673.7973],[22.6363,11.5399,676.4929],[22.6026,11.5757,712.6349],[22.6003,11.5814,707.5672],[22.5661,11.6207,692.7234],[22.5541,11.6872,677.4397],[22.567,11.7469,661.6403],[22.471,11.756,637.9946],[22.398,11.774,665.4783],[22.347,11.792,756.2377],[22.303,11.829,700.7863],[22.252,11.77,774.8395],[22.185,11.705,696.0752],[22.163,11.634,553.8942],[22.465,10.9951,481.4527],[22.4686,10.9992,481.3175],[22.477,11.0006,479.4532],[22.494,10.9973,481.0013],[22.4972,11.0031,482.9739],[22.509,11.0073,481.517],[22.5207,11.0076,483.5858],[22.5527,10.9937,484.5282],[22.5687,10.9842,487.0281],[22.573,10.9844,487.2421],[22.5771,10.9877,487.1703],[22.6044,10.9967,489.3611],[22.6123,10.997,488.9082],[22.632,10.9904,488.5721],[22.6558,10.9795,493.0092],[22.6829,10.9802,495.7921],[22.7031,10.9723,499.3162],[22.7108,10.9716,497.1628],[22.7343,10.9745,500.5612],[22.7446,10.9711,501.3253],[22.756,10.962,501.4205],[22.7612,10.9496,501.2645],[22.7687,10.9441,500.6867],[22.7757,10.9453,501.4402],[22.8174,10.9345,500.5877],[22.8474,10.9341,497.8423],[22.8532,10.9312,500.7098],[22.8658,10.9322,501.7856],[22.8813,10.9309,500.8848]]]]}
,"properties": {"GID_3": "TCD.19.2.2_1","GID_0": "TCD","country": "Chad","GID_1": "TCD.19_1","province": "Sila","NL_NAME_1": "NA","GID_2": "TCD.19.2_1","county": "Sila","NL_NAME_2": "NA","city": "Fongoro","VARNAME_3": "NA","NL_NAME_3": "NA","TYPE_3": "Sub-prefecture","ENGTYPE_3": "Sub-prefecture","CC_3": "NA","HASC_3": "NA","name": "Fongoro.city","area_km2": 4959.929,"hist_schema_id": "Elevation0-9000","hist_area_km2": {"475": 54.109,"500": 704.611,"525": 877.237,"550": 895.66,"575": 788.517,"600": 591.297,"625": 411.565,"650": 238.271,"675": 131.5,"700": 118.344,"725": 67.041,"750": 34.469,"775": 19.7,"800": 13.949,"825": 6.891,"850": 2.366,"875": 1.1,"900": 0.976,"925": 0.768,"950": 0.54,"975": 0.436,"1000": 0.332,"1025": 0.208,"1050": 0.042}}}