{"type": "Feature","bbox": [17.1401,8.296,17.3881,8.5386],"geometry": {"type": "MultiPolygon","coordinates": [[[[17.295,8.296,378.5481],[17.3053,8.3085,380.8216],[17.3105,8.3129,381.7901],[17.318,8.3164,381.6139],[17.3283,8.3461,375.9285],[17.3341,8.3564,375.1342],[17.3456,8.3911,378.5193],[17.3542,8.4064,380.5475],[17.3669,8.4401,371.0521],[17.3738,8.4648,370.9238],[17.3881,8.5014,369.9806],[17.3732,8.5063,370.412],[17.3648,8.5118,373.5603],[17.3506,8.5129,375.4719],[17.3256,8.5215,375.2425],[17.256,8.5321,420.3017],[17.2393,8.5386,422.0428],[17.2233,8.537,416.3555],[17.2159,8.5344,411.1038],[17.205,8.5342,404.0686],[17.1967,8.5272,400.8806],[17.1916,8.5264,397.3909],[17.174,8.5301,385.6077],[17.1575,8.5301,384.1193],[17.1401,8.5276,383.1804],[17.159,8.495,411.7458],[17.295,8.296,378.5481]]]]}
,"properties": {"GID_3": "TCD.13.2.2_1","GID_0": "TCD","country": "Chad","GID_1": "TCD.13_1","province": "Mandoul","NL_NAME_1": "NA","GID_2": "TCD.13.2_1","county": "MandoulOccidental","NL_NAME_2": "NA","city": "Bebo-Pen","VARNAME_3": "NA","NL_NAME_3": "NA","TYPE_3": "Sub-prefecture","ENGTYPE_3": "Sub-prefecture","CC_3": "NA","HASC_3": "NA","name": "Bebo-Pen.city","area_km2": 381.7583,"hist_schema_id": "Elevation0-9000","hist_area_km2": {"375": 199.2271,"400": 74.4485,"425": 60.0383,"450": 44.4791,"475": 3.5652}}}