{"type": "Feature","bbox": [16.6399,8.6873,17.152,9.0991],"geometry": {"type": "MultiPolygon","coordinates": [[[[17.0992,8.7036,383.0157],[17.142,8.762,382.3062],[17.152,8.885,378.4353],[17.15,8.971,395.8194],[17.134,9.078,521.037],[16.986,9.05,469.8042],[16.772,9.071,471.314],[16.7131,9.0991,473.1663],[16.6768,9.0421,441.6883],[16.6713,9.0299,429.3442],[16.6618,9.0215,416.0515],[16.6399,8.9923,367.8259],[16.6482,8.9907,383.9654],[16.6756,8.9903,407.9936],[16.7022,8.9848,411.0478],[16.7258,8.9857,413.7574],[16.7472,8.9842,415.7846],[16.7608,8.9813,416.5173],[16.7935,8.9657,404.4761],[16.8085,8.9553,389.4329],[16.8146,8.9496,382.7262],[16.8322,8.9203,376.8109],[16.8423,8.925,379.965],[16.8688,8.9233,378.2413],[16.8947,8.9197,378.1012],[16.9424,8.9094,381.189],[16.9555,8.9034,381.1179],[16.979,8.8845,381.6782],[16.988,8.8793,381.1987],[17.0168,8.8378,382.5072],[17.0189,8.8286,382.8066],[17.0176,8.8238,385.9587],[17.0125,8.818,382.966],[17.0088,8.8178,383.3191],[16.9939,8.8021,383.4328],[16.9704,8.7853,384.2804],[16.9572,8.7789,384.5531],[16.9431,8.7763,384.5051],[16.9271,8.771,385.4826],[16.9043,8.7687,386.5992],[16.8912,8.765,393.6221],[16.8975,8.7478,387.8431],[16.8996,8.7121,388.3116],[16.9006,8.7048,388.7368],[16.9046,8.6952,388.9413],[16.9438,8.6873,387.6142],[16.9675,8.6881,386.9575],[16.9912,8.6917,385.2338],[17.0121,8.7004,384.3947],[17.0434,8.7057,381.7012],[17.0701,8.7074,383.6857],[17.0992,8.7036,383.0157]]]]}
,"properties": {"GID_3": "TCD.12.4.5_1","GID_0": "TCD","country": "Chad","GID_1": "TCD.12_1","province": "LogoneOriental","NL_NAME_1": "NA","GID_2": "TCD.12.4_1","county": "Pendé","NL_NAME_2": "NA","city": "Kara/Maibo-Goulaye","VARNAME_3": "NA","NL_NAME_3": "NA","TYPE_3": "Sub-prefecture","ENGTYPE_3": "Sub-prefecture","CC_3": "NA","HASC_3": "NA","name": "Kara_Maibo-Goulaye.city","area_km2": 1241.9772,"hist_schema_id": "Elevation0-9000","hist_area_km2": {"375": 617.2482,"400": 192.6836,"425": 162.4806,"450": 161.2535,"475": 94.4298,"500": 13.5675,"525": 0.3141}}}