{"type": "Feature","bbox": [15.958,8.3546,16.2826,8.569],"geometry": {"type": "MultiPolygon","coordinates": [[[[15.958,8.491,411.5927],[16.0146,8.4332,424.8387],[16.0538,8.3903,432.6544],[16.0888,8.3679,482.139],[16.1211,8.357,521.7024],[16.1459,8.3546,503.3073],[16.1895,8.37,453.4003],[16.2151,8.373,452.6195],[16.2656,8.3905,445.0356],[16.2793,8.3991,441.1281],[16.2788,8.4316,469.0138],[16.2826,8.4949,505.2797],[16.2474,8.4753,505.1564],[16.2093,8.4668,499.5997],[16.1569,8.4982,470.7107],[16.1087,8.5345,420.9042],[16.077,8.569,401.4833],[16.043,8.558,395.0],[15.996,8.536,403.8359],[15.99,8.512,404.5541],[15.958,8.491,411.5927]]]]}
,"properties": {"GID_3": "TCD.12.3.2_1","GID_0": "TCD","country": "Chad","GID_1": "TCD.12_1","province": "LogoneOriental","NL_NAME_1": "NA","GID_2": "TCD.12.3_1","county": "NyaPendé","NL_NAME_2": "NA","city": "Boro","VARNAME_3": "NA","NL_NAME_3": "NA","TYPE_3": "Sub-prefecture","ENGTYPE_3": "Sub-prefecture","CC_3": "NA","HASC_3": "NA","name": "Boro.city","area_km2": 478.5164,"hist_schema_id": "Elevation0-9000","hist_area_km2": {"400": 81.3158,"425": 83.7795,"450": 88.21,"475": 88.9071,"500": 106.1868,"525": 30.1171}}}