{"type": "Feature","bbox": [14.7651,9.1656,15.1345,9.5029],"geometry": {"type": "MultiPolygon","coordinates": [[[[15.0921,9.4774,419.972],[15.0508,9.4747,407.2229],[15.0393,9.471,418.4715],[15.0124,9.4792,410.3496],[14.9949,9.4869,405.65],[14.9839,9.4948,394.9425],[14.9708,9.5004,383.0289],[14.9552,9.4998,393.5007],[14.9412,9.5029,386.5312],[14.9328,9.4991,394.2137],[14.9083,9.4814,408.105],[14.8773,9.4708,417.5371],[14.8514,9.4721,400.2571],[14.8346,9.478,390.4141],[14.8284,9.4853,396.4281],[14.8211,9.4902,415.6945],[14.7837,9.4184,360.1005],[14.769,9.3865,391.226],[14.7651,9.355,420.6895],[14.7681,9.3316,391.6606],[14.7823,9.3054,389.2628],[14.805,9.2778,410.7133],[14.8367,9.2475,404.7292],[14.8435,9.2385,395.8339],[14.8631,9.2283,436.7459],[14.9091,9.1788,400.1159],[14.9167,9.1656,390.631],[14.9238,9.1687,392.1216],[14.9335,9.1685,386.2407],[14.9482,9.1759,393.1786],[14.9595,9.1847,409.6284],[14.9909,9.2177,402.9465],[14.992,9.2343,413.0433],[15.0157,9.2913,459.4061],[15.021,9.319,487.7601],[15.0311,9.3355,461.9014],[15.0492,9.3429,492.4807],[15.0774,9.3577,476.9692],[15.0979,9.3536,479.4963],[15.1226,9.3608,468.162],[15.1345,9.3668,475.9366],[15.1283,9.3765,454.3438],[15.1199,9.3951,451.1326],[15.1115,9.4014,440.8025],[15.1039,9.412,444.422],[15.0999,9.427,439.1922],[15.0893,9.4385,424.4163],[15.0879,9.4532,426.5518],[15.0919,9.4683,424.0269],[15.0921,9.4774,419.972]]]]}
,"properties": {"GID_3": "TCD.15.2.3_1","GID_0": "TCD","country": "Chad","GID_1": "TCD.15_1","province": "Mayo-KebbiOuest","NL_NAME_1": "NA","GID_2": "TCD.15.2_1","county": "Mayo-Dallah","NL_NAME_2": "NA","city": "Erde-Pala","VARNAME_3": "NA","NL_NAME_3": "NA","TYPE_3": "Sub-prefecture","ENGTYPE_3": "Sub-prefecture","CC_3": "NA","HASC_3": "NA","name": "Erde-Pala.city","area_km2": 892.0923,"hist_schema_id": "Elevation0-9000","hist_area_km2": {"350": 8.8472,"375": 50.3448,"400": 189.9211,"425": 288.4188,"450": 204.6974,"475": 117.9986,"500": 29.3955,"525": 2.2388,"550": 0.2302}}}