{"type": "Feature","bbox": [15.9355,9.113,16.0573,9.3345],"geometry": {"type": "MultiPolygon","coordinates": [[[[16.044,9.128,382.7423],[16.0443,9.144,368.4973],[16.0543,9.1964,374.5038],[16.0573,9.232,372.1867],[16.0529,9.2808,367.9098],[16.0411,9.2988,361.5104],[16.0273,9.3115,371.4153],[16.0151,9.3345,366.7839],[16.0044,9.3279,367.7561],[15.9936,9.3268,369.0356],[15.9842,9.3217,369.8806],[15.9627,9.2981,365.1801],[15.9563,9.2874,364.6811],[15.9459,9.28,368.7678],[15.9455,9.2707,370.9465],[15.938,9.2446,378.9211],[15.9377,9.2289,382.576],[15.9355,9.2203,388.3259],[15.9379,9.2112,389.3251],[15.9489,9.2068,389.0992],[15.9588,9.1913,395.8719],[15.9644,9.1782,390.0706],[15.9654,9.1622,371.1071],[15.962,9.1477,370.3616],[15.959,9.113,387.1385],[15.984,9.129,379.4662],[16.044,9.128,382.7423]]]]}
,"properties": {"GID_3": "TCD.20.1.4_1","GID_0": "TCD","country": "Chad","GID_1": "TCD.20_1","province": "Tandjilé","NL_NAME_1": "NA","GID_2": "TCD.20.1_1","county": "Béré","NL_NAME_2": "NA","city": "Tchoa","VARNAME_3": "NA","NL_NAME_3": "NA","TYPE_3": "Sub-prefecture","ENGTYPE_3": "Sub-prefecture","CC_3": "NA","HASC_3": "NA","name": "Tchoa.city","area_km2": 228.4502,"hist_schema_id": "Elevation0-9000","hist_area_km2": {"350": 8.5584,"375": 196.5553,"400": 23.3365}}}