{"type":"Feature","properties":{"GID_3":"TCD.20.3.6_1","GID_0":"TCD","country":"Chad","GID_1":"TCD.20_1","province":"Tandjilé","NL_NAME_1":"NA","GID_2":"TCD.20.3_1","county":"TandjiléOuest","NL_NAME_2":"NA","city":"Mesme","VARNAME_3":"NA","NL_NAME_3":"NA","TYPE_3":"Sub-prefecture","ENGTYPE_3":"Sub-prefecture","CC_3":"NA","HASC_3":"NA","name":"Mesme.city"},
"geometry":{"type": "MultiPolygon","coordinates": [[[[15.421,9.21,386.6461],[15.432,9.179,390.134],[15.4418,9.1748,401.2521],[15.4549,9.17,382.6534],[15.5056,9.1608,407.3131],[15.5357,9.149,431.9801],[15.5486,9.1419,441.9272],[15.5664,9.1391,460.486],[15.5754,9.1412,465.253],[15.5869,9.1472,472.6749],[15.5969,9.1598,484.7745],[15.611,9.1732,458.9622],[15.6315,9.2126,444.3956],[15.637,9.2203,444.5991],[15.6442,9.2253,445.8431],[15.6507,9.2325,448.2803],[15.6539,9.2391,452.4036],[15.6688,9.2503,452.6131],[15.6788,9.2555,446.6234],[15.6997,9.2594,437.6743],[15.7099,9.2554,435.8665],[15.73,9.2555,424.4885],[15.7434,9.2607,415.1737],[15.752,9.2666,407.8579],[15.7537,9.2705,402.587],[15.7618,9.2751,397.762],[15.755,9.2831,394.0411],[15.7414,9.3259,384.3376],[15.7478,9.3423,372.4997],[15.7583,9.3487,367.947],[15.7711,9.3617,365.4711],[15.771,9.3754,366.8173],[15.7701,9.381,366.2679],[15.7527,9.4016,362.1995],[15.7462,9.4169,361.955],[15.7459,9.4246,361.2568],[15.7317,9.423,362.6778],[15.7119,9.4181,364.248],[15.7072,9.4186,364.1833],[15.7014,9.4217,364.0745],[15.6888,9.4346,359.5522],[15.6594,9.4788,352.8442],[15.6518,9.493,357.6482],[15.566,9.419,355.2267],[15.484,9.319,395.1607],[15.475,9.289,387.5073],[15.445,9.242,391.9383],[15.421,9.21,386.6461]]]]}}