{"type":"Feature","properties":{"GID_3":"TCD.12.2.10_1","GID_0":"TCD","country":"Chad","GID_1":"TCD.12_1","province":"LogoneOriental","NL_NAME_1":"NA","GID_2":"TCD.12.2_1","county":"MontsdeLam","NL_NAME_2":"NA","city":"Pao","VARNAME_3":"NA","NL_NAME_3":"NA","TYPE_3":"Sub-prefecture","ENGTYPE_3":"Sub-prefecture","CC_3":"NA","HASC_3":"NA","name":"Pao.city"},
"geometry":{"type": "MultiPolygon","coordinates": [[[[15.5546,7.5722,517.7152],[15.5739,7.5905,517.0001],[15.5746,7.5951,520.5711],[15.57,7.5995,515.5198],[15.5684,7.6048,513.6719],[15.5701,7.611,511.4042],[15.5816,7.6245,507.7086],[15.5872,7.6419,504.1766],[15.5865,7.6497,510.6631],[15.5824,7.6555,498.485],[15.5827,7.6584,496.6546],[15.5949,7.6754,501.6623],[15.5982,7.6901,490.9392],[15.5957,7.6951,481.9657],[15.5955,7.7208,474.5627],[15.593,7.7296,472.5073],[15.5954,7.7378,469.3402],[15.591,7.7443,468.2242],[15.5915,7.7495,463.9672],[15.5959,7.7578,458.4687],[15.6378,7.7612,461.8665],[15.6952,7.7787,452.7712],[15.7172,7.8027,443.3517],[15.7342,7.8248,436.5],[15.7532,7.8555,443.8329],[15.7664,7.8724,451.7678],[15.7776,7.8978,447.0525],[15.7898,7.9296,450.7591],[15.7922,7.9453,440.0564],[15.7865,7.9701,432.0015],[15.7744,7.9891,447.7982],[15.7465,8.0194,477.7298],[15.702,8.0497,492.1623],[15.6947,8.0584,508.8603],[15.6784,8.0546,499.334],[15.6527,8.0515,508.3942],[15.5759,8.053,555.3499],[15.5313,8.0584,555.7662],[15.4851,8.0563,496.7873],[15.4627,8.059,497.3101],[15.4272,8.0583,520.8083],[15.3949,8.0554,537.2308],[15.3957,8.0444,528.0247],[15.4524,7.8811,601.7222],[15.5047,7.7936,493.155],[15.5886,7.7725,477.9204],[15.5891,7.7654,462.0355],[15.5924,7.7572,458.2682],[15.5865,7.7438,465.4135],[15.5909,7.7382,465.465],[15.5887,7.7244,466.7221],[15.5927,7.7202,471.0181],[15.5896,7.7121,469.7786],[15.5904,7.6947,475.135],[15.5936,7.6892,485.8616],[15.5922,7.6776,487.3932],[15.5891,7.6728,489.2359],[15.5872,7.6651,495.8593],[15.583,7.6624,492.8241],[15.5816,7.6577,493.877],[15.5769,7.6557,492.9643],[15.5822,7.651,490.8959],[15.5833,7.6398,503.8307],[15.5797,7.6354,504.2038],[15.579,7.626,506.702],[15.5704,7.6142,511.2397],[15.5648,7.6097,512.3954],[15.5647,7.6022,509.8814],[15.5705,7.5947,510.2347],[15.5702,7.5929,508.9589],[15.5634,7.5828,516.8216],[15.558,7.5797,517.4847],[15.5546,7.5722,517.7152]]]]}}