{"type": "Feature","bbox": [21.848,13.198,22.2785,13.517],"geometry": {"type": "MultiPolygon","coordinates": [[[[21.877,13.198,742.5233],[21.924,13.212,759.4935],[21.999,13.25,809.2277],[22.088,13.301,845.0701],[22.131,13.307,836.8615],[22.212,13.37,819.5848],[22.252,13.3865,783.9614],[22.2785,13.3906,760.9633],[22.2596,13.4068,764.5907],[22.2481,13.4083,767.9946],[22.2405,13.4172,767.5323],[22.2383,13.4365,770.7503],[22.2342,13.4427,771.5209],[22.2316,13.445,773.9381],[22.2241,13.4472,783.9464],[22.221,13.4518,779.1882],[22.2165,13.471,777.8824],[22.2218,13.488,781.2755],[22.2167,13.5083,783.8936],[22.13,13.505,828.9706],[22.086,13.507,851.1486],[22.043,13.517,883.9774],[22.004,13.499,926.8368],[21.952,13.497,921.7744],[21.867,13.503,826.8401],[21.865,13.45,922.0416],[21.879,13.42,897.8867],[21.878,13.359,809.0176],[21.855,13.305,788.2515],[21.848,13.246,749.2114],[21.877,13.198,742.5233]]]]}
,"properties": {"GID_3": "TCD.17.1.2_1","GID_0": "TCD","country": "Chad","GID_1": "TCD.17_1","province": "Ouaddaï","NL_NAME_1": "NA","GID_2": "TCD.17.1_1","county": "Assoungha","NL_NAME_2": "NA","city": "Guergne","VARNAME_3": "NA","NL_NAME_3": "NA","TYPE_3": "Sub-prefecture","ENGTYPE_3": "Sub-prefecture","CC_3": "NA","HASC_3": "NA","name": "Guergne.city","area_km2": 1003.9108,"hist_schema_id": "Elevation0-9000","hist_area_km2": {"725": 1.7132,"750": 27.3888,"775": 54.8766,"800": 98.5358,"825": 196.4365,"850": 256.3589,"875": 200.5092,"900": 122.725,"925": 36.6229,"950": 8.5171,"975": 0.2063,"1000": 0.0206}}}