{"type":"Feature","properties":{"GID_2":"TCD.7.4_1","GID_0":"TCD","country":"Chad","GID_1":"TCD.7_1","province":"Guéra","NL_NAME_1":"NA","county":"Mangalmé","VARNAME_2":"Mangalme","NL_NAME_2":"NA","TYPE_2":"Department","ENGTYPE_2":"Department","CC_2":"NA","HASC_2":"TD.GR.MA","name":"Mangalmé.county"},
"geometry":{"type": "MultiPolygon","coordinates": [[[[19.2,12.711,381.7095],[19.184,12.687,372.9362],[19.103,12.694,384.5175],[19.09,12.562,387.7583],[19.101,12.434,393.703],[19.118,12.337,404.9278],[19.18,12.164,431.0522],[19.181,12.076,474.2282],[19.147,12.023,484.4825],[19.061,11.937,500.901],[18.967,11.852,526.885],[18.915,11.754,522.4895],[18.902,11.692,498.0441],[19.055,11.689,509.9269],[19.088,11.6,500.8874],[19.215,11.638,474.1238],[19.256,11.726,465.2962],[19.341,11.855,452.2736],[19.313,11.982,461.8651],[19.465,12.123,465.6407],[19.496,12.109,458.2919],[19.58,12.083,447.7868],[19.751,12.053,467.2791],[19.906,12.04,451.161],[19.889,12.079,445.7538],[19.905,12.118,464.8142],[19.94,12.246,448.3839],[20.001,12.385,466.616],[20.082,12.494,455.7078],[20.154,12.531,450.7625],[20.114,12.614,451.0885],[20.174,12.727,472.685],[20.204,12.729,467.9661],[20.244,12.764,450.2167],[20.23,12.8,434.8976],[20.163,12.838,435.1052],[20.117,12.882,448.8032],[20.045,12.935,452.4562],[19.993,12.957,432.989],[19.777,13.031,421.7097],[19.601,12.939,401.1452],[19.215,12.713,385.7573],[19.2,12.711,381.7095]]]]}}