{"type":"Feature","properties":{"GID_3":"TCD.11.2.1_1","GID_0":"TCD","country":"Chad","GID_1":"TCD.11_1","province":"LogoneOccidental","NL_NAME_1":"NA","GID_2":"TCD.11.2_1","county":"LacWey","NL_NAME_2":"NA","city":"Bah","VARNAME_3":"NA","NL_NAME_3":"NA","TYPE_3":"Sub-prefecture","ENGTYPE_3":"Sub-prefecture","CC_3":"NA","HASC_3":"NA","name":"Bah.city"},
"geometry":{"type": "MultiPolygon","coordinates": [[[[15.7378,8.6363,458.7763],[15.7408,8.6208,461.907],[15.7453,8.6103,469.6678],[15.753,8.5952,465.2756],[15.7651,8.5771,453.515],[15.7761,8.5471,431.2167],[15.7792,8.5333,451.2535],[15.83,8.5403,457.9797],[15.8518,8.5392,440.9945],[15.8616,8.5427,434.9368],[15.878,8.5415,415.4113],[15.9012,8.5333,418.7178],[15.9184,8.523,419.8537],[15.9349,8.5121,422.9432],[15.94,8.5054,426.7454],[15.9487,8.4998,419.9665],[15.9564,8.4899,411.0128],[15.99,8.512,404.5541],[15.996,8.536,403.8359],[15.9827,8.5662,426.7488],[15.9811,8.5855,431.6026],[15.977,8.6018,450.5248],[15.9597,8.6339,477.7698],[15.9485,8.6485,478.932],[15.9382,8.6698,473.5016],[15.9232,8.6433,458.3532],[15.9164,8.6356,458.2071],[15.9036,8.629,469.8146],[15.8948,8.6269,480.3069],[15.8474,8.6313,464.7469],[15.8262,8.637,445.0402],[15.7869,8.6414,436.5964],[15.7718,8.6354,447.0143],[15.7661,8.6347,452.7996],[15.756,8.6356,461.6754],[15.7526,8.6402,462.381],[15.7378,8.6363,458.7763]]]]}}