{"type": "Feature","bbox": [16.619,9.826,17.543,10.574],"geometry": {"type": "MultiPolygon","coordinates": [[[[16.619,10.171,331.1797],[16.626,10.146,331.8474],[16.639,10.134,335.8983],[16.648,10.117,334.3327],[16.646,10.095,335.7249],[16.662,10.071,331.3207],[16.69,10.067,335.1111],[16.713,10.066,335.698],[16.738,10.053,336.2613],[16.746,10.034,336.9871],[16.768,10.031,335.0215],[16.776,10.01,336.5892],[16.81,10.014,335.6171],[16.897,9.99,340.8295],[16.929,9.971,340.1117],[16.942,9.945,340.0063],[16.974,9.949,339.481],[17.04,9.945,341.1867],[17.098,9.931,339.2692],[17.164,9.92,343.3952],[17.188,9.871,342.9179],[17.256,9.84,347.0449],[17.322,9.827,349.4396],[17.381,9.826,347.7145],[17.489,10.172,345.8617],[17.543,10.451,350.8359],[17.449,10.522,342.6501],[17.383,10.537,341.739],[17.327,10.574,340.9664],[17.281,10.552,340.8213],[17.203,10.464,341.2373],[17.135,10.396,340.8625],[17.06,10.343,339.4708],[16.948,10.288,341.6605],[16.874,10.281,339.5255],[16.777,10.28,334.3339],[16.733,10.269,335.9062],[16.69,10.243,336.7704],[16.656,10.211,336.0484],[16.619,10.171,331.1797]]]]}
,"properties": {"GID_3": "TCD.4.2.4_1","GID_0": "TCD","country": "Chad","GID_1": "TCD.4_1","province": "Chari-Baguirmi","NL_NAME_1": "NA","GID_2": "TCD.4.2_1","county": "LougChari","NL_NAME_2": "NA","city": "Miltou-Gourgara","VARNAME_3": "NA","NL_NAME_3": "NA","TYPE_3": "Sub-prefecture","ENGTYPE_3": "Sub-prefecture","CC_3": "NA","HASC_3": "NA","name": "Miltou-Gourgara.city","area_km2": 4569.946,"hist_schema_id": "Elevation0-9000","hist_area_km2": {"325": 394.476,"350": 4175.47}}}