{"type": "Feature","bbox": [19.601,12.494,20.244,13.031],"geometry": {"type": "MultiPolygon","coordinates": [[[[19.601,12.939,401.1452],[19.671,12.948,398.6121],[19.698,12.943,396.0042],[19.727,12.902,414.8365],[19.753,12.808,414.4506],[19.764,12.724,425.1376],[19.758,12.635,429.4722],[19.761,12.585,445.319],[19.784,12.508,484.2668],[19.961,12.56,454.8539],[20.045,12.537,449.6351],[20.082,12.494,455.7078],[20.154,12.531,450.7625],[20.114,12.614,451.0885],[20.174,12.727,472.685],[20.204,12.729,467.9661],[20.244,12.764,450.2167],[20.23,12.8,434.8976],[20.163,12.838,435.1052],[20.117,12.882,448.8032],[20.045,12.935,452.4562],[19.993,12.957,432.989],[19.777,13.031,421.7097],[19.601,12.939,401.1452]]]]}
,"properties": {"GID_3": "TCD.7.4.2_1","GID_0": "TCD","country": "Chad","GID_1": "TCD.7_1","province": "Guéra","NL_NAME_1": "NA","GID_2": "TCD.7.4_1","county": "Mangalmé","NL_NAME_2": "NA","city": "Moubi-Goz","VARNAME_3": "NA","NL_NAME_3": "NA","TYPE_3": "Sub-prefecture","ENGTYPE_3": "Sub-prefecture","CC_3": "NA","HASC_3": "NA","name": "Moubi-Goz.city","area_km2": 2208.588,"hist_schema_id": "Elevation0-9000","hist_area_km2": {"400": 144.119,"425": 765.647,"450": 1171.174,"475": 126.841,"500": 0.393,"525": 0.248,"550": 0.103,"575": 0.041,"600": 0.021}}}