{"type":"Feature","properties":{"GID_3":"TCD.18.2.5_1","GID_0":"TCD","country":"Chad","GID_1":"TCD.18_1","province":"Salamat","NL_NAME_1":"NA","GID_2":"TCD.18.2_1","county":"BarhAzoum","NL_NAME_2":"NA","city":"Hemat-Am-Timan","VARNAME_3":"NA","NL_NAME_3":"NA","TYPE_3":"Sub-prefecture","ENGTYPE_3":"Sub-prefecture","CC_3":"NA","HASC_3":"NA","name":"Hemat-Am-Timan.city"},
"geometry":{"type": "MultiPolygon","coordinates": [[[[20.4131,10.8913,433.7482],[20.3758,10.8678,431.5772],[20.3596,10.8403,429.7427],[20.3543,10.8176,428.247],[20.318,10.759,425.6382],[20.2764,10.6634,421.9099],[20.2659,10.6291,421.1217],[20.2621,10.5917,422.5451],[20.2619,10.563,420.0321],[20.2499,10.5146,417.8589],[20.2406,10.4845,416.6111],[20.2356,10.4528,414.5919],[20.2935,10.4379,415.1594],[20.3239,10.4452,418.4763],[20.3651,10.4585,417.1917],[20.3993,10.4714,417.4912],[20.4193,10.4818,417.4627],[20.4582,10.4882,420.4081],[20.5227,10.4903,419.8637],[20.5973,10.4798,421.7697],[20.6204,10.4782,424.1183],[20.6502,10.4837,422.9842],[20.6845,10.4824,424.2792],[20.7136,10.4722,423.4008],[20.7912,10.4561,426.2189],[20.8174,10.4539,427.3892],[20.8303,10.4547,427.9239],[20.8539,10.4503,425.2142],[20.8695,10.4775,426.4127],[20.8758,10.5101,427.3757],[20.8991,10.5826,430.0368],[20.907,10.6022,430.9635],[20.9181,10.6257,432.3643],[20.9304,10.6441,434.3935],[20.9416,10.6647,434.6757],[20.9472,10.6878,435.3753],[20.9665,10.7378,438.3935],[20.9732,10.7639,439.8692],[20.9551,10.7747,439.4955],[20.9064,10.7829,438.6872],[20.8948,10.7832,437.4788],[20.8473,10.8001,437.1718],[20.8182,10.8049,438.7391],[20.7773,10.8081,440.0161],[20.7382,10.8156,435.7299],[20.6919,10.8344,435.4728],[20.651,10.8478,435.6425],[20.6172,10.8619,435.6307],[20.5809,10.869,435.8357],[20.5042,10.876,433.8602],[20.4727,10.8737,432.8464],[20.4382,10.8765,432.7427],[20.4131,10.8913,433.7482]]]]}}