{"type":"Feature","properties":{"GID_3":"TCD.14.3.1_1","GID_0":"TCD","country":"Chad","GID_1":"TCD.14_1","province":"Mayo-KebbiEst","NL_NAME_1":"NA","GID_2":"TCD.14.3_1","county":"MontIlli","NL_NAME_2":"NA","city":"Fianga","VARNAME_3":"NA","NL_NAME_3":"NA","TYPE_3":"Sub-prefecture","ENGTYPE_3":"Sub-prefecture","CC_3":"NA","HASC_3":"NA","name":"Fianga.city"},
"geometry":{"type": "MultiPolygon","coordinates": [[[[15.1265,9.9908,329.0553],[15.1115,9.9829,338.118],[15.1063,9.9667,333.6249],[15.0619,9.9487,342.9724],[15.0363,9.9689,343.7762],[15.0007,9.9697,347.4743],[14.9615,9.9849,349.0097],[14.9515,9.9824,349.3979],[14.9732,9.9471,346.7379],[14.9855,9.8961,320.6882],[14.9971,9.8791,324.1476],[15.01,9.8516,326.5565],[15.0136,9.8332,329.1292],[15.0197,9.8164,332.2565],[15.0206,9.8045,333.8858],[15.0249,9.7924,335.3516],[15.0289,9.7722,336.4602],[15.0398,9.7851,333.8115],[15.0605,9.8023,332.0208],[15.0827,9.8342,328.8948],[15.0874,9.8437,335.6589],[15.0912,9.8816,332.3046],[15.0943,9.8909,339.2529],[15.1079,9.8997,340.3444],[15.1219,9.9032,338.0756],[15.1394,9.9052,344.3834],[15.1563,9.9042,325.8625],[15.153,9.9396,322.8123],[15.1428,9.9946,325.4776],[15.1265,9.9908,329.0553]]]]}}