{"type": "Feature","bbox": [17.542,11.408,18.659,12.618],"geometry": {"type": "MultiPolygon","coordinates": [[[[18.522,12.178,430.6861],[18.472,12.188,521.7495],[18.489,12.278,388.864],[18.442,12.422,370.6194],[18.368,12.542,364.8858],[18.33,12.618,355.2905],[18.095,12.486,359.7856],[18.065,12.452,368.0968],[18.018,12.452,388.6741],[17.882,12.446,358.1155],[17.671,12.279,335.0955],[17.665,12.256,327.3107],[17.608,12.239,327.8034],[17.567,12.199,319.247],[17.598,12.125,335.4867],[17.576,12.04,334.7657],[17.542,11.95,336.4068],[17.545,11.911,336.3253],[17.578,11.871,346.9734],[17.634,11.796,350.3899],[17.68,11.68,358.85],[17.747,11.652,359.1648],[17.842,11.638,382.6831],[17.942,11.64,431.8292],[18.045,11.632,445.2414],[18.174,11.599,498.7552],[18.377,11.513,475.8186],[18.514,11.452,465.6004],[18.591,11.408,470.3335],[18.545,11.614,511.4275],[18.494,11.723,550.3301],[18.473,11.776,553.3361],[18.444,11.88,518.3581],[18.526,11.911,484.0598],[18.619,11.971,492.056],[18.659,12.064,448.2032],[18.641,12.12,426.6216],[18.583,12.175,401.4771],[18.522,12.178,430.6861]]]]}
,"properties": {"GID_2": "TCD.7.2_1","GID_0": "TCD","country": "Chad","GID_1": "TCD.7_1","province": "Guéra","NL_NAME_1": "NA","county": "Bitkine","VARNAME_2": "NA","NL_NAME_2": "NA","TYPE_2": "Department","ENGTYPE_2": "Department","CC_2": "NA","HASC_2": "TD.GR.BI","name": "Bitkine.county","area_km2": 9642.235,"hist_schema_id": "Elevation0-9000","hist_area_km2": {"325": 250.431,"350": 2154.521,"375": 2523.553,"400": 1049.584,"425": 712.656,"450": 637.468,"475": 715.146,"500": 744.633,"525": 498.513,"550": 232.677,"575": 40.533,"600": 14.847,"625": 10.907,"650": 8.046,"675": 5.931,"700": 4.832,"725": 4.189,"750": 3.671,"775": 2.945,"800": 2.51,"825": 1.888,"850": 1.991,"875": 1.971,"900": 1.68,"925": 1.701,"950": 1.328,"975": 1.348,"1000": 1.1,"1025": 1.12,"1050": 1.473,"1075": 0.954,"1100": 1.431,"1125": 0.954,"1150": 0.851,"1175": 1.058,"1200": 0.768,"1225": 0.602,"1250": 0.498,"1275": 0.436,"1300": 0.311,"1325": 0.207,"1350": 0.29,"1375": 0.228,"1400": 0.166,"1425": 0.104}}}