{"type":"Feature","properties":{"GID_3":"TCD.12.2.2_1","GID_0":"TCD","country":"Chad","GID_1":"TCD.12_1","province":"LogoneOriental","NL_NAME_1":"NA","GID_2":"TCD.12.2_1","county":"MontsdeLam","NL_NAME_2":"NA","city":"Bessao","VARNAME_3":"NA","NL_NAME_3":"NA","TYPE_3":"Sub-prefecture","ENGTYPE_3":"Sub-prefecture","CC_3":"NA","HASC_3":"NA","name":"Bessao.city"},
"geometry":{"type": "MultiPolygon","coordinates": [[[[16.1964,7.6158,471.6907],[16.1971,7.6612,491.1861],[16.1842,7.7369,495.5633],[16.1886,7.7646,509.1194],[16.1891,7.7804,489.8016],[16.1855,7.8115,491.8406],[16.1949,7.844,482.7823],[16.1932,7.8996,472.9738],[16.1963,7.9265,470.7451],[16.2037,7.9367,462.7011],[16.1694,7.9649,463.7087],[16.1478,7.9747,466.5781],[16.1058,7.9749,505.0593],[16.0824,7.9803,497.1077],[16.0707,7.9918,494.9254],[16.0467,8.0323,511.2149],[16.0167,8.0616,511.887],[15.9945,8.0667,465.257],[15.9665,8.0558,483.8951],[15.9418,8.0508,487.0121],[15.9314,8.0561,486.2335],[15.9238,8.0391,462.6606],[15.9205,8.0042,496.2823],[15.9086,7.9657,478.5973],[15.8973,7.946,464.9565],[15.8721,7.9122,491.4174],[15.8134,7.8701,451.494],[15.8043,7.8562,449.4907],[15.8025,7.8397,468.7255],[15.8134,7.8244,474.6673],[15.8288,7.8138,468.5853],[15.8575,7.8005,513.5995],[15.9365,7.7777,590.0769],[15.9775,7.7701,589.035],[16.0172,7.7583,539.7128],[16.0439,7.754,532.5253],[16.0739,7.7411,504.9694],[16.0928,7.7274,492.4607],[16.1121,7.6885,538.4435],[16.1195,7.6323,538.6493],[16.1185,7.5912,496.6344],[16.1313,7.5908,490.9521],[16.1396,7.5949,486.4175],[16.1493,7.5958,486.071],[16.1636,7.5946,485.9493],[16.1728,7.6023,481.5788],[16.1807,7.6119,479.6102],[16.1855,7.6145,478.1865],[16.1964,7.6158,471.6907]]]]}}