{"type":"Feature","properties":{"GID_3":"TCD.18.2.7_1","GID_0":"TCD","country":"Chad","GID_1":"TCD.18_1","province":"Salamat","NL_NAME_1":"NA","GID_2":"TCD.18.2_1","county":"BarhAzoum","NL_NAME_2":"NA","city":"Kibet-Soum-Soum","VARNAME_3":"NA","NL_NAME_3":"NA","TYPE_3":"Sub-prefecture","ENGTYPE_3":"Sub-prefecture","CC_3":"NA","HASC_3":"NA","name":"Kibet-Soum-Soum.city"},
"geometry":{"type": "MultiPolygon","coordinates": [[[[20.1183,11.3231,428.0617],[20.1379,11.3102,430.5486],[20.1716,11.3031,432.6628],[20.2204,11.2964,430.9311],[20.2285,11.2922,431.5673],[20.2559,11.2853,432.0013],[20.3095,11.2762,437.0774],[20.3631,11.2727,439.5431],[20.4424,11.2737,442.9728],[20.5336,11.2711,450.281],[20.5804,11.2762,448.5516],[20.6204,11.2758,450.1044],[20.6649,11.2722,450.2892],[20.7079,11.2768,453.3613],[20.8132,11.2947,455.4876],[20.8527,11.3093,458.7204],[20.8331,11.3215,459.2847],[20.794,11.3302,457.8775],[20.7005,11.3356,454.6391],[20.6711,11.3392,453.792],[20.6241,11.3418,454.2998],[20.5735,11.3484,449.0305],[20.5453,11.3538,447.7702],[20.4988,11.3554,445.4716],[20.4385,11.3611,444.6783],[20.3829,11.3642,440.3327],[20.3293,11.3639,440.3616],[20.2941,11.3675,438.7341],[20.2534,11.3662,436.0258],[20.2273,11.3675,433.319],[20.1997,11.3625,433.3285],[20.1706,11.3537,431.8293],[20.1415,11.3412,431.0063],[20.1183,11.3231,428.0617]]]]}}