{"type":"Feature","properties":{"GID_3":"TCD.20.2.6_1","GID_0":"TCD","country":"Chad","GID_1":"TCD.20_1","province":"Tandjilé","NL_NAME_1":"NA","GID_2":"TCD.20.2_1","county":"TandjiléEst","NL_NAME_2":"NA","city":"Kabalaye","VARNAME_3":"NA","NL_NAME_3":"NA","TYPE_3":"Sub-prefecture","ENGTYPE_3":"Sub-prefecture","CC_3":"NA","HASC_3":"NA","name":"Kabalaye.city"},
"geometry":{"type": "MultiPolygon","coordinates": [[[[15.9735,9.6683,344.9278],[15.9794,9.6635,345.5868],[16.0043,9.6552,345.3101],[16.0161,9.6473,343.6153],[16.0339,9.6224,346.6921],[16.0472,9.6139,347.1993],[16.1348,9.5856,349.3664],[16.1473,9.5855,349.9949],[16.1706,9.5713,350.6763],[16.1861,9.5608,350.6876],[16.1945,9.5531,346.25],[16.2065,9.5364,351.1898],[16.2248,9.5183,352.2408],[16.2371,9.4909,352.2605],[16.2521,9.492,353.3022],[16.2625,9.5029,352.495],[16.2796,9.5304,351.4149],[16.2813,9.5413,350.8946],[16.2868,9.5554,350.1899],[16.3034,9.5808,348.9185],[16.305,9.587,348.9299],[16.3164,9.6073,348.4879],[16.3105,9.6241,348.4157],[16.2969,9.6482,347.0226],[16.2842,9.6611,346.8653],[16.2694,9.6726,346.6851],[16.2574,9.6798,350.3276],[16.2389,9.6969,347.0878],[16.2208,9.7108,347.8515],[16.1549,9.7391,346.8075],[16.141,9.7399,347.1567],[16.0967,9.7642,345.9716],[16.0675,9.7405,345.498],[16.0325,9.7019,345.8074],[15.9977,9.6843,345.4254],[15.9735,9.6683,344.9278]]]]}}