{"type": "Feature","bbox": [15.0982,10.6978,15.544,11.212],"geometry": {"type": "MultiPolygon","coordinates": [[[[15.0994,11.1044,306.2666],[15.1123,11.0943,306.4056],[15.1518,11.0522,307.1169],[15.1941,11.0186,307.6826],[15.208,11.0108,307.7806],[15.2385,10.9809,308.2193],[15.2538,10.9632,308.4259],[15.2611,10.9506,308.7254],[15.278,10.9325,308.9308],[15.2889,10.912,311.5052],[15.3077,10.8672,310.6074],[15.3112,10.8472,311.8719],[15.3108,10.8381,310.979],[15.3133,10.8247,311.3117],[15.3151,10.7921,312.113],[15.327,10.7774,313.3099],[15.3477,10.7591,311.8042],[15.3575,10.7435,312.3211],[15.3709,10.727,312.7123],[15.3751,10.715,313.9084],[15.3993,10.6978,313.5701],[15.4136,10.6999,314.2539],[15.4196,10.7274,314.619],[15.4277,10.7419,314.1719],[15.4371,10.753,314.7831],[15.4607,10.774,314.3219],[15.5,10.8314,313.6337],[15.5135,10.8459,314.0728],[15.5224,10.859,313.9598],[15.5388,10.8909,313.9942],[15.5429,10.9191,316.9745],[15.544,10.94,306.0294],[15.539,10.967,308.5309],[15.527,10.981,304.3098],[15.505,11.006,314.3303],[15.475,11.022,306.9132],[15.438,11.061,306.764],[15.421,11.114,301.1137],[15.408,11.181,298.0],[15.397,11.212,299.9601],[15.231,11.209,304.2083],[15.0987,11.1308,305.7509],[15.1,11.1115,306.0751],[15.0982,11.1099,304.7943],[15.0994,11.1044,306.2666]]]]}
,"properties": {"GID_3": "TCD.14.2.11_1","GID_0": "TCD","country": "Chad","GID_1": "TCD.14_1","province": "Mayo-KebbiEst","NL_NAME_1": "NA","GID_2": "TCD.14.2_1","county": "Mayo-Boneye","NL_NAME_2": "NA","city": "Mogroum","VARNAME_3": "NA","NL_NAME_3": "NA","TYPE_3": "Sub-prefecture","ENGTYPE_3": "Sub-prefecture","CC_3": "NA","HASC_3": "NA","name": "Mogroum.city","area_km2": 1405.436,"hist_schema_id": "Elevation0-9000","hist_area_km2": {"300": 1064.637,"325": 340.799}}}