{"type": "Feature","bbox": [18.473,11.692,19.078,12.082],"geometry": {"type": "MultiPolygon","coordinates": [[[[18.997,12.08,567.9152],[18.983,12.038,891.5724],[18.97,12.013,773.1215],[18.935,11.995,557.7067],[18.898,12.055,559.2709],[18.889,12.082,571.1159],[18.861,12.074,733.4775],[18.871,12.028,848.0583],[18.833,11.998,563.8656],[18.777,11.991,638.8916],[18.735,11.979,526.104],[18.714,11.947,544.0524],[18.67,11.892,537.8988],[18.627,11.852,510.8531],[18.543,11.822,582.0522],[18.473,11.776,553.3361],[18.494,11.723,550.3301],[18.628,11.737,537.3405],[18.742,11.743,508.1179],[18.825,11.736,516.6088],[18.902,11.692,498.0441],[18.915,11.754,522.4895],[18.967,11.852,526.885],[19.061,11.937,500.901],[19.059,11.957,509.205],[19.078,11.986,508.8893],[19.051,12.032,507.2094],[19.029,12.057,513.185],[18.997,12.08,567.9152]]]]}
,"properties": {"GID_3": "TCD.7.1.1_1","GID_0": "TCD","country": "Chad","GID_1": "TCD.7_1","province": "Guéra","NL_NAME_1": "NA","GID_2": "TCD.7.1_1","county": "BarhSignaka","NL_NAME_2": "NA","city": "Bidio","VARNAME_3": "NA","NL_NAME_3": "NA","TYPE_3": "Sub-prefecture","ENGTYPE_3": "Sub-prefecture","CC_3": "NA","HASC_3": "NA","name": "Bidio.city","area_km2": 1316.74,"hist_schema_id": "Elevation0-9000","hist_area_km2": {"475": 2.613,"500": 107.383,"525": 399.049,"550": 408.468,"575": 187.22,"600": 57.074,"625": 28.565,"650": 24.644,"675": 25.785,"700": 19.458,"725": 15.101,"750": 11.471,"775": 8.152,"800": 6.43,"825": 5.58,"850": 3.879,"875": 2.697,"900": 1.887,"925": 0.788,"950": 0.332,"975": 0.104,"1000": 0.062}}}