{"type": "Feature","bbox": [15.3691,11.3081,15.803,12.222],"geometry": {"type": "MultiPolygon","coordinates": [[[[15.506,12.222,294.2401],[15.458,12.176,294.0763],[15.429,12.119,294.8395],[15.418,12.064,294.059],[15.403,12.006,296.1461],[15.4,11.938,296.3771],[15.443,11.872,296.077],[15.465,11.814,298.5034],[15.449,11.759,299.3731],[15.421,11.727,299.0824],[15.3761,11.731,299.3842],[15.4081,11.6691,300.255],[15.4291,11.6021,302.4788],[15.3821,11.4871,304.4045],[15.3691,11.3991,296.7455],[15.3831,11.3741,301.599],[15.3971,11.3551,296.5],[15.4121,11.3081,300.9598],[15.544,11.368,310.8978],[15.628,11.403,315.2914],[15.718,11.445,317.1257],[15.803,11.472,325.6321],[15.781,11.518,323.4045],[15.769,11.612,322.8653],[15.738,11.737,318.4394],[15.743,11.836,305.638],[15.753,11.92,302.2419],[15.741,11.994,297.8586],[15.744,12.086,299.0122],[15.688,12.112,297.723],[15.624,12.161,296.6933],[15.551,12.209,295.2292],[15.506,12.222,294.2401]]]]}
,"properties": {"GID_3": "TCD.4.1.2_1","GID_0": "TCD","country": "Chad","GID_1": "TCD.4_1","province": "Chari-Baguirmi","NL_NAME_1": "NA","GID_2": "TCD.4.1_1","county": "Baguirmi","NL_NAME_2": "NA","city": "Bougoumene","VARNAME_3": "NA","NL_NAME_3": "NA","TYPE_3": "Sub-prefecture","ENGTYPE_3": "Sub-prefecture","CC_3": "NA","HASC_3": "NA","name": "Bougoumene.city","area_km2": 3215.562,"hist_schema_id": "Elevation0-9000","hist_area_km2": {"300": 2775.79,"325": 439.772}}}