{"type": "Feature","bbox": [16.427,7.9212,17.295,9.153],"geometry": {"type": "MultiPolygon","coordinates": [[[[16.6771,8.151,400.5586],[16.6616,8.0705,407.9653],[16.6565,8.0338,405.2311],[16.6593,8.0168,409.1925],[16.6677,8.0016,436.7195],[16.7098,7.9641,474.1974],[16.738,7.9422,486.9333],[16.7908,7.9212,502.689],[16.8246,7.9217,489.6604],[16.8559,7.9273,462.7596],[16.8954,7.9424,505.8017],[16.9715,7.9569,489.4374],[17.0037,7.9597,462.6683],[17.0379,7.9559,478.8367],[17.165,7.9644,450.0337],[17.1981,7.9629,426.9897],[17.108,8.131,393.5346],[17.156,8.146,388.7861],[17.213,8.157,380.1679],[17.295,8.296,378.5481],[17.159,8.495,411.7458],[17.13,8.545,387.6786],[17.046,8.631,385.2645],[17.142,8.762,382.3062],[17.152,8.885,378.4353],[17.15,8.971,395.8194],[17.134,9.078,521.037],[16.986,9.05,469.8042],[16.772,9.071,471.314],[16.684,9.113,499.8199],[16.654,9.106,494.6443],[16.624,9.125,460.9213],[16.596,9.149,432.51369999999997],[16.543,9.153,414.5497],[16.467,9.132,371.9079],[16.427,9.118,362.8237],[16.4486,9.0831,364.3308],[16.5174,9.0657,365.3663],[16.5715,9.0479,366.5574],[16.5806,9.0424,365.6999],[16.589,9.0345,364.9904],[16.6052,9.01,368.5528],[16.6206,8.9957,368.1494],[16.6333,8.9881,369.7918],[16.6447,8.9789,365.5045],[16.65,8.971,372.4828],[16.6826,8.946,369.4465],[16.715,8.9237,372.7098],[16.7209,8.8741,377.5614],[16.7342,8.8312,378.2449],[16.7461,8.8122,379.0804],[16.7527,8.8059,377.9349],[16.7607,8.7905,379.24],[16.7663,8.787,373.9391],[16.771,8.7689,379.7255],[16.7593,8.7477,380.8815],[16.7509,8.7384,380.1562],[16.7486,8.7321,380.0404],[16.7553,8.7248,380.5445],[16.7677,8.7162,382.1716],[16.7712,8.7113,381.7946],[16.7743,8.7004,381.819],[16.7902,8.6775,382.986],[16.7966,8.6761,380.2494],[16.8066,8.6682,382.9855],[16.8078,8.6645,382.7249],[16.8013,8.6386,384.5244],[16.8006,8.6062,387.1796],[16.8325,8.5919,386.5879],[16.8401,8.579,381.1992],[16.8493,8.5751,383.6793],[16.8317,8.5501,389.8405],[16.8292,8.5424,394.0028],[16.8307,8.5185,393.5113],[16.8332,8.5078,391.0737],[16.8379,8.4972,391.9347],[16.8442,8.4896,394.3351],[16.8429,8.48,396.6338],[16.8443,8.4741,395.7713],[16.8366,8.4656,397.9724],[16.8208,8.4357,396.7302],[16.813,8.414,395.7145],[16.8012,8.4004,395.5036],[16.7821,8.3837,394.502],[16.7431,8.3342,402.4829],[16.7228,8.3019,400.2075],[16.7097,8.2755,404.5844],[16.6983,8.2367,395.6263],[16.6905,8.1977,406.457],[16.6771,8.151,400.5586]]]]}
,"properties": {"GID_2": "TCD.12.4_1","GID_0": "TCD","country": "Chad","GID_1": "TCD.12_1","province": "LogoneOriental","NL_NAME_1": "NA","county": "Pendé","VARNAME_2": "Doba|LaPendé","NL_NAME_2": "NA","TYPE_2": "Department","ENGTYPE_2": "Department","CC_2": "NA","HASC_2": "TD.LR.PE","name": "Pendé.county","area_km2": 6143.153,"hist_schema_id": "Elevation0-9000","hist_area_km2": {"350": 5.778,"375": 1696.398,"400": 1774.808,"425": 948.947,"450": 787.003,"475": 627.034,"500": 265.287,"525": 36.45,"550": 1.448}}}