{"type":"Feature","properties":{"GID_3":"TCD.15.1.4_1","GID_0":"TCD","country":"Chad","GID_1":"TCD.15_1","province":"Mayo-KebbiOuest","NL_NAME_1":"NA","GID_2":"TCD.15.1_1","county":"LacLéré","NL_NAME_2":"NA","city":"Lagon","VARNAME_3":"NA","NL_NAME_3":"NA","TYPE_3":"Sub-prefecture","ENGTYPE_3":"Sub-prefecture","CC_3":"NA","HASC_3":"NA","name":"Lagon.city"},
"geometry":{"type": "MultiPolygon","coordinates": [[[[14.2566,9.38,392.334],[14.2653,9.3833,404.6291],[14.3103,9.3934,421.5918],[14.3246,9.4032,419.6516],[14.3429,9.4113,440.0298],[14.3516,9.4194,437.1528],[14.386,9.4353,384.1842],[14.3973,9.4342,378.688],[14.4283,9.4234,385.1148],[14.438,9.4166,376.575],[14.4556,9.4188,368.1692],[14.5262,9.4022,384.2394],[14.5398,9.3828,398.0405],[14.5533,9.3701,400.8037],[14.5703,9.3626,401.9438],[14.6022,9.3648,380.5489],[14.621,9.3716,382.201],[14.6349,9.3941,378.5829],[14.6432,9.4125,368.4554],[14.6454,9.4497,332.7321],[14.6537,9.4629,306.9356],[14.6599,9.4689,318.145],[14.6742,9.4758,304.1674],[14.6978,9.4777,317.5569],[14.7125,9.4994,350.5116],[14.7168,9.516,333.7632],[14.7363,9.5574,356.3618],[14.7459,9.5684,370.1527],[14.7529,9.5848,394.8788],[14.7527,9.6026,390.7325],[14.7486,9.639,390.3727],[14.749,9.6698,398.1679],[14.7455,9.7017,387.2202],[14.7486,9.7236,368.2724],[14.7382,9.774,346.1921],[14.735,9.8197,316.1326],[14.7282,9.8226,315.0141],[14.7217,9.8126,316.0315],[14.6938,9.7944,314.3944],[14.6825,9.7846,313.7681],[14.664,9.7625,313.5009],[14.6506,9.7543,315.729],[14.638,9.7382,310.0365],[14.6031,9.7133,323.022],[14.5258,9.698,277.0026],[14.5206,9.6909,271.6585],[14.5059,9.6859,255.5576],[14.4737,9.6683,242.9208],[14.4432,9.6552,249.9599],[14.4307,9.6552,253.5262],[14.402,9.646,262.6715],[14.3865,9.6439,248.7791],[14.3498,9.6451,247.6719],[14.3053,9.6422,243.6497],[14.2815,9.6369,254.7231],[14.2596,9.6297,253.4859],[14.232,9.6167,267.5135],[14.2219,9.604,262.67],[14.2181,9.5915,252.9258],[14.2181,9.5752,273.4081],[14.2135,9.5574,291.2145],[14.2053,9.5519,310.0163],[14.1595,9.5525,310.6052],[14.1477,9.5568,296.4786],[14.1551,9.5351,321.1265],[14.1528,9.5189,339.2266],[14.1456,9.5036,349.3361],[14.1564,9.5022,356.4141],[14.163,9.4905,360.4808],[14.1771,9.4806,367.2617],[14.1832,9.4738,351.0487],[14.1891,9.4598,340.8061],[14.1938,9.4555,342.9447],[14.197,9.4441,328.1254],[14.2013,9.4418,332.3165],[14.2119,9.4455,334.1595],[14.2157,9.4382,338.6035],[14.239,9.4197,358.3732],[14.238,9.407,363.2064],[14.243,9.3986,375.1555],[14.2504,9.3909,387.5342],[14.2566,9.38,392.334]]]]}}