{"type": "Feature","bbox": [15.4529,8.5971,15.7332,8.9008],"geometry": {"type": "MultiPolygon","coordinates": [[[[15.5458,8.6548,414.0708],[15.5897,8.632,424.5171],[15.6204,8.6188,424.0642],[15.6454,8.6052,415.6531],[15.6699,8.5971,424.0016],[15.6732,8.6024,428.8616],[15.6745,8.6109,433.4726],[15.679,8.6221,440.028],[15.7021,8.6643,423.9302],[15.7119,8.6799,439.3129],[15.7253,8.6933,447.8641],[15.7332,8.704,449.2393],[15.7323,8.7092,445.6631],[15.709,8.7385,410.9628],[15.6977,8.7485,407.7565],[15.6608,8.7892,414.4721],[15.6406,8.8041,409.3174],[15.61,8.8207,437.2592],[15.5838,8.8445,450.2998],[15.5755,8.8583,417.5612],[15.5617,8.8751,398.4947],[15.5582,8.8852,393.1877],[15.5453,8.8906,389.9871],[15.4786,8.8934,414.4665],[15.4619,8.9008,419.5381],[15.4628,8.8864,409.158],[15.4534,8.8451,412.2951],[15.4529,8.8009,411.1273],[15.4548,8.785,420.9342],[15.4545,8.7644,425.313],[15.4662,8.7228,417.8908],[15.4827,8.6961,430.7012],[15.504,8.6768,419.5338],[15.5192,8.6661,426.294],[15.5458,8.6548,414.0708]]]]}
,"properties": {"GID_3": "TCD.11.1.2_1","GID_0": "TCD","country": "Chad","GID_1": "TCD.11_1","province": "LogoneOccidental","NL_NAME_1": "NA","GID_2": "TCD.11.1_1","county": "Dodjé","NL_NAME_2": "NA","city": "Beissa","VARNAME_3": "NA","NL_NAME_3": "NA","TYPE_3": "Sub-prefecture","ENGTYPE_3": "Sub-prefecture","CC_3": "NA","HASC_3": "NA","name": "Beissa.city","area_km2": 606.0348,"hist_schema_id": "Elevation0-9000","hist_area_km2": {"375": 0.2723,"400": 173.3857,"425": 285.6627,"450": 115.0909,"475": 31.6022,"500": 0.021}}}