{"type": "Feature","bbox": [15.7664,7.8701,15.9459,8.3475],"geometry": {"type": "MultiPolygon","coordinates": [[[[15.7865,7.9701,432.0015],[15.7922,7.9453,440.0564],[15.7898,7.9296,450.7591],[15.7664,7.8724,451.7678],[15.7796,7.8747,487.2633],[15.7854,7.8717,479.7397],[15.7936,7.8703,469.31],[15.8134,7.8701,451.494],[15.8721,7.9122,491.4174],[15.8973,7.946,464.9565],[15.9086,7.9657,478.5973],[15.9205,8.0042,496.2823],[15.9238,8.0391,462.6606],[15.9314,8.0561,486.2335],[15.9287,8.0605,480.9183],[15.9375,8.1016,431.3086],[15.9402,8.1283,458.0139],[15.9396,8.1536,455.0623],[15.934,8.1895,463.8262],[15.9303,8.2396,443.8459],[15.9369,8.2556,451.807],[15.9418,8.2616,443.5267],[15.9459,8.2748,424.6478],[15.9207,8.2927,415.8717],[15.8836,8.3233,409.4659],[15.8599,8.3475,406.0774],[15.8682,8.3151,424.3457],[15.8707,8.2745,410.7051],[15.8676,8.262,412.8586],[15.8655,8.2333,414.0],[15.8608,8.2122,414.219],[15.8441,8.0801,434.9464],[15.8401,8.0615,449.0685],[15.8258,8.0222,451.8225],[15.8101,7.9977,431.7574],[15.7939,7.9845,432.007],[15.7865,7.9701,432.0015]]]]}
,"properties": {"GID_3": "TCD.12.2.9_1","GID_0": "TCD","country": "Chad","GID_1": "TCD.12_1","province": "LogoneOriental","NL_NAME_1": "NA","GID_2": "TCD.12.2_1","county": "MontsdeLam","NL_NAME_2": "NA","city": "Pandzangue","VARNAME_3": "NA","NL_NAME_3": "NA","TYPE_3": "Sub-prefecture","ENGTYPE_3": "Sub-prefecture","CC_3": "NA","HASC_3": "NA","name": "Pandzangue.city","area_km2": 462.8474,"hist_schema_id": "Elevation0-9000","hist_area_km2": {"400": 21.8828,"425": 195.7595,"450": 128.165,"475": 91.3176,"500": 25.7226}}}