{"type": "Feature","bbox": [19.889,11.664,21.358,13.059],"geometry": {"type": "MultiPolygon","coordinates": [[[[21.313,12.665,577.0409],[21.269,12.672,552.4709],[21.224,12.67,531.0534],[21.139,12.649,521.149],[21.111,12.649,509.887],[21.087,12.635,508.6494],[21.022,12.658,482.7336],[20.932,12.694,471.8859],[20.929,12.752,482.4338],[20.941,12.8,483.9613],[20.915,12.853,510.8358],[20.845,12.866,505.2039],[20.791,12.886,504.9098],[20.764,12.888,497.45],[20.773,12.932,479.8849],[20.763,12.978,485.1526],[20.763,13.017,486.0927],[20.662,13.009,480.5301],[20.613,13.009,463.9875],[20.54,13.012,447.2365],[20.447,13.029,452.5233],[20.358,13.059,423.113],[20.357,13.02,428.6777],[20.331,13.001,437.0029],[20.045,12.935,452.4562],[20.117,12.882,448.8032],[20.163,12.838,435.1052],[20.23,12.8,434.8976],[20.244,12.764,450.2167],[20.204,12.729,467.9661],[20.174,12.727,472.685],[20.114,12.614,451.0885],[20.154,12.531,450.7625],[20.082,12.494,455.7078],[20.001,12.385,466.616],[19.94,12.246,448.3839],[19.905,12.118,464.8142],[19.889,12.079,445.7538],[19.912,12.029,443.866],[19.9211,11.96,452.718],[19.97,11.965,441.1681],[20.011,11.982,439.2983],[20.019,12.027,453.5631],[20.237,12.042,450.0596],[20.266,12.029,458.5164],[20.303,12.035,449.437],[20.974,11.715,486.5415],[21.056,11.664,479.5275],[21.065,11.693,479.2683],[21.114,11.761,488.1098],[21.119,11.793,493.8984],[21.136,11.857,498.7985],[21.188,11.906,514.4379],[21.216,11.942,524.3896],[21.244,12.022,505.9414],[21.273,12.091,582.8481],[21.259,12.124,571.3291],[21.237,12.194,541.0773],[21.201,12.265,528.8616],[21.229,12.373,549.2668],[21.281,12.402,545.6621],[21.303,12.443,549.4873],[21.31,12.49,570.6098],[21.339,12.521,566.1274],[21.353,12.556,581.7805],[21.358,12.647,591.0487],[21.313,12.665,577.0409]]]]}
,"properties": {"GID_2": "TCD.19.1_1","GID_0": "TCD","country": "Chad","GID_1": "TCD.19_1","province": "Sila","NL_NAME_1": "NA","county": "DjourfAlAhmar","VARNAME_2": "Am-Dam","NL_NAME_2": "NA","TYPE_2": "Department","ENGTYPE_2": "Department","CC_2": "NA","HASC_2": "TD.OD.DA","name": "Djourf_Al_Ahmar.county","area_km2": 14726.69,"hist_schema_id": "Elevation0-9000","hist_area_km2": {"425": 631.9,"450": 4181.41,"475": 4771.31,"500": 2059.9,"525": 1488.66,"550": 886.09,"575": 463.81,"600": 180.0,"625": 30.05,"650": 14.39,"675": 8.66,"700": 5.14,"725": 2.42,"750": 1.28,"775": 0.7,"800": 0.37,"825": 0.37,"850": 0.14}}}