{"type": "Feature","bbox": [19.441,13.383,20.21,13.803],"geometry": {"type": "MultiPolygon","coordinates": [[[[19.585,13.727,376.0692],[19.474,13.673,370.4957],[19.441,13.65,370.3167],[19.446,13.516,373.3301],[19.501,13.496,376.5432],[19.56,13.467,379.2644],[19.598,13.435,382.3824],[19.623,13.428,383.9104],[19.683,13.399,387.136],[19.783,13.383,390.3609],[19.835,13.415,400.3138],[19.886,13.422,401.2591],[20.007,13.458,413.4526],[20.047,13.489,414.4109],[20.091,13.562,414.012],[20.149,13.624,417.1358],[20.202,13.685,424.2203],[20.21,13.734,430.8961],[20.147,13.774,426.2534],[20.09,13.795,414.8716],[20.007,13.803,407.0627],[19.952,13.795,403.1716],[19.934,13.777,401.4608],[19.896,13.774,397.4032],[19.863,13.732,393.7557],[19.827,13.736,390.999],[19.791,13.734,388.8228],[19.726,13.734,386.208],[19.624,13.717,379.4132],[19.585,13.727,376.0692]]]]}
,"properties": {"GID_3": "TCD.2.1.7_1","GID_0": "TCD","country": "Chad","GID_1": "TCD.2_1","province": "Batha","NL_NAME_1": "NA","GID_2": "TCD.2.1_1","county": "BathaEst","NL_NAME_2": "NA","city": "Zioud-Amsak","VARNAME_3": "NA","NL_NAME_3": "NA","TYPE_3": "Sub-prefecture","ENGTYPE_3": "Sub-prefecture","CC_3": "NA","HASC_3": "NA","name": "Zioud-Amsak.city","area_km2": 2524.69,"hist_schema_id": "Elevation0-9000","hist_area_km2": {"375": 984.508,"400": 1276.623,"425": 262.467,"450": 0.762,"475": 0.206,"500": 0.062,"525": 0.062}}}