{"type": "Feature","bbox": [20.043,14.082,21.672,15.935],"geometry": {"type": "MultiPolygon","coordinates": [[[[20.062,14.082,410.3776],[20.136,14.158,400.1253],[20.21,14.26,403.6921],[20.241,14.299,408.8739],[20.288,14.325,414.4367],[20.357,14.386,425.7029],[20.486,14.376,436.6702],[20.526,14.502,445.5326],[20.587,14.633,452.0253],[20.68,14.757,466.6839],[20.779,14.823,469.0363],[20.851,14.875,478.333],[20.923,14.907,481.1778],[21.006,14.917,484.9277],[21.009,14.974,491.4232],[21.026,15.039,556.4601],[21.104,15.114,507.1852],[21.188,15.176,518.2006],[21.252,15.177,523.7397],[21.321,15.189,584.4537],[21.368,15.219,590.9688],[21.402,15.244,581.7827],[21.443,15.294,563.1599],[21.492,15.379,585.0834],[21.532,15.453,581.0582],[21.564,15.537,575.7991],[21.57,15.626,565.2358],[21.593,15.733,573.2524],[21.634,15.819,589.6953],[21.672,15.931,608.6798],[21.4931,15.898,618.0677],[21.4221,15.8711,547.5993],[21.359,15.8581,529.2275],[21.276,15.874,509.2696],[21.211,15.914,522.9667],[21.171,15.922,508.7229],[21.134,15.935,504.6588],[21.109,15.926,499.5798],[21.081,15.904,490.9867],[21.036,15.879,484.8114],[21.009,15.876,476.3002],[20.982,15.854,484.8575],[20.958,15.825,481.2161],[20.9221,15.7921,478.4144],[20.8681,15.7581,474.9348],[20.8341,15.7441,467.7765],[20.7921,15.7381,463.3744],[20.709,15.679,444.9107],[20.658,15.639,430.84],[20.602,15.618,428.2954],[20.549,15.628,426.6444],[20.497,15.655,420.9565],[20.399,15.64,412.6974],[20.319,15.617,409.7734],[20.251,15.63,404.9103],[20.112,15.719,397.2021],[20.043,15.742,393.0444],[20.062,14.082,410.3776]]]]}
,"properties": {"GID_3": "TCD.23.1.3_1","GID_0": "TCD","country": "Chad","GID_1": "TCD.23_1","province": "WadiFira","NL_NAME_1": "NA","GID_2": "TCD.23.1_1","county": "Biltine","NL_NAME_2": "NA","city": "Arada","VARNAME_3": "NA","NL_NAME_3": "NA","TYPE_3": "Sub-prefecture","ENGTYPE_3": "Sub-prefecture","CC_3": "NA","HASC_3": "NA","name": "Arada.city","area_km2": 17714.67,"hist_schema_id": "Elevation0-9000","hist_area_km2": {"400": 3540.8,"425": 4297.73,"450": 2877.58,"475": 2368.86,"500": 1771.71,"525": 1200.26,"550": 907.73,"575": 449.76,"600": 142.43,"625": 80.84,"650": 47.99,"675": 17.87,"700": 8.3,"725": 2.12,"750": 0.41,"775": 0.18}}}