{"type": "Feature","bbox": [15.0215,9.5604,15.1952,9.9052],"geometry": {"type": "MultiPolygon","coordinates": [[[[15.185,9.7269,340.4104],[15.1895,9.7456,338.1606],[15.194,9.7811,338.2774],[15.1952,9.8072,328.6813],[15.1918,9.8307,326.2565],[15.1691,9.8489,327.3298],[15.1642,9.8603,326.8537],[15.1563,9.9042,325.8625],[15.1394,9.9052,344.3834],[15.1219,9.9032,338.0756],[15.1079,9.8997,340.3444],[15.0943,9.8909,339.2529],[15.0912,9.8816,332.3046],[15.0874,9.8437,335.6589],[15.0827,9.8342,328.8948],[15.0605,9.8023,332.0208],[15.0398,9.7851,333.8115],[15.0289,9.7722,336.4602],[15.0215,9.7566,339.6825],[15.0224,9.7197,356.1378],[15.0324,9.7052,361.4539],[15.0434,9.6752,372.6181],[15.034,9.6615,368.6919],[15.0446,9.6494,377.2192],[15.0472,9.6423,381.6293],[15.0475,9.6364,383.1202],[15.0466,9.6292,369.4775],[15.0381,9.6183,350.911],[15.0284,9.6101,357.0199],[15.026,9.5995,363.9825],[15.0272,9.5965,366.5066],[15.0362,9.5911,365.9734],[15.0412,9.5854,375.6231],[15.0487,9.5716,366.3104],[15.0577,9.5633,373.5349],[15.0708,9.5604,373.9364],[15.0912,9.5749,399.9774],[15.1031,9.5764,397.4771],[15.1212,9.5918,390.8176],[15.1354,9.599,373.3644],[15.1404,9.6108,366.0857],[15.1501,9.6179,366.6922],[15.1504,9.6687,359.1029],[15.1526,9.6835,335.7766],[15.1623,9.7041,343.2449],[15.172,9.7178,339.8928],[15.1782,9.7252,339.4519],[15.185,9.7269,340.4104]]]]}
,"properties": {"GID_3": "TCD.14.3.3_1","GID_0": "TCD","country": "Chad","GID_1": "TCD.14_1","province": "Mayo-KebbiEst","NL_NAME_1": "NA","GID_2": "TCD.14.3_1","county": "MontIlli","NL_NAME_2": "NA","city": "Kera","VARNAME_3": "NA","NL_NAME_3": "NA","TYPE_3": "Sub-prefecture","ENGTYPE_3": "Sub-prefecture","CC_3": "NA","HASC_3": "NA","name": "Kera.city","area_km2": 466.6913,"hist_schema_id": "Elevation0-9000","hist_area_km2": {"325": 169.8144,"350": 179.4645,"375": 90.8019,"400": 24.7723,"425": 0.5431,"450": 0.2507,"475": 0.376,"500": 0.1671,"525": 0.2924,"550": 0.0627,"575": 0.0418,"600": 0.0209,"625": 0.0836}}}