{"type": "Feature","bbox": [16.6333,8.7689,16.8393,8.9923],"geometry": {"type": "MultiPolygon","coordinates": [[[[16.771,8.7689,379.7255],[16.7791,8.7769,371.7707],[16.792,8.7801,379.0026],[16.8044,8.7867,379.671],[16.8302,8.8052,382.2748],[16.8338,8.8097,382.9691],[16.8262,8.8271,383.8222],[16.8384,8.8668,378.295],[16.8393,8.8962,375.1819],[16.8368,8.9093,374.3473],[16.8271,8.9297,380.9984],[16.8146,8.9496,382.7262],[16.8085,8.9553,389.4329],[16.7935,8.9657,404.4761],[16.7608,8.9813,416.5173],[16.7472,8.9842,415.7846],[16.7258,8.9857,413.7574],[16.7022,8.9848,411.0478],[16.6756,8.9903,407.9936],[16.6482,8.9907,383.9654],[16.6399,8.9923,367.8259],[16.6333,8.9881,369.7918],[16.6447,8.9789,365.5045],[16.65,8.971,372.4828],[16.6826,8.946,369.4465],[16.715,8.9237,372.7098],[16.7209,8.8741,377.5614],[16.7342,8.8312,378.2449],[16.7461,8.8122,379.0804],[16.7527,8.8059,377.9349],[16.7607,8.7905,379.24],[16.7663,8.787,373.9391],[16.771,8.7689,379.7255]]]]}
,"properties": {"GID_3": "TCD.12.4.9_1","GID_0": "TCD","country": "Chad","GID_1": "TCD.12_1","province": "LogoneOriental","NL_NAME_1": "NA","GID_2": "TCD.12.4_1","county": "Pendé","NL_NAME_2": "NA","city": "Nassian","VARNAME_3": "NA","NL_NAME_3": "NA","TYPE_3": "Sub-prefecture","ENGTYPE_3": "Sub-prefecture","CC_3": "NA","HASC_3": "NA","name": "Nassian.city","area_km2": 273.172,"hist_schema_id": "Elevation0-9000","hist_area_km2": {"350": 0.1675,"375": 218.6357,"400": 52.7771,"425": 1.5916}}}