{"type": "Feature","bbox": [15.7132,8.3326,15.9564,8.5427],"geometry": {"type": "MultiPolygon","coordinates": [[[[15.7792,8.5333,451.2535],[15.772,8.5031,464.3989],[15.7522,8.4432,463.1158],[15.7297,8.3873,432.9901],[15.7132,8.3326,425.3908],[15.768,8.337,434.3221],[15.803,8.334,421.8107],[15.822,8.364,456.2755],[15.834,8.403,441.9726],[15.862,8.435,438.1562],[15.918,8.462,422.4141],[15.9564,8.4899,411.0128],[15.9487,8.4998,419.9665],[15.94,8.5054,426.7454],[15.9349,8.5121,422.9432],[15.9184,8.523,419.8537],[15.9012,8.5333,418.7178],[15.878,8.5415,415.4113],[15.8616,8.5427,434.9368],[15.8518,8.5392,440.9945],[15.83,8.5403,457.9797],[15.7792,8.5333,451.2535]]]]}
,"properties": {"GID_3": "TCD.11.2.6_1","GID_0": "TCD","country": "Chad","GID_1": "TCD.11_1","province": "LogoneOccidental","NL_NAME_1": "NA","GID_2": "TCD.11.2_1","county": "LacWey","NL_NAME_2": "NA","city": "Dodinda","VARNAME_3": "NA","NL_NAME_3": "NA","TYPE_3": "Sub-prefecture","ENGTYPE_3": "Sub-prefecture","CC_3": "NA","HASC_3": "NA","name": "Dodinda.city","area_km2": 318.4826,"hist_schema_id": "Elevation0-9000","hist_area_km2": {"400": 1.7196,"425": 77.4893,"450": 166.9792,"475": 71.078,"500": 1.2165}}}