{"type":"Feature","properties":{"GID_3":"TCD.23.3.4_1","GID_0":"TCD","country":"Chad","GID_1":"TCD.23_1","province":"WadiFira","NL_NAME_1":"NA","GID_2":"TCD.23.3_1","county":"Kobé","NL_NAME_2":"NA","city":"Kobe-Nord-Est","VARNAME_3":"NA","NL_NAME_3":"NA","TYPE_3":"Sub-prefecture","ENGTYPE_3":"Sub-prefecture","CC_3":"NA","HASC_3":"NA","name":"Kobe-Nord-Est.city"},
"geometry":{"type": "MultiPolygon","coordinates": [[[[22.324,15.889,754.8015],[22.266,15.501,1013.3465],[22.268,15.335,933.945],[22.242,15.173,945.4744],[22.305,15.185,938.4467],[22.352,15.177,934.1276],[22.401,15.146,923.2435],[22.467,15.119,901.1193],[22.618,15.092,889.8652],[22.725,15.097,873.104],[22.806,15.071,851.7228],[22.838,15.0452,830.0778],[22.8522,15.0548,827.5885],[22.8707,15.0831,823.274],[22.8801,15.0889,821.4623],[22.8929,15.0944,820.4557],[22.8985,15.0952,818.5098],[22.921,15.0934,816.652],[22.9401,15.1075,813.4918],[22.9389,15.1112,813.042],[22.9397,15.1252,812.245],[22.9306,15.1575,811.0231],[22.9317,15.1658,809.0717],[22.936,15.172,808.1675],[22.9468,15.181,809.049],[22.965,15.1909,807.0387],[22.9692,15.1916,805.0983],[22.9753,15.1963,805.2771],[22.9789,15.2011,804.3767],[22.9868,15.2213,802.9803],[22.992,15.228,806.6649],[22.9969,15.2315,802.8595],[22.9997,15.2372,801.96],[22.9902,15.2559,799.9195],[22.9868,15.2595,799.5153],[22.9868,15.2634,798.9249],[22.9912,15.286,797.1008],[22.9992,15.2961,796.1636],[23.0039,15.3086,795.0527],[22.9995,15.3223,793.6329],[22.9933,15.3303,793.3932],[22.9911,15.3406,792.2599],[22.9904,15.3706,791.0453],[22.9964,15.3911,790.1813],[22.9969,15.3984,789.7124],[22.9902,15.4159,788.2842],[22.9638,15.4381,786.9473],[22.9496,15.4467,787.101],[22.9303,15.4652,785.0148],[22.925,15.4771,784.9669],[22.9221,15.4886,784.5778],[22.9282,15.5143,782.3762],[22.9243,15.5249,782.1505],[22.9261,15.5405,782.1483],[22.9306,15.5508,780.2343],[22.9473,15.572,778.8798],[22.9544,15.5787,778.2023],[22.9619,15.5812,777.707],[22.975,15.5799,776.8517],[22.9894,15.5807,776.6964],[22.9967,15.5837,780.076],[23.0047,15.5894,777.8398],[23.0226,15.6088,774.1534],[23.0248,15.6088,773.6868],[23.0259,15.6118,773.4957],[23.0359,15.6178,774.2616],[23.0427,15.6272,772.7756],[23.0544,15.6534,770.8445],[23.0577,15.6571,771.1503],[23.0773,15.6632,770.9109],[23.0854,15.6685,784.5355],[23.106,15.6906,769.0],[23.1152,15.7048,770.2879],[23.1223,15.7099,770.3879],[23.1315,15.7106,769.5574],[23.089,15.755,777.9189],[23.043,15.799,777.6621],[22.992,15.821,781.9335],[22.96,15.807,794.0925],[22.9,15.799,811.1177],[22.854,15.806,808.0997],[22.823,15.835,812.4279],[22.798,15.842,813.5474],[22.734,15.818,849.6559],[22.602,15.797,893.6592],[22.549,15.812,918.0264],[22.543,15.872,861.4257],[22.524,15.89,847.3704],[22.414,15.919,756.899],[22.37,15.896,740.0962],[22.324,15.889,754.8015]]]]}}