{"type": "Feature","bbox": [16.487,8.0168,16.8443,8.5796],"geometry": {"type": "MultiPolygon","coordinates": [[[[16.7057,8.5796,384.4736],[16.6946,8.5652,387.9377],[16.6815,8.5566,386.1928],[16.5968,8.4825,395.1075],[16.5685,8.462,406.8107],[16.5144,8.4288,413.7729],[16.487,8.4065,409.638],[16.4893,8.4045,406.7559],[16.5172,8.3449,426.736],[16.5315,8.3225,415.2215],[16.5506,8.2988,422.8434],[16.5697,8.2634,422.6509],[16.5887,8.2359,423.7034],[16.6077,8.2119,418.5999],[16.6222,8.1854,423.642],[16.6287,8.1674,408.8895],[16.6291,8.1451,419.5356],[16.6223,8.0877,408.8943],[16.6146,8.0498,420.4038],[16.6233,8.044,415.5588],[16.629,8.0361,418.1854],[16.6511,8.0244,405.46],[16.6593,8.0168,409.1925],[16.6565,8.0338,405.2311],[16.6616,8.0705,407.9653],[16.6771,8.151,400.5586],[16.6905,8.1977,406.457],[16.6983,8.2367,395.6263],[16.7097,8.2755,404.5844],[16.7228,8.3019,400.2075],[16.7431,8.3342,402.4829],[16.7821,8.3837,394.502],[16.8012,8.4004,395.5036],[16.813,8.414,395.7145],[16.8208,8.4357,396.7302],[16.8366,8.4656,397.9724],[16.8443,8.4741,395.7713],[16.8308,8.4717,400.0449],[16.8207,8.4744,398.9799],[16.8136,8.4745,399.5849],[16.793,8.4687,400.1886],[16.771,8.4727,398.021],[16.7649,8.4791,389.9215],[16.7502,8.505,400.3047],[16.7321,8.5309,395.1505],[16.7252,8.5424,396.9981],[16.715,8.5657,390.5659],[16.7057,8.5796,384.4736]]]]}
,"properties": {"GID_3": "TCD.12.1.4_1","GID_0": "TCD","country": "Chad","GID_1": "TCD.12_1","province": "LogoneOriental","NL_NAME_1": "NA","GID_2": "TCD.12.1_1","county": "Lanya","NL_NAME_2": "NA","city": "Kome/Ndobele","VARNAME_3": "NA","NL_NAME_3": "NA","TYPE_3": "Sub-prefecture","ENGTYPE_3": "Sub-prefecture","CC_3": "NA","HASC_3": "NA","name": "Kome_Ndobele.city","area_km2": 920.3489,"hist_schema_id": "Elevation0-9000","hist_area_km2": {"375": 3.8159,"400": 587.6848,"425": 328.8482}}}