{"type": "Feature","bbox": [16.3014,8.0235,16.6291,8.4065],"geometry": {"type": "MultiPolygon","coordinates": [[[[16.487,8.4065,409.638],[16.4723,8.3992,413.211],[16.4518,8.392,410.6774],[16.4235,8.3894,417.3275],[16.3933,8.3895,431.32],[16.3648,8.3814,430.0503],[16.3402,8.3398,445.466],[16.327,8.3141,439.1026],[16.3062,8.2489,447.3147],[16.3014,8.2277,448.4703],[16.3066,8.2097,453.4341],[16.3161,8.1906,463.3073],[16.3271,8.1337,533.9535],[16.3427,8.1345,535.6196],[16.3676,8.1409,531.914],[16.3996,8.141,502.3334],[16.4349,8.1406,471.031],[16.4625,8.1381,459.5414],[16.4886,8.1333,445.6867],[16.5169,8.0979,508.8878],[16.53,8.0847,482.3145],[16.5429,8.0382,482.7795],[16.5525,8.0235,491.8136],[16.5711,8.0268,466.456],[16.6034,8.0405,425.8638],[16.6146,8.0498,420.4038],[16.6267,8.1178,414.5166],[16.6291,8.1451,419.5356],[16.6287,8.1674,408.8895],[16.6222,8.1854,423.642],[16.6077,8.2119,418.5999],[16.5887,8.2359,423.7034],[16.5697,8.2634,422.6509],[16.5506,8.2988,422.8434],[16.5315,8.3225,415.2215],[16.5172,8.3449,426.736],[16.4893,8.4045,406.7559],[16.487,8.4065,409.638]]]]}
,"properties": {"GID_3": "TCD.12.3.9_1","GID_0": "TCD","country": "Chad","GID_1": "TCD.12_1","province": "LogoneOriental","NL_NAME_1": "NA","GID_2": "TCD.12.3_1","county": "NyaPendé","NL_NAME_2": "NA","city": "Timberi","VARNAME_3": "NA","NL_NAME_3": "NA","TYPE_3": "Sub-prefecture","ENGTYPE_3": "Sub-prefecture","CC_3": "NA","HASC_3": "NA","name": "Timberi.city","area_km2": 886.178,"hist_schema_id": "Elevation0-9000","hist_area_km2": {"400": 15.8822,"425": 287.1139,"450": 323.4997,"475": 176.6789,"500": 68.2699,"525": 14.6915,"550": 0.042}}}