{"type": "Feature","bbox": [17.9076,8.013,18.214,8.5655],"geometry": {"type": "MultiPolygon","coordinates": [[[[18.214,8.0194,410.2974],[18.2038,8.0576,406.2324],[18.1952,8.0781,404.8486],[18.1909,8.1097,404.2099],[18.1698,8.2083,397.144],[18.1663,8.2526,396.5403],[18.1775,8.2972,398.2232],[18.1779,8.3398,391.7805],[18.1678,8.3778,383.2018],[18.1551,8.3945,386.1852],[18.1443,8.4162,385.745],[18.1279,8.4688,387.2654],[18.1265,8.513,383.3508],[18.1231,8.5301,377.5259],[18.1169,8.5459,379.5455],[18.1104,8.5533,380.5299],[18.1025,8.5526,382.355],[18.0944,8.5601,381.172],[18.0783,8.5655,379.244],[18.0699,8.5481,380.7288],[18.0689,8.5431,384.8686],[18.0473,8.52,380.0608],[18.0314,8.5116,380.3077],[18.0177,8.5081,379.4542],[18.0076,8.5009,379.1859],[17.9953,8.4965,375.4791],[17.9876,8.4912,375.5551],[17.9678,8.4823,374.6601],[17.9603,8.4673,375.8147],[17.9577,8.4582,373.7143],[17.9582,8.4359,380.0055],[17.9431,8.4158,387.7773],[17.9252,8.4002,384.7395],[17.9108,8.3821,386.0496],[17.9089,8.3757,387.3888],[17.9093,8.3594,387.0581],[17.9076,8.3506,385.4615],[17.9123,8.301,378.9782],[17.9212,8.2823,377.4232],[17.9426,8.2516,387.2515],[17.9482,8.2368,384.3371],[17.9618,8.2191,382.2584],[17.9853,8.193,384.2198],[17.9926,8.187,382.6811],[18.0068,8.1566,398.3663],[18.0149,8.1516,395.8567],[18.0583,8.0986,397.7775],[18.0824,8.0782,399.3057],[18.1056,8.0526,389.4832],[18.1223,8.013,397.8803],[18.1641,8.0147,411.9457],[18.214,8.0194,410.2974]]]]}
,"properties": {"GID_3": "TCD.13.1.10_1","GID_0": "TCD","country": "Chad","GID_1": "TCD.13_1","province": "Mandoul","NL_NAME_1": "NA","GID_2": "TCD.13.1_1","county": "BarhSara","NL_NAME_2": "NA","city": "Gabian","VARNAME_3": "NA","NL_NAME_3": "NA","TYPE_3": "Sub-prefecture","ENGTYPE_3": "Sub-prefecture","CC_3": "NA","HASC_3": "NA","name": "Gabian.city","area_km2": 1176.3382,"hist_schema_id": "Elevation0-9000","hist_area_km2": {"375": 280.4203,"400": 894.2803,"425": 1.6375}}}