{"type": "Feature","bbox": [21.622,12.816,21.879,13.527],"geometry": {"type": "MultiPolygon","coordinates": [[[[21.877,13.198,742.5233],[21.848,13.246,749.2114],[21.855,13.305,788.2515],[21.878,13.359,809.0176],[21.879,13.42,897.8867],[21.865,13.45,922.0416],[21.867,13.503,826.8401],[21.85,13.506,804.6009],[21.822,13.52,792.796],[21.734,13.519,749.6492],[21.65,13.527,739.2111],[21.699,13.336,734.1941],[21.681,13.277,793.7144],[21.646,13.254,738.676],[21.632,13.209,687.6026],[21.622,13.094,614.1605],[21.63,13.059,608.6333],[21.625,12.979,590.882],[21.657,12.886,634.8359],[21.681,12.861,649.6697],[21.743,12.826,695.4113],[21.776,12.816,708.4246],[21.822,12.895,696.6419],[21.829,12.956,710.5917],[21.838,12.999,702.5219],[21.835,13.08,724.4843],[21.865,13.139,724.7539],[21.877,13.198,742.5233]]]]}
,"properties": {"GID_3": "TCD.17.1.1_1","GID_0": "TCD","country": "Chad","GID_1": "TCD.17_1","province": "Ouaddaï","NL_NAME_1": "NA","GID_2": "TCD.17.1_1","county": "Assoungha","NL_NAME_2": "NA","city": "Barde","VARNAME_3": "NA","NL_NAME_3": "NA","TYPE_3": "Sub-prefecture","ENGTYPE_3": "Sub-prefecture","CC_3": "NA","HASC_3": "NA","name": "Barde.city","area_km2": 1626.604,"hist_schema_id": "Elevation0-9000","hist_area_km2": {"575": 5.434,"600": 109.562,"625": 155.154,"650": 134.728,"675": 145.716,"700": 184.751,"725": 237.14,"750": 239.516,"775": 157.966,"800": 115.105,"825": 70.391,"850": 32.176,"875": 16.626,"900": 10.581,"925": 6.023,"950": 3.095,"975": 1.362,"1000": 0.929,"1025": 0.268,"1050": 0.083}}}