{"type": "Feature","bbox": [17.311,11.192,18.041,11.68],"geometry": {"type": "MultiPolygon","coordinates": [[[[17.311,11.304,335.3646],[17.336,11.31,336.8159],[17.347,11.315,337.3043],[17.372,11.313,338.0424],[17.389,11.319,338.5713],[17.404,11.314,341.5495],[17.432,11.328,341.9019],[17.451,11.326,343.0374],[17.458,11.312,343.6637],[17.469,11.302,344.0112],[17.481,11.285,345.2556],[17.496,11.284,344.9143],[17.506,11.291,345.8784],[17.515,11.281,346.905],[17.54,11.284,348.202],[17.548,11.26,347.2093],[17.59,11.231,348.1677],[17.625,11.192,348.2172],[17.662,11.194,369.3302],[17.719,11.21,376.6706],[17.79,11.24,362.9427],[17.83,11.252,378.6819],[17.849,11.255,375.2106],[17.992,11.292,402.5343],[18.035,11.308,415.8152],[18.041,11.338,415.8728],[18.031,11.369,421.5413],[18.004,11.395,403.7784],[17.934,11.471,430.7945],[17.899,11.516,392.3355],[17.881,11.551,398.0526],[17.842,11.638,382.6831],[17.747,11.652,359.1648],[17.68,11.68,358.85],[17.619,11.679,349.8398],[17.545,11.672,357.7475],[17.487,11.632,349.4591],[17.425,11.586,338.4037],[17.378,11.539,336.1009],[17.335,11.472,334.7028],[17.315,11.324,335.8187],[17.311,11.304,335.3646]]]]}
,"properties": {"GID_3": "TCD.7.3.5_1","GID_0": "TCD","country": "Chad","GID_1": "TCD.7_1","province": "Guéra","NL_NAME_1": "NA","GID_2": "TCD.7.3_1","county": "Guéra","NL_NAME_2": "NA","city": "Mokofi","VARNAME_3": "NA","NL_NAME_3": "NA","TYPE_3": "Sub-prefecture","ENGTYPE_3": "Sub-prefecture","CC_3": "NA","HASC_3": "NA","name": "Mokofi.city","area_km2": 2801.911,"hist_schema_id": "Elevation0-9000","hist_area_km2": {"325": 120.184,"350": 1177.209,"375": 1068.559,"400": 402.315,"425": 20.16,"450": 4.467,"475": 3.574,"500": 2.119,"525": 1.267,"550": 0.727,"575": 0.436,"600": 0.478,"625": 0.312,"650": 0.062,"675": 0.042}}}