{"type":"Feature","properties":{"GID_3":"TCD.13.1.13_1","GID_0":"TCD","country":"Chad","GID_1":"TCD.13_1","province":"Mandoul","NL_NAME_1":"NA","GID_2":"TCD.13.1_1","county":"BarhSara","NL_NAME_2":"NA","city":"Moissala","VARNAME_3":"NA","NL_NAME_3":"NA","TYPE_3":"Sub-prefecture","ENGTYPE_3":"Sub-prefecture","CC_3":"NA","HASC_3":"NA","name":"Moissala.city"},
"geometry":{"type": "MultiPolygon","coordinates": [[[[17.6521,8.4401,379.7303],[17.6511,8.427,379.9442],[17.6585,8.4146,379.7213],[17.678,8.3731,387.6355],[17.6924,8.3575,389.6064],[17.7086,8.3348,390.462],[17.7523,8.3112,388.381],[17.7602,8.3178,385.5593],[17.7709,8.3348,369.5],[17.7807,8.3526,374.4666],[17.7902,8.3748,381.9993],[17.8018,8.4247,385.8036],[17.8043,8.4419,384.084],[17.8142,8.4648,383.0436],[17.8554,8.481,376.5855],[17.8793,8.4929,371.6198],[17.8902,8.5033,376.015],[17.8832,8.5136,372.7413],[17.8758,8.5111,375.998],[17.8468,8.5157,377.8457],[17.8265,8.515,380.9837],[17.8197,8.5097,379.9193],[17.7906,8.4763,380.9377],[17.7709,8.4594,383.8514],[17.749,8.4529,385.3792],[17.7144,8.4463,382.6859],[17.6638,8.4455,382.1029],[17.6521,8.4401,379.7303]]]]}}