{"type":"Feature","properties":{"GID_1":"TCD.17_1","GID_0":"TCD","country":"Chad","province":"Ouaddaï","VARNAME_1":"Ouaddai|Ouadaï","NL_NAME_1":"NA","TYPE_1":"Région","ENGTYPE_1":"Region","CC_1":"NA","HASC_1":"TD.OA","ISO_1":"NA","name":"Ouaddaï.province"},
"geometry":{"type": "MultiPolygon","coordinates": [[[[21.539,12.808,587.5849],[21.598,12.827,604.7829],[21.645,12.845,634.4429],[21.681,12.861,649.6697],[21.743,12.826,695.4113],[21.776,12.816,708.4246],[21.826,12.806,647.3782],[21.8391,12.8017,656.0579],[21.8396,12.8088,659.8915],[21.8483,12.8366,651.6903],[21.8503,12.8502,651.9631],[21.8507,12.8715,655.1295],[21.8534,12.8817,656.1204],[21.8604,12.8905,657.3384],[21.8787,12.9243,661.7336],[21.8911,12.9659,667.0919],[21.8987,12.9817,671.5258],[21.9113,13.0023,673.6636],[21.9256,13.0091,678.8898],[21.9308,13.0184,676.7769],[21.9308,13.0298,678.7717],[21.933,13.0358,681.4819],[21.9269,13.0416,679.5189],[21.9257,13.0469,680.3897],[21.939,13.0553,687.4211],[21.9473,13.068,685.1262],[21.9649,13.0727,687.822],[21.9821,13.0915,692.6149],[21.9942,13.0994,698.2822],[22.0033,13.1027,701.0757],[22.0075,13.1089,699.2421],[22.0099,13.1308,700.8735],[22.0136,13.1363,704.0551],[22.0204,13.139099999999999,705.4941],[22.0511,13.1382,714.0661],[22.0645,13.1427,711.8247],[22.0717,13.1432,714.4507],[22.0745,13.1462,712.949],[22.0786,13.157,718.0509],[22.0826,13.16,714.4284],[22.0882,13.1608,718.709],[22.0932,13.1592,727.5878],[22.1091,13.1605,722.3689],[22.1279,13.1643,740.9293],[22.1346,13.1678,730.6146],[22.1381,13.1719,724.8676],[22.1465,13.1927,726.114],[22.1539,13.196,742.4537],[22.1724,13.2151,743.3954],[22.1842,13.2451,739.7054],[22.1947,13.2519,750.995],[22.2105,13.2711,750.0112],[22.2215,13.2751,744.2036],[22.2304,13.2934,745.5612],[22.2358,13.299,750.6446],[22.2437,13.3029,746.7706],[22.244,13.3053,749.2479],[22.2544,13.3169,768.1865],[22.2611,13.3279,753.678],[22.2749,13.3423,762.2242],[22.2842,13.3497,757.5026],[22.2828,13.3819,760.8771],[22.2785,13.3906,760.9633],[22.2596,13.4068,764.5907],[22.2481,13.4083,767.9946],[22.2405,13.4172,767.5323],[22.2383,13.4365,770.7503],[22.2342,13.4427,771.5209],[22.2316,13.445,773.9381],[22.2241,13.4472,783.9464],[22.221,13.4518,779.1882],[22.2165,13.471,777.8824],[22.2218,13.488,781.2755],[22.2167,13.5083,783.8936],[22.2222,13.5383,785.705],[22.2219,13.5491,802.0275],[22.215,13.5607,790.332],[22.2137,13.5665,791.8751],[22.1962,13.5817,795.8958],[22.1809,13.5881,798.1633],[22.179,13.5917,799.9466],[22.1701,13.5962,802.1469],[22.1673,13.5992,802.9358],[22.1679,13.6028,802.9166],[22.1608,13.617,806.9603],[22.157,13.6156,806.6128],[22.1516,13.6163,806.1823],[22.1462,13.6218,808.9881],[22.1353,13.6532,815.0992],[22.1204,13.668,824.2305],[22.1163,13.6852,826.4999],[22.1193,13.693,830.4277],[22.1251,13.6997,829.5002],[22.1294,13.7159,836.4308],[22.124,13.7225,836.8915],[22.1239,13.7326,838.8448],[22.114,13.7425,841.692],[22.1096,13.7433,848.6782],[22.1001,13.7526,850.4483],[22.0908,13.7656,851.6679],[22.0922,13.7762,865.071],[22.1222,13.8224,914.5234],[22.1264,13.8243,910.0406],[22.1324,13.8347,914.7256],[22.1493,13.8563,942.9692],[22.2096,13.916,1023.1913],[22.172,13.918,958.5833],[22.13,13.947,953.6545],[22.089,13.968,933.8953],[22.018,13.989,916.128],[21.983,14.002,930.0735],[21.778,14.06,872.8749],[21.671,14.092,908.6443],[21.555,14.101,855.3551],[21.504,14.115,827.9267],[21.437,14.126,764.2476],[21.382,14.111,780.2016],[21.314,14.068,768.5224],[21.253,14.039,753.5449],[21.174,14.044,735.5714],[21.142,14.096,732.6277],[21.108,14.129,654.3206],[21.084,14.139,682.8083],[21.032,14.142,695.3797],[21.005,14.153,662.5126],[20.962,14.197,601.5369],[20.923,14.25,558.4091],[20.846,14.32,511.6616],[20.767,14.367,483.1189],[20.718,14.379,476.427],[20.662,14.395,465.7358],[20.606,14.414,458.6089],[20.533,14.398,449.0348],[20.486,14.376,436.6702],[20.357,14.386,425.7029],[20.288,14.325,414.4367],[20.241,14.299,408.8739],[20.21,14.26,403.6921],[20.136,14.158,400.1253],[20.062,14.082,410.3776],[20.056,13.956,413.7078],[20.268,13.829,429.9197],[20.295,13.755,436.8947],[20.276,13.671,428.6974],[20.267,13.613,436.5262],[20.276,13.586,431.6429],[20.314,13.529,441.1026],[20.364,13.421,442.8461],[20.369,13.331,439.2808],[20.358,13.059,423.113],[20.447,13.029,452.5233],[20.54,13.012,447.2365],[20.613,13.009,463.9875],[20.662,13.009,480.5301],[20.763,13.017,486.0927],[20.763,12.978,485.1526],[20.773,12.932,479.8849],[20.764,12.888,497.45],[20.791,12.886,504.9098],[20.845,12.866,505.2039],[20.915,12.853,510.8358],[20.941,12.8,483.9613],[20.929,12.752,482.4338],[20.932,12.694,471.8859],[21.022,12.658,482.7336],[21.087,12.635,508.6494],[21.111,12.649,509.887],[21.139,12.649,521.149],[21.224,12.67,531.0534],[21.269,12.672,552.4709],[21.313,12.665,577.0409],[21.358,12.647,591.0487],[21.387,12.678,676.6882],[21.42,12.721,555.5839],[21.44,12.734,568.9501],[21.484,12.778,562.1451],[21.539,12.808,587.5849]]]]}}