{"type": "Feature","id": "1475","bbox": [20.00005,12.66753,22.27598,14.47074],"geometry": {"type": "Polygon","coordinates": [[[20.97792,14.19624,610.0728],[20.96893,14.19831,602.1468],[20.96258,14.20079,592.7126],[20.95808,14.20415,588.9232],[20.89896,14.26476,537.3442],[20.87488,14.2967,523.8248],[20.8538,14.34378,504.3193],[20.85132,14.34817,502.7424],[20.84822,14.35199,503.2635],[20.84419,14.35504,503.6633],[20.81561,14.36486,492.3743],[20.80739,14.36915,489.364],[20.79933,14.37514,489.6459],[20.78445,14.38863,484.5908],[20.78026,14.39147,482.8933],[20.77478,14.39395,540.3035],[20.75323,14.40026,477.0849],[20.74812,14.40305,475.9484],[20.7399,14.40915,474.4529],[20.73556,14.41168,474.3839],[20.55883,14.46904,449.2309],[20.55154,14.47023,449.8193],[20.54188,14.47074,450.5739],[20.49676,14.46522,444.8597],[20.49211,14.46413,444.0911],[20.48726,14.46248,441.3589],[20.44075,14.43891,435.9547],[20.43496,14.43788,435.0417],[20.42891,14.43762,434.4752],[20.41636,14.43933,432.6046],[20.38132,14.44739,429.684],[20.37605,14.44728,429.6508],[20.37135,14.44563,428.6628],[20.3622,14.44108,427.2084],[20.35755,14.43938,426.5995],[20.3529,14.43922,426.3921],[20.34809,14.44072,426.0379],[20.34329,14.44294,425.5896],[20.33786,14.4448,425.578],[20.32603,14.44749,424.4799],[20.31982,14.44811,423.5814],[20.30153,14.44682,421.843],[20.29455,14.44501,421.0977],[20.28804,14.44139,420.5913],[20.28122,14.43178,419.9716],[20.27425,14.41928,418.2964],[20.27068,14.41504,417.8533],[20.26598,14.41147,417.0897],[20.24148,14.40455,414.6743],[20.23823,14.40124,414.3834],[20.23404,14.39519,413.9373],[20.22939,14.38088,413.8818],[20.21368,14.37101,412.5518],[20.15787,14.32626,405.6885],[20.00005,14.15598,390.6917],[20.00005,14.01062,399.4828],[20.2249,13.89931,422.3604],[20.23497,13.89249,420.9269],[20.23854,13.88623,423.3595],[20.23172,13.66976,423.8684],[20.23699,13.64651,430.7199],[20.24489,13.62682,436.2653],[20.2806,13.57225,431.5175],[20.28324,13.56315,432.239],[20.28153,13.40275,441.5096],[20.30479,13.22322,429.7293],[20.30432,13.11832,419.078],[20.30091,13.1069,417.4442],[20.29455,13.09233,417.8516],[20.41035,13.04536,436.8676],[20.52268,13.04536,444.2065],[20.67586,13.04536,506.7069],[20.68607,12.91261,461.3952],[20.75755,12.89219,490.1897],[20.83924,12.88198,504.2244],[20.84945,12.8105,500.8115],[20.84945,12.71859,467.8624],[20.98221,12.66753,480.9519],[21.09453,12.69817,507.2427],[21.19665,12.68796,519.664],[21.2375,12.67774,528.559],[21.28856,12.69817,565.8049],[21.38046,12.79007,524.7668],[21.48258,12.85134,547.9694],[21.57448,12.88198,581.8918],[21.69702,12.83092,658.1346],[21.809449999999998,12.79366,658.8872],[21.81183,12.79997,651.7608],[21.82785,12.8311,650.7701],[21.85296,12.90572,664.9722],[21.93513,13.05915,683.0668],[21.96406,13.09835,706.1757],[21.99838,13.13059,712.9618],[22.01605,13.14023,704.7418],[22.12343,13.18217,752.0117],[22.13997,13.19351,748.2597],[22.23227,13.28903,759.1658],[22.26761,13.33456,751.156],[22.27598,13.37632,772.1519],[22.26399,13.39918,766.1268],[22.22865,13.44112,775.8526],[22.21563,13.46499,777.4733],[22.21118,13.48419,791.1671],[22.21056,13.54173,789.1761],[22.19589,13.58046,795.8958],[22.13212,13.63865,817.298],[22.11434,13.67738,831.0448],[22.11434,13.69971,837.2188],[22.1163,13.71518,849.72],[22.11289,13.72983,872.0763],[22.09708,13.74976,859.7533],[22.07372,13.77136,859.1582],[22.07496,13.78032,862.55],[22.09935,13.81942,903.3715],[22.18076,13.92055,961.7645],[22.18023,13.92049,961.7645],[22.15336,13.91745,951.9457],[22.1377,13.91739,935.6066],[22.12452,13.92049,927.2583],[22.11362,13.93135,936.557],[22.08912,13.96866,933.8953],[22.08463,13.97346,927.6171],[22.04225,13.99946,924.6647],[21.70227,14.11087,868.8196],[21.43552,14.15149,777.4723],[21.42172,14.1519,789.6348],[21.36183,14.14797,790.2394],[21.3331,14.14265,801.5502],[21.28705,14.1195,785.3811],[21.27894,14.11366,773.4708],[21.26142,14.10348,754.744],[21.25196,14.09929,761.3795],[21.23228,14.0934,786.0531],[21.22127,14.09165,775.96],[21.20246,14.09284,792.8156],[21.1682,14.10147,733.2634],[21.0712,14.1489,706.7495],[21.0003,14.19686,643.4396],[20.99606,14.19748,628.8423],[20.98955,14.19779,622.3337],[20.97792,14.19624,610.0728]]]}
,"properties": {"ISO3166-1-Alpha-3": "TCD","country": "Chad","fill": "#F0F","name": "Ouaddaï","area_km2": 31132.61,"hist_schema_id": "Elevation0-9000","hist_area_km2": {"400": 694.58,"425": 2071.86,"450": 2825.2,"475": 2167.12,"500": 2184.49,"525": 2378.57,"550": 2127.71,"575": 1897.13,"600": 1690.5,"625": 1453.9,"650": 1273.02,"675": 1271.03,"700": 1251.81,"725": 1245.47,"750": 1066.88,"775": 919.78,"800": 873.05,"825": 948.49,"850": 891.99,"875": 715.42,"900": 662.03,"925": 362.13,"950": 114.17,"975": 29.19,"1000": 8.96,"1025": 3.85,"1050": 2.51,"1075": 1.24,"1100": 0.45}}}