{"type":"Feature","properties":{"GID_3":"TCD.17.3.4_1","GID_0":"TCD","country":"Chad","GID_1":"TCD.17_1","province":"Ouaddaï","NL_NAME_1":"NA","GID_2":"TCD.17.3_1","county":"Ouara","NL_NAME_2":"NA","city":"Mandjobo","VARNAME_3":"NA","NL_NAME_3":"NA","TYPE_3":"Sub-prefecture","ENGTYPE_3":"Sub-prefecture","CC_3":"NA","HASC_3":"NA","name":"Mandjobo.city"},
"geometry":{"type": "MultiPolygon","coordinates": [[[[21.253,14.039,753.5449],[21.174,14.044,735.5714],[21.142,13.993,704.9306],[21.109,13.964,690.6141],[21.061,13.933,654.5327],[20.983,13.876,640.1035],[20.911,13.722,539.9374],[20.973,13.686,592.4985],[21.009,13.658,607.48],[21.005,13.603,604.2072],[21.027,13.549,563.775],[21.11,13.533,581.4635],[21.236,13.565,625.6866],[21.359,13.548,619.8478],[21.401,13.559,628.9155],[21.488,13.563,658.3807],[21.537,13.58,674.8381],[21.58,13.597,707.9219],[21.532,13.66,700.3853],[21.495,13.74,722.6737],[21.449,13.764,704.0898],[21.373,13.815,692.7999],[21.355,13.844,708.0378],[21.337,13.91,693.3637],[21.341,13.967,713.1877],[21.318,14.004,736.842],[21.253,14.039,753.5449]]]]}}