{"type": "Feature","bbox": [14.554,13.154,16.143,14.611],"geometry": {"type": "MultiPolygon","coordinates": [[[[15.862,13.154,286.2017],[15.91,13.173,285.6227],[15.929,13.207,291.7246],[15.935,13.339,290.5335],[15.934,13.45,294.13],[15.92,13.499,294.0384],[15.892,13.546,288.4692],[15.876,13.614,288.2764],[15.884,13.66,286.6236],[15.894,13.685,298.5142],[15.892,13.728,291.6414],[15.884,13.747,281.6542],[15.774,13.758,291.5194],[15.762,13.739,290.2839],[15.647,13.735,283.7645],[15.602,13.749,287.5467],[15.607,13.878,296.8043],[15.619,14.032,310.8295],[15.711,14.066,312.9636],[15.804,14.145,315.4813],[15.911,14.263,316.0648],[15.962,14.315,305.4407],[16.102,14.47,312.6013],[16.143,14.545,312.3877],[15.938,14.538,317.7545],[15.888,14.527,315.4994],[15.791,14.454,305.6315],[15.725,14.48,327.4613],[15.623,14.457,310.7888],[15.567,14.403,330.0685],[15.478,14.419,347.3959],[15.381,14.466,335.4349],[15.313,14.534,351.1848],[15.203,14.586,351.1453],[15.135,14.576,350.1138],[14.996,14.611,350.3865],[14.963,14.478,345.264],[14.898,14.386,343.8632],[14.741,14.149,330.7694],[14.623,14.049,314.2307],[14.554,13.996,301.0393],[14.66,13.876,307.6376],[14.793,13.635,293.3503],[14.851,13.672,290.6373],[14.96,13.665,298.8449],[15.016,13.674,302.6261],[15.196,13.718,311.3332],[15.393,13.742,300.9968],[15.501,13.457,291.3837],[15.553,13.362,297.5637],[15.576,13.247,293.9448],[15.736,13.179,293.3441],[15.755,13.163,290.146],[15.862,13.154,286.2017]]]]}
,"properties": {"GID_2": "TCD.9.1_1","GID_0": "TCD","country": "Chad","GID_1": "TCD.9_1","province": "Kanem","NL_NAME_1": "NA","county": "Kanem","VARNAME_2": "Mao","NL_NAME_2": "NA","TYPE_2": "Department","ENGTYPE_2": "Department","CC_2": "NA","HASC_2": "TD.KA.KA","name": "Kanem.county","area_km2": 12812.532,"hist_schema_id": "Elevation0-9000","hist_area_km2": {"275": 480.201,"300": 4549.688,"325": 6055.282,"350": 1711.228,"375": 16.134}}}