{"type": "Feature","bbox": [14.735,9.6615,15.0434,9.8935],"geometry": {"type": "MultiPolygon","coordinates": [[[[14.9971,9.8791,324.1476],[14.9563,9.8935,320.4065],[14.9365,9.8911,320.2243],[14.8743,9.8765,319.5],[14.8576,9.8704,319.8168],[14.8269,9.8713,322.0148],[14.8062,9.8679,326.5201],[14.7749,9.8517,324.493],[14.7627,9.8406,318.3622],[14.735,9.8197,316.1326],[14.7382,9.774,346.1921],[14.7486,9.7236,368.2724],[14.7455,9.7017,387.2202],[14.749,9.6698,398.1679],[14.7673,9.6641,412.9937],[14.7932,9.6682,399.3229],[14.8178,9.668,407.244],[14.8419,9.6759,388.2907],[14.8605,9.6739,389.8013],[14.8909,9.6818,390.7883],[14.9072,9.6894,383.8256],[14.9304,9.6965,381.4464],[14.9501,9.6984,375.2188],[14.9663,9.6891,367.0896],[14.9898,9.683,354.0428],[14.9982,9.6742,355.4137],[15.0179,9.6656,357.9576],[15.034,9.6615,368.6919],[15.0434,9.6752,372.6181],[15.0324,9.7052,361.4539],[15.0224,9.7197,356.1378],[15.0215,9.7566,339.6825],[15.0289,9.7722,336.4602],[15.0249,9.7924,335.3516],[15.0206,9.8045,333.8858],[15.0197,9.8164,332.2565],[15.0136,9.8332,329.1292],[15.01,9.8516,326.5565],[14.9971,9.8791,324.1476]]]]}
,"properties": {"GID_3": "TCD.14.3.5_1","GID_0": "TCD","country": "Chad","GID_1": "TCD.14_1","province": "Mayo-KebbiEst","NL_NAME_1": "NA","GID_2": "TCD.14.3_1","county": "MontIlli","NL_NAME_2": "NA","city": "Tikem","VARNAME_3": "NA","NL_NAME_3": "NA","TYPE_3": "Sub-prefecture","ENGTYPE_3": "Sub-prefecture","CC_3": "NA","HASC_3": "NA","name": "Tikem.city","area_km2": 665.6548,"hist_schema_id": "Elevation0-9000","hist_area_km2": {"325": 221.7934,"350": 274.1233,"375": 138.5969,"400": 29.1974,"425": 1.9438}}}