{"type": "Feature","bbox": [16.1542,8.685,16.594,9.245],"geometry": {"type": "MultiPolygon","coordinates": [[[[16.3597,8.7236,426.1757],[16.3648,8.7099,407.5217],[16.369,8.685,381.7602],[16.379,8.696,384.0733],[16.406,8.717,405.4222],[16.45,8.727,413.3294],[16.493,8.746,403.6899],[16.521,8.777,401.6826],[16.558,8.83,413.9657],[16.574,8.874,397.8556],[16.594,8.899,371.2922],[16.587,8.925,370.539],[16.574,8.937,369.7752],[16.567,8.959,369.246],[16.545,8.951,376.6483],[16.538,8.966,373.2346],[16.533,8.989,367.8985],[16.504,8.995,372.7166],[16.486,9.028,368.0943],[16.446,9.087,365.3629],[16.427,9.118,362.8237],[16.414,9.15,362.1847],[16.411,9.181,360.4333],[16.381,9.21,359.8554],[16.364,9.245,359.631],[16.335,9.225,360.7455],[16.289,9.181,363.9789],[16.279,9.175,365.2005],[16.239,9.165,368.3464],[16.214,9.154,374.6972],[16.202,9.122,391.6862],[16.187,9.098,400.7762],[16.157,9.079,399.7266],[16.1542,9.0795,395.884],[16.1642,9.0421,422.6937],[16.1762,9.0174,446.6942],[16.1852,8.9765,496.5606],[16.2057,8.9341,519.0082],[16.209,8.922,534.5343],[16.2105,8.8912,527.04],[16.2081,8.8786,517.5581],[16.2832,8.8919,526.6238],[16.3034,8.8718,525.6646],[16.3213,8.8591,522.8636],[16.3437,8.8649,506.2834],[16.3541,8.8693,496.7645],[16.3918,8.8659,495.1772],[16.3779,8.8235,475.5075],[16.3757,8.8112,477.2092],[16.3685,8.8034,486.148],[16.3561,8.7841,471.2579],[16.3497,8.7685,462.2604],[16.3522,8.7474,446.7303],[16.3569,8.7371,438.3495],[16.3597,8.7236,426.1757]]]]}
,"properties": {"GID_2": "TCD.11.3_1","GID_0": "TCD","country": "Chad","GID_1": "TCD.11_1","province": "LogoneOccidental","NL_NAME_1": "NA","county": "Ngourkosso","VARNAME_2": "Benoye|Benoyé","NL_NAME_2": "NA","TYPE_2": "Department","ENGTYPE_2": "Department","CC_2": "NA","HASC_2": "TD.LO.NG","name": "Ngourkosso.county","area_km2": 1481.452,"hist_schema_id": "Elevation0-9000","hist_area_km2": {"350": 51.885,"375": 369.514,"400": 316.229,"425": 242.821,"450": 191.72,"475": 160.583,"500": 103.413,"525": 43.905,"550": 1.382}}}