{"type":"Feature","properties":{"GID_3":"TCD.4.2.2_1","GID_0":"TCD","country":"Chad","GID_1":"TCD.4_1","province":"Chari-Baguirmi","NL_NAME_1":"NA","GID_2":"TCD.4.2_1","county":"LougChari","NL_NAME_2":"NA","city":"Bogomoro","VARNAME_3":"NA","NL_NAME_3":"NA","TYPE_3":"Sub-prefecture","ENGTYPE_3":"Sub-prefecture","CC_3":"NA","HASC_3":"NA","name":"Bogomoro.city"},
"geometry":{"type": "MultiPolygon","coordinates": [[[[16.061,10.897,327.458],[16.039,10.833,325.5534],[16.048,10.752,315.7698],[16.117,10.767,314.739],[16.165,10.738,317.4625],[16.214,10.723,317.4768],[16.256,10.688,319.5746],[16.301,10.669,317.4542],[16.333,10.642,328.4072],[16.379,10.627,321.1824],[16.397,10.642,329.0382],[16.398,10.702,332.0635],[16.414,10.754,331.4777],[16.456,10.846,331.2718],[16.516,10.919,332.6852],[16.566,10.984,332.8174],[16.627,11.032,333.1365],[16.459,10.996,330.9681],[16.348,10.949,331.3894],[16.096,10.914,327.3732],[16.061,10.897,327.458]]]]}}