{"type":"Feature","properties":{"GID_3":"TCD.13.1.1_1","GID_0":"TCD","country":"Chad","GID_1":"TCD.13_1","province":"Mandoul","NL_NAME_1":"NA","GID_2":"TCD.13.1_1","county":"BarhSara","NL_NAME_2":"NA","city":"Beboro","VARNAME_3":"NA","NL_NAME_3":"NA","TYPE_3":"Sub-prefecture","ENGTYPE_3":"Sub-prefecture","CC_3":"NA","HASC_3":"NA","name":"Beboro.city"},
"geometry":{"type": "MultiPolygon","coordinates": [[[[17.7685,8.5643,376.174],[17.7548,8.603,375.5827],[17.752,8.6084,375.29],[17.7362,8.6263,377.6325],[17.7257,8.6492,377.547],[17.724,8.6653,377.1815],[17.7303,8.6953,372.9473],[17.7343,8.7307,372.5605],[17.7338,8.7383,371.5167],[17.7245,8.7564,368.9488],[17.7194,8.7727,365.3463],[17.7204,8.7872,364.8126],[17.7115,8.7815,365.3936],[17.7013,8.7844,364.7629],[17.6886,8.7835,364.7845],[17.667,8.7743,365.8099],[17.6558,8.7735,366.3313],[17.6526,8.7499,364.2115],[17.6371,8.7249,364.0713],[17.5838,8.6656,365.2759],[17.5654,8.6491,365.0986],[17.5447,8.6351,366.3029],[17.5143,8.6174,366.2829],[17.4956,8.6122,366.4849],[17.5107,8.6008,369.6053],[17.5154,8.5946,370.4928],[17.5227,8.5903,369.7913],[17.537,8.5874,368.5406],[17.5523,8.5884,370.8541],[17.5869,8.5963,376.3128],[17.6112,8.5979,374.7434],[17.6294,8.6019,374.9064],[17.6355,8.6017,376.0426],[17.6511,8.5986,377.0839],[17.6575,8.5942,376.0876],[17.6651,8.5784,377.9869],[17.6663,8.5721,377.8356],[17.6651,8.5683,378.4319],[17.6795,8.5658,377.6442],[17.6836,8.5683,376.9746],[17.6912,8.5677,377.9389],[17.7082,8.5705,378.0501],[17.7188,8.5694,377.0684],[17.7274,8.5722,379.0646],[17.7639,8.5669,375.6913],[17.7685,8.5643,376.174]]]]}}