{"type":"Feature","properties":{"featurecla":"Depression","name":"Bodélé Depression","namealt":null,"region":"Africa","subregion":null,"min_label":6.0,"max_label":10.0,"scalerank":5},
"geometry":{"type": "Polygon","coordinates": [[[16.33032978345895,19.495404790780015,570.7813],[16.342295769146261,18.839544989056606,491.9809],[16.148203972271233,17.957586981244106,360.9918],[15.760142448833733,16.969794012494134,243.2783],[15.745167083430516,16.879838064656241,237.9051],[15.852793816021261,16.868414617962884,237.2143],[18.194346550396261,16.775824285931634,176.5796],[18.921885612896233,16.881659246869106,260.198],[19.81255633281927,17.399481059734228,343.9092],[19.755381706646233,17.596014715619077,342.6492],[18.71021569102129,18.336859442181606,375.6354],[18.220713737896205,18.839544989056606,468.8212],[16.818492058208761,18.918951727337827,477.5624],[16.421641472271261,19.4877993835878,592.1412],[16.33032978345895,19.495404790780015,570.7813]]]}}