{"type":"Feature","properties":{"featurecla":"Plateau","name":"Ennedi Plat.","namealt":null,"region":"Africa","subregion":null,"min_label":6.0,"max_label":11.0,"scalerank":6},
"geometry":{"type": "Polygon","coordinates": [[[24.261107266071207,17.727525159482269,701.8569],[24.263440436476515,17.743420051061207,691.6442],[23.671153191021205,18.111944891400327,677.1943],[22.69227135508379,17.860602117962856,595.8312],[22.12342369883379,17.887091375775327,499.0844],[20.985728386333733,18.045843817181549,476.5618],[21.025401237896233,17.278509832806549,468.7521],[21.66041100352129,16.617071844525327,529.8588],[22.50709069102129,16.087897039837856,788.5368],[23.022959831646233,15.836554266400299,791.4207],[23.750620964458733,16.193732000775327,755.9047],[24.00196373789629,17.053656317181577,711.8542],[24.261107266071207,17.727525159482269,701.8569]]]}}