{"type": "Feature","bbox": [15.681040886333761,19.492315985150327,19.861460808208761,24.087225653119106],"geometry": {"type": "Polygon","coordinates": [[[16.167539493112656,20.098959951418522,702.3473],[16.386607292583705,20.153753973431549,789.5898],[16.68641198008379,20.356573797650384,910.5986],[17.065684441021261,20.374212957806606,1198.9935],[17.40967858164629,19.845038153119049,964.193],[17.824229362896261,19.659857489056577,725.2662],[18.37977135508379,19.492315985150327,680.679],[18.88245690195879,19.518744207806606,652.2661],[19.10303795664629,19.695135809369049,611.7515],[19.314707878521261,19.871527410931606,588.0027],[19.420542839458733,20.233099676556549,759.0824],[19.37635338633379,20.841681219525356,741.3448],[19.499888542583733,21.4679019226503,759.9447],[19.579234245708733,21.847113348431577,782.0942],[19.614512566021233,22.535040594525356,704.3627],[19.76441490977129,22.949530340619049,713.155],[19.852549675396233,23.478705145306606,657.9254],[19.861460808208761,23.831488348431549,668.808],[19.779993606457111,23.972134555229417,627.364],[19.2243921510819,24.077660541263725,603.5903],[19.03235924570879,24.087225653119106,518.2772],[18.83838951914629,23.963812567181577,458.649],[18.609141472271205,23.804999090619077,483.1703],[18.406260612896261,23.540472723431577,513.7506],[18.309214714458705,23.214117742962827,544.7554],[18.362193230083761,22.923041082806577,585.8297],[18.326914909771261,22.720221258587827,694.6433],[17.947642448833761,22.658514715619077,647.0875],[17.559580925396261,22.614386297650356,630.6356],[17.37440026133379,22.314520574994077,750.4849],[17.162730339458733,22.023504949994134,1007.714],[16.765879753521205,21.944098211712827,864.0928],[16.483653191021261,22.067572332806549,752.6701],[16.210215691021261,22.005865789837884,961.2701],[15.795664909771261,22.314520574994077,930.2083],[15.681040886333761,22.226324774212856,992.0811],[15.822154167583733,21.706000067181606,819.2045],[15.945567253521261,21.194464422650356,693.0631],[16.121958855083705,20.894598699994077,840.8563],[16.22779381602129,20.7093570007753,804.737],[16.104380730083761,20.550604559369077,730.5495],[16.192637566021233,20.356573797650384,679.5688],[16.148190769817347,20.134595846562718,715.6663],[16.167539493112656,20.098959951418522,702.3473]]]}
,"properties": {"featurecla": "Range/mtn","name": "TIBESTI MTS.","namealt": null,"region": "Africa","subregion": null,"min_label": 3.7,"max_label": 8.0,"scalerank": 3,"area_km2": 123519.06,"hist_schema_id": "Elevation0-9000","hist_area_km2": {"450": 176.21,"475": 262.66,"500": 730.8,"525": 725.55,"550": 723.41,"575": 898.36,"600": 1087.0,"625": 1617.22,"650": 2233.6,"675": 2935.36,"700": 3456.99,"725": 3615.31,"750": 4009.68,"775": 4401.09,"800": 4575.57,"825": 4517.21,"850": 4406.37,"875": 3985.07,"900": 3897.05,"925": 3724.0,"950": 3558.76,"975": 3392.21,"1000": 3159.17,"1025": 2982.88,"1050": 2877.22,"1075": 2858.02,"1100": 2771.97,"1125": 2579.81,"1150": 2386.39,"1175": 2168.75,"1200": 1991.48,"1225": 1884.03,"1250": 1728.83,"1275": 1614.77,"1300": 1531.33,"1325": 1450.54,"1350": 1407.82,"1375": 1368.43,"1400": 1316.13,"1425": 1281.21,"1450": 1264.7,"1475": 1170.71,"1500": 1056.37,"1525": 998.89,"1550": 969.31,"1575": 942.64,"1600": 996.24,"1625": 1024.53,"1650": 1047.77,"1675": 1013.7,"1700": 928.99,"1725": 891.35,"1750": 897.41,"1775": 835.26,"1800": 759.58,"1825": 704.31,"1850": 716.99,"1875": 734.6,"1900": 657.14,"1925": 578.66,"1950": 551.39,"1975": 528.97,"2000": 510.83,"2025": 490.96,"2050": 432.82,"2075": 398.54,"2100": 365.65,"2125": 344.4,"2150": 328.3,"2175": 310.33,"2200": 329.02,"2225": 363.76,"2250": 359.84,"2275": 350.32,"2300": 303.43,"2325": 274.1,"2350": 260.1,"2375": 240.01,"2400": 229.82,"2425": 229.68,"2450": 226.79,"2475": 178.15,"2500": 143.87,"2525": 127.11,"2550": 119.85,"2575": 99.15,"2600": 87.79,"2625": 86.28,"2650": 84.85,"2675": 81.38,"2700": 65.83,"2725": 59.24,"2750": 53.8,"2775": 44.46,"2800": 38.53,"2825": 31.48,"2850": 27.73,"2875": 27.36,"2900": 23.04,"2925": 20.5,"2950": 34.93,"2975": 31.77,"3000": 23.7,"3025": 20.77,"3050": 18.56,"3075": 15.51,"3100": 13.38,"3125": 11.2,"3150": 9.23,"3175": 7.48,"3200": 6.88,"3225": 5.64,"3250": 4.97,"3275": 3.45,"3300": 1.79,"3325": 1.28}}}