{"type":"Feature","properties":{"featurecla":"Desert","name":"Ténéré","namealt":null,"region":"Africa","subregion":null,"min_label":5.3,"max_label":9.0,"scalerank":4},
"geometry":{"type": "MultiPolygon","coordinates": [[[[16.33032978345895,19.495404790780015,570.7813],[16.32459557383379,19.809698797650327,640.812],[16.167539493112656,20.098959951418522,702.3473],[16.148190769817347,20.134595846562718,715.6663],[15.98939049570879,20.427069403119049,640.8637],[15.248545769146261,21.238470770306577,534.8883],[13.83741295664629,21.379584051556634,518.651],[12.14417565195879,22.032171942181606,753.6248],[11.054942253521261,22.420233465619134,589.0955],[10.750179904056068,22.890885201872692,878.1627],[10.706553581646233,22.958258367962827,845.177],[10.44978196221399,23.399819187770419,829.384],[10.318492058208733,23.760809637494134,920.7385],[10.170878022034344,23.825961760952168,919.9288],[9.60080749571739,24.3289992962184,1232.691],[9.33521569102129,24.563360907025327,1119.748],[8.86577779124707,24.880217953101322,1172.447],[8.8060408863337045,24.920538641400327,1263.6472],[8.7713312731904978,24.907191000954526,1348.1952],[8.2900496753962614,24.722113348431634,1065.9248],[8.4797443192252331,24.386546350742634,957.1714],[8.6340438160212614,24.113592840619049,931.8457],[8.6343525257800025,24.112400968443779,931.8457],[8.72657311289629,23.7563540710878,889.9136],[8.7618845774590568,23.468329682718519,992.1866],[8.8002928896791559,23.15504529272016,872.6907],[8.8060408863337045,23.108160711712827,875.6315],[8.8428865690189866,22.979144136648756,844.206],[8.8853865894587045,22.8303286804628,780.8615],[9.2293807300837329,22.208563543744077,696.3054],[9.40307001902869,21.492120268554743,647.2297],[9.4410506519587614,21.3354556335878,674.3549],[8.8588973316462329,20.422613836712827,813.4491],[8.8567941762223654,20.364577457527531,823.3452],[9.1853133472712045,20.387396551556549,724.3884],[9.9790145191462614,20.122809149212856,534.7745],[11.354869011333761,18.403021551556577,408.5329],[11.87073815195879,17.6489321960878,413.7431],[13.144862649487493,17.231194357879758,453.6516],[13.48475182383379,17.119757391400327,454.8427],[15.745167083430516,16.879838064656241,237.9051],[15.760142448833733,16.969794012494134,243.2783],[16.148203972271233,17.957586981244106,360.9918],[16.342295769146261,18.839544989056606,491.9809],[16.33032978345895,19.495404790780015,570.7813]]],
[[[9.83790123789629,18.507094711558352,543.1585],[9.8510848316462329,18.548590399212856,535.8925],[9.83790123789629,18.574970626864797,535.005],[9.83790123789629,18.507094711558352,543.1585]]]]}}