{"type": "Feature","id": "5577","bbox": [15.46852,15.38387,20.89333,21.99685],"geometry": {"type": "Polygon","coordinates": [[[19.18584,21.86418,1297.4524],[19.16413,21.87489,1353.2936],[19.04073,21.93587,1588.4319],[18.91712,21.99685,1682.1099],[18.71913,21.84981,1173.6577],[18.74385,21.60267,1688.1764],[18.76856,21.35553,1529.7363],[18.74385,21.1331,1465.4517],[18.52142,21.05895,2086.5779],[18.1507,20.93538,1605.0909],[17.95299,20.83652,1966.7681],[17.82941,20.71295,2427.8],[17.70584,20.68824,1275.426],[17.40927,20.68824,2288.5891],[17.35984,20.41638,1267.1083],[16.81791,19.46219,558.6266],[16.27139,18.49992,408.329],[15.49025,17.12454,281.5412],[15.48622,17.07891,279.4088],[15.48229,17.03328,280.1598],[15.47826,16.9877,272.7183],[15.47412,16.94207,271.4389],[15.47195,16.91675,275.013],[15.46852,16.90491,275.3001],[15.48529,16.89809,279.2581],[16.67139,16.34187,232.9447],[17.84282,15.79252,274.1056],[17.85527,15.78457,275.7452],[17.86349,15.7764,276.2386],[17.90912,15.70798,279.3833],[17.99289,15.61641,279.9272],[18.08492,15.53166,259.7354],[18.20905,15.45725,270.1096],[18.27065,15.43146,278.3012],[18.47999,15.38387,292.7788],[18.56283,15.38449,316.9016],[18.59218,15.39048,323.2583],[18.79124,15.45053,335.749],[18.89242,15.49508,342.6201],[18.93541,15.522,345.081],[19.04698,15.61465,348.2677],[19.10067,15.67491,349.4716],[19.13044,15.73072,347.8148],[19.20744,15.94006,347.4218],[19.20961,15.95231,352.1235],[19.21922,16.07287,334.4527],[19.21503,16.17328,344.2002],[19.21643,16.1787,342.6286],[19.22077,16.1818,345.0507],[19.22775,16.18196,345.2968],[19.23782,16.17922,344.9366],[19.25348,16.16496,346.7083],[19.26004,16.16113,346.5865],[19.27059,16.16051,345.3645],[19.2895,16.16428,346.2967],[19.2957,16.16449,347.4662],[19.30826,16.16284,348.4155],[19.34242,16.15281,351.4106],[19.34939,16.1494,350.5682],[19.35714,16.14423,355.7571],[19.36939,16.13349,352.4492],[19.37549,16.12677,352.6475],[19.37937,16.12052,352.2289],[19.38448,16.09897,353.5605],[19.3975,16.00585,357.8715],[19.39921,16.00021,356.9049],[19.40153,15.9951,357.3444],[19.40975,15.98259,358.0467],[19.42345,15.96807,358.5717],[19.55501,15.88637,364.9786],[19.5716,15.87996,365.758],[19.6503,15.86694,370.261],[19.77242,15.83056,376.4435],[19.81117,15.81278,378.6732],[19.86378,15.79867,381.0406],[20.00005,15.78384,387.9533],[20.08025,15.7734,391.8813],[20.11286,15.764099999999999,394.19],[20.13301,15.75341,395.4734],[20.18283,15.71775,398.6844],[20.27781,15.67367,404.32619999999997],[20.29176,15.66902,405.2517],[20.29828,15.66881,405.3059],[20.30432,15.66953,405.6262],[20.35305,15.68266,408.7957],[20.39264,15.69992,411.6383],[20.48354,15.7116,421.5039],[20.63702,15.84372,438.6813],[20.54799,16.06665,440.2623],[20.30085,16.75865,408.9513],[20.39971,17.1788,395.9214],[20.42442,17.62366,404.5778],[20.42442,17.96966,420.5918],[20.15256,18.68637,409.7276],[20.00428,19.27952,447.1483],[20.89333,21.02094,578.8118],[20.76993,21.08197,583.0981],[20.64642,21.1429,595.5411],[20.52281,21.20393,623.8134],[20.39941,21.26501,623.4236],[20.2758,21.32593,648.0359],[20.15229,21.38691,650.0884],[20.02878,21.44794,661.7322],[19.90528,21.50887,710.4464],[19.78167,21.5699,691.4296],[19.65826,21.63088,804.0867],[19.53465,21.69186,771.2671],[19.41115,21.75289,875.2362],[19.28764,21.81392,1009.6346],[19.18584,21.86418,1297.4524]]]}
,"properties": {"ISO3166-1-Alpha-3": "TCD","country": "Chad","fill": "#00F","name": "Borkou","area_km2": 249315.18,"hist_schema_id": "Elevation0-9000","hist_area_km2": {"175": 9608.44,"200": 12038.28,"225": 16040.83,"250": 14369.84,"275": 15253.97,"300": 6650.89,"325": 12859.76,"350": 22042.72,"375": 18274.21,"400": 15232.73,"425": 9710.78,"450": 7266.03,"475": 4593.84,"500": 3993.97,"525": 4383.31,"550": 6143.75,"575": 5930.21,"600": 5903.22,"625": 5509.11,"650": 5021.63,"675": 3766.18,"700": 2982.03,"725": 2605.93,"750": 2072.79,"775": 1745.26,"800": 1658.97,"825": 1691.62,"850": 1657.65,"875": 1532.65,"900": 1443.66,"925": 1386.54,"950": 1290.44,"975": 1213.4,"1000": 1133.96,"1025": 1018.05,"1050": 953.28,"1075": 917.78,"1100": 896.2,"1125": 847.15,"1150": 756.74,"1175": 655.37,"1200": 618.51,"1225": 609.46,"1250": 604.97,"1275": 607.79,"1300": 593.92,"1325": 562.26,"1350": 544.14,"1375": 527.34,"1400": 483.49,"1425": 427.44,"1450": 415.18,"1475": 390.75,"1500": 369.67,"1525": 370.81,"1550": 387.61,"1575": 390.8,"1600": 402.48,"1625": 425.08,"1650": 454.25,"1675": 421.62,"1700": 397.18,"1725": 379.59,"1750": 383.42,"1775": 351.23,"1800": 315.84,"1825": 305.76,"1850": 326.62,"1875": 353.49,"1900": 296.28,"1925": 242.81,"1950": 227.16,"1975": 226.65,"2000": 219.31,"2025": 174.77,"2050": 144.86,"2075": 129.62,"2100": 121.13,"2125": 103.28,"2150": 92.06,"2175": 88.07,"2200": 84.92,"2225": 80.05,"2250": 92.08,"2275": 98.78,"2300": 89.94,"2325": 83.76,"2350": 77.06,"2375": 70.42,"2400": 65.81,"2425": 59.94,"2450": 58.21,"2475": 53.26,"2500": 49.74,"2525": 47.89,"2550": 47.42,"2575": 47.83,"2600": 46.19,"2625": 44.62,"2650": 44.38,"2675": 45.94,"2700": 41.99,"2725": 40.26,"2750": 36.64,"2775": 30.86,"2800": 27.85,"2825": 23.93,"2850": 21.21,"2875": 21.81,"2900": 19.1,"2925": 18.07,"2950": 32.71,"2975": 30.66,"3000": 22.81,"3025": 19.96,"3050": 17.91,"3075": 15.06,"3100": 13.0,"3125": 10.75,"3150": 9.03,"3175": 7.32,"3200": 6.76,"3225": 5.54,"3250": 4.93,"3275": 3.39}}}