{"type":"Feature","properties":{"GID_3":"TCD.8.1.5_1","GID_0":"TCD","country":"Chad","GID_1":"TCD.8_1","province":"Hadjer-Lamis","NL_NAME_1":"NA","GID_2":"TCD.8.1_1","county":"Dababa","NL_NAME_2":"NA","city":"Moito","VARNAME_3":"NA","NL_NAME_3":"NA","TYPE_3":"Sub-prefecture","ENGTYPE_3":"Sub-prefecture","CC_3":"NA","HASC_3":"NA","name":"Moito.city"},
"geometry":{"type": "MultiPolygon","coordinates": [[[[16.108,13.036,289.4623],[16.106,12.959,289.2939],[16.143,12.915,289.037],[16.175,12.848,289.433],[16.146,12.771,288.785],[16.144,12.719,289.1208],[16.164,12.672,287.9655],[16.195,12.619,290.2295],[16.159,12.537,290.6696],[16.09,12.432,292.7798],[16.302,12.354,293.8242],[16.45,12.305,295.1011],[16.522,12.379,295.5106],[16.571,12.399,295.182],[16.594,12.444,293.6598],[16.621,12.492,292.4622],[16.653,12.524,291.2542],[16.709,12.549,291.9256],[16.771,12.563,291.8873],[16.823,12.526,293.1393],[16.86,12.491,295.5099],[16.877,12.472,297.249],[16.894,12.429,298.4892],[16.977,12.44,297.5242],[17.016,12.453,296.2152],[17.089,12.49,296.0986],[17.151,12.517,296.0894],[17.201,12.557,297.3481],[17.15,12.609,295.0515],[17.113,12.735,290.3555],[17.092,12.783,289.5598],[17.054,12.816,289.5462],[17.016,12.832,289.6426],[16.974,12.857,288.722],[16.958,12.88,288.6144],[16.997,12.937,288.4872],[17.077,13.007,287.8844],[17.13,13.046,287.5225],[17.161,13.099,288.7693],[17.101,13.133,288.6976],[17.063,13.137,289.6341],[17.024,13.157,289.636],[16.997,13.137,288.3198],[16.9,13.109,289.1455],[16.846,13.136,288.6379],[16.787,13.111,288.475],[16.762,13.09,288.1464],[16.547,13.07,286.9514],[16.493,13.055,287.8038],[16.468,13.034,286.8527],[16.425,13.044,288.1811],[16.361,13.051,290.7913],[16.261,13.036,288.6932],[16.215,13.04,290.783],[16.179,13.023,289.3748],[16.108,13.036,289.4623]]]]}}