{"type":"Feature","properties":{"GID_2":"TCD.4.3_1","GID_0":"TCD","country":"Chad","GID_1":"TCD.4_1","province":"Chari-Baguirmi","NL_NAME_1":"NA","county":"N'Djamena","VARNAME_2":"Ndjamena","NL_NAME_2":"NA","TYPE_2":"Department","ENGTYPE_2":"Department","CC_2":"NA","HASC_2":"TD.NJ.NU","name":"N'Djamena.county"},
"geometry":{"type": "MultiPolygon","coordinates": [[[[15.0789,11.4447,301.2064],[15.0742,11.4426,301.469],[15.0781,11.4346,301.7665],[15.077,11.4325,301.5681],[15.0716,11.4319,298.0],[15.0715,11.4242,301.5256],[15.069,11.4175,301.6573],[15.062,11.4131,301.6904],[15.0612,11.4076,299.937],[15.063,11.4006,302.2825],[15.0584,11.3953,298.5],[15.0667,11.381,302.3128],[15.0707,11.3651,302.4924],[15.0553,11.3521,302.6312],[15.0506,11.343,302.4642],[15.0642,11.335,300.1125],[15.0759,11.3225,302.9434],[15.074,11.3167,303.286],[15.064,11.3077,303.4214],[15.0624,11.3009,303.4715],[15.0581,11.2966,303.3958],[15.055,11.2831,303.6585],[15.0501,11.2797,303.4686],[15.0522,11.2749,303.5569],[15.0589,11.27,303.4832],[15.0623,11.2653,301.1073],[15.0633,11.2564,302.933],[15.0672,11.2488,302.3254],[15.067,11.238,304.373],[15.0599,11.2306,304.3005],[15.0702,11.1981,303.4929],[15.0778,11.1824,304.2945],[15.0863,11.1717,305.4335],[15.095,11.1686,303.8526],[15.0969,11.166,305.3013],[15.0969,11.1577,304.4445],[15.1007,11.1494,305.6551],[15.0987,11.1308,305.7509],[15.231,11.209,304.2083],[15.3971,11.2121,298.0],[15.3901,11.2291,298.0282],[15.4231,11.2821,297.0],[15.4121,11.3081,300.9598],[15.3971,11.3551,296.5],[15.3831,11.3741,301.599],[15.3691,11.3991,296.7455],[15.3821,11.4871,304.4045],[15.4291,11.6021,302.4788],[15.4081,11.6691,300.255],[15.3761,11.731,299.3842],[15.421,11.727,299.0824],[15.449,11.759,299.3731],[15.465,11.814,298.5034],[15.443,11.872,296.077],[15.4,11.938,296.3771],[15.403,12.006,296.1461],[15.418,12.064,294.059],[15.429,12.119,294.8395],[15.458,12.176,294.0763],[15.506,12.222,294.2401],[15.435,12.29,294.9079],[15.404,12.322,290.8799],[15.373,12.363,292.2918],[15.335,12.319,293.0239],[15.269,12.279,292.2951],[15.191,12.253,290.8426],[15.096,12.232,292.7736],[15.049,12.225,292.8783],[15.056,12.192,292.3517],[15.09,12.152,294.4509],[15.131,12.098,296.4846],[15.16,12.069,290.8649],[15.147,12.044,294.615],[15.138,12.011,294.7869],[15.137,11.983,296.101],[15.1038,11.9887,294.4821],[15.0885,11.9894,294.4312],[15.0864,11.981,294.3359],[15.0754,11.9716,294.4277],[15.0623,11.9773,294.4457],[15.0554,11.9745,295.201],[15.0498,11.9644,295.9635],[15.0488,11.958,293.5935],[15.0574,11.948,292.7471],[15.0646,11.9357,295.5031],[15.0641,11.9284,296.1616],[15.0583,11.9165,295.9205],[15.0453,11.9122,294.5612],[15.0399,11.9051,293.2766],[15.0435,11.8861,293.2939],[15.0493,11.8746,292.1671],[15.0504,11.8693,295.7245],[15.0481,11.861,292.0],[15.0523,11.8502,296.8216],[15.0589,11.8432,297.1951],[15.066,11.8393,295.953],[15.0786,11.8516,297.2651],[15.08,11.8563,295.5598],[15.0816,11.857,296.1305],[15.0867,11.85,297.2117],[15.0955,11.846,293.558],[15.0977,11.8422,296.7466],[15.097,11.8383,293.9456],[15.099,11.8344,296.9386],[15.0979,11.8253,292.5],[15.0994,11.8104,296.2553],[15.1065,11.8045,294.5246],[15.1132,11.7955,297.089],[15.1214,11.7926,293.5441],[15.1247,11.7864,296.5456],[15.1214,11.7798,296.56],[15.1096,11.7731,297.0166],[15.0957,11.7716,296.224],[15.086,11.7658,297.1436],[15.0817,11.7599,295.3737],[15.0854,11.7523,296.7463],[15.0981,11.744,297.6946],[15.1065,11.7243,297.5422],[15.1005,11.7246,297.856],[15.0864,11.7297,297.5717],[15.0785,11.7302,298.0045],[15.0663,11.7143,297.5755],[15.0645,11.7095,295.0093],[15.0664,11.7039,297.6574],[15.072,11.6978,297.8677],[15.0754,11.6888,297.7662],[15.08,11.6865,297.9441],[15.0823,11.6823,298.531],[15.0785,11.6744,298.0125],[15.077,11.6638,298.2315],[15.0851,11.6585,298.5017],[15.0885,11.6488,298.9854],[15.0816,11.6447,298.5703],[15.0798,11.6398,298.03],[15.0889,11.6307,298.6571],[15.0876,11.6198,299.1854],[15.0888,11.6177,298.9167],[15.1002,11.6108,297.4243],[15.1029,11.6066,299.3225],[15.1028,11.5804,300.0809],[15.1068,11.5771,301.0782],[15.1323,11.5684,300.1327],[15.1422,11.5616,297.5932],[15.1465,11.5571,299.5684],[15.1468,11.5543,297.9231],[15.1431,11.5479,298.1144],[15.1432,11.5392,299.5599],[15.1408,11.5273,299.9433],[15.1327,11.5173,297.6191],[15.1349,11.5096,300.0701],[15.1334,11.5064,300.571],[15.1095,11.4964,300.8335],[15.1088,11.4848,302.5213],[15.1054,11.4835,302.8317],[15.1009,11.4848,300.7001],[15.0979,11.4817,300.5915],[15.1017,11.4727,300.9245],[15.0919,11.4652,300.8831],[15.0861,11.4519,301.14],[15.0789,11.4447,301.2064]]]]}}