{"type": "Feature","bbox": [21.216,11.933,21.629,12.316],"geometry": {"type": "MultiPolygon","coordinates": [[[[21.216,11.942,524.3896],[21.265,11.933,522.1638],[21.344,11.943,497.7082],[21.386,11.963,495.7497],[21.445,11.997,499.0943],[21.493,12.018,504.6445],[21.576,12.028,508.9746],[21.628,12.069,513.1268],[21.629,12.071,513.3553],[21.614,12.101,513.7999],[21.609,12.161,537.6964],[21.611,12.207,535.6601],[21.607,12.248,537.4545],[21.595,12.277,537.5443],[21.569,12.3,553.371],[21.54,12.316,556.0026],[21.522,12.308,560.3281],[21.477,12.305,589.3993],[21.402,12.289,627.5234],[21.331,12.253,600.9778],[21.237,12.194,541.0773],[21.259,12.124,571.3291],[21.273,12.091,582.8481],[21.244,12.022,505.9414],[21.216,11.942,524.3896]]]]}
,"properties": {"GID_3": "TCD.19.2.3_1","GID_0": "TCD","country": "Chad","GID_1": "TCD.19_1","province": "Sila","NL_NAME_1": "NA","GID_2": "TCD.19.2_1","county": "Sila","NL_NAME_2": "NA","city": "Goz-Beida","VARNAME_3": "NA","NL_NAME_3": "NA","TYPE_3": "Sub-prefecture","ENGTYPE_3": "Sub-prefecture","CC_3": "NA","HASC_3": "NA","name": "Goz-Beida.city","area_km2": 1286.0665,"hist_schema_id": "Elevation0-9000","hist_area_km2": {"500": 346.3637,"525": 427.9894,"550": 195.3002,"575": 134.5892,"600": 81.9157,"625": 34.3603,"650": 21.3662,"675": 15.3975,"700": 11.8329,"725": 7.854,"750": 5.0564,"775": 2.2588,"800": 1.4093,"825": 0.3109,"850": 0.0622}}}