{"type":"Feature","properties":{"GID_1":"TCD.10_1","GID_0":"TCD","country":"Chad","province":"Lac","VARNAME_1":"NA","NL_NAME_1":"NA","TYPE_1":"Région","ENGTYPE_1":"Region","CC_1":"NA","HASC_1":"TD.LC","ISO_1":"TD-LC","name":"Lac.province"},
"geometry":{"type": "MultiPolygon","coordinates": [[[[15.428,13.317,298.4993],[15.576,13.247,293.9448],[15.553,13.362,297.5637],[15.501,13.457,291.3837],[15.393,13.742,300.9968],[15.196,13.718,311.3332],[15.016,13.674,302.6261],[14.96,13.665,298.8449],[14.851,13.672,290.6373],[14.793,13.635,293.3503],[14.66,13.876,307.6376],[14.554,13.996,301.0393],[14.489,14.093,308.0615],[14.355,14.125,296.6594],[14.325,14.183,301.9528],[14.25,14.2,295.2995],[14.216,14.267,301.0387],[14.159,14.285,297.3889],[14.144,14.354,302.0349],[14.077,14.416,303.9973],[14.027,14.42,300.4708],[13.999,14.466,304.0053],[13.806,14.467,294.7903],[13.776,14.506,296.7492],[13.6442,14.5158,291.3395],[13.6332,14.5105,288.9311],[13.6009,14.5023,289.8951],[13.5721,14.5057,290.2184],[13.4997,14.4778,289.9142],[13.4934,14.4746,286.475],[13.4788,14.4601,287.3344],[13.4751,14.452,288.1178],[13.4735,14.4428,282.0005],[13.4796,14.3796,280.3333],[13.4938,14.3215,279.002],[13.4993,14.3048,276.9869],[13.501,14.2926,276.1372],[13.5571,14.0484,271.1863],[13.5636,14.0142,271.3085],[13.5907,13.9021,279.5869],[13.5945,13.8795,270.7467],[13.6208,13.7713,272.1752],[13.623,13.7559,272.8066],[13.6378,13.7015,281.795],[13.6621,13.6693,273.9669],[13.6621,13.6666,274.0618],[13.6832,13.6414,281.9061],[13.6931,13.6264,274.2463],[13.708,13.6085,282.131],[13.7122,13.6056,283.3719],[13.7155,13.5961,274.5197],[13.7519,13.545,281.7465],[13.7555,13.5378,281.5283],[13.7611,13.5332,275.4751],[13.7626,13.5284,275.5846],[13.7744,13.5117,276.0293],[13.781,13.5059,276.2083],[13.7845,13.4965,276.4044],[13.7994,13.4791,276.4564],[13.8034,13.4703,281.447],[13.8497,13.4028,282.3377],[13.8612,13.3863,281.0986],[13.8659,13.3829,280.5919],[13.8702,13.3734,279.9979],[13.8843,13.3567,279.995],[13.8893,13.3461,278.8482],[13.9669,13.2391,279.4037],[13.9744,13.229,279.4819],[13.977,13.2276,279.567],[13.9798,13.2214,279.9963],[14.025,13.1599,280.1695],[14.0484,13.1238,280.1762],[14.0519,13.1217,280.2957],[14.0677,13.0974,280.1177],[14.0855,13.0774,280.4203],[14.4598,13.0738,280.0],[14.5168,12.9949,281.386],[14.835,12.993,280.7745],[15.019,12.996,280.7685],[15.042,13.111,279.6314],[15.042,13.171,283.8838],[15.001,13.227,284.9877],[15.009,13.244,286.179],[15.027,13.252,279.2312],[15.101,13.219,278.8374],[15.145,13.223,285.5361],[15.19,13.199,281.835],[15.208,13.156,281.6046],[15.244,13.116,281.8274],[15.26,13.095,286.427],[15.275,13.103,283.5964],[15.29,13.14,290.7212],[15.31,13.149,281.5468],[15.332,13.136,285.0241],[15.399,13.189,295.1014],[15.378,13.215,290.5552],[15.313,13.239,278.5508],[15.258,13.299,292.5529],[15.231,13.372,290.2999],[15.38,13.393,287.6427],[15.428,13.317,298.4993]]]]}}