{"type": "Feature","id": "1466","bbox": [13.44918,12.99983,15.56014,14.51827],"geometry": {"type": "Polygon","coordinates": [[[13.61532,14.51653,289.9743],[13.60805,14.51827,287.6175],[13.58437,14.51382,292.8838],[13.54386,14.51056,290.8275],[13.50778,14.49596,290.9569],[13.48226,14.48359,282.8697],[13.44949,14.43904,283.8113],[13.44918,14.38013,281.6176],[13.4683,14.31068,280.8384],[13.48226,14.25978,280.0693],[13.4927,14.21386,276.6075],[13.49972,14.18198,274.1368],[13.50696,14.15012,278.0292],[13.51419,14.11823,281.5713],[13.52132,14.08643,270.397],[13.52846,14.05452,270.4868],[13.53569,14.02274,269.8797],[13.54282,13.99085,270.0],[13.54995,13.95899,274.9644],[13.55719,13.92716,271.6107],[13.56432,13.89523,270.3593],[13.57145,13.86342,274.8956],[13.57858,13.83153,268.4543],[13.58582,13.79973,271.2418],[13.59295,13.76784,276.1272],[13.60018,13.73598,272.9934],[13.60731,13.7041,273.8868],[13.83611,13.39104,281.3304],[14.06491,13.07799,280.3304],[14.41817,13.08114,280.0],[14.43543,13.07029,280.186],[14.48104,13.00051,281.8398],[14.5009,13.00148,280.0],[14.99839,12.99983,280.5532],[15.00723,13.00096,281.3407],[15.01405,13.00334,279.8389],[15.01746,13.0098,282.5112],[15.02382,13.03342,281.355],[15.03777,13.06907,280.2827],[15.04304,13.09186,282.8115],[15.0432,13.09796,279.7439],[15.04227,13.10364,279.575],[15.02413,13.16049,284.3423],[15.0218,13.16509,284.4542],[15.0187,13.16922,281.1315],[15.01514,13.17279,283.9318],[15.00723,13.17899,283.2774],[15.00413,13.18297,279.5699],[15.00258,13.18824,283.7267],[15.00165,13.207,283.623],[14.99808,13.22431,283.8035],[14.99415,13.23377,279.0],[14.9895,13.24291,280.4635],[14.98811,13.24787,284.1946],[14.98857,13.25325,280.9433],[14.99121,13.25749,279.7574],[14.99664,13.25966,285.5049],[15.00428,13.26007,279.1592],[15.02459,13.25387,289.5338],[15.04041,13.24632,283.511],[15.06154,13.23878,279.2964],[15.07363,13.2364,291.3849],[15.07906,13.23475,284.6031],[15.08402,13.23253,280.4529],[15.08821,13.22979,290.0909],[15.09534,13.22658,284.5851],[15.10516,13.22348,281.4751],[15.13539,13.218,283.2723],[15.16954,13.20607,281.8466],[15.17404,13.20374,282.1455],[15.17776,13.20105,282.4219],[15.1804,13.19723,282.929],[15.18226,13.19268,280.9691],[15.1821,13.18168,283.0055],[15.18257,13.17708,289.5634],[15.18551,13.17377,289.8209],[15.1897,13.17119,287.4578],[15.21419,13.15992,291.392],[15.21812,13.15672,291.4085],[15.2237,13.14855,284.7962],[15.22742,13.14519,290.1848],[15.23161,13.14235,290.2203],[15.23548,13.13925,291.5417],[15.23858,13.13537,291.7913],[15.24587,13.11538,282.2484],[15.24866,13.11114,280.9284],[15.25161,13.10721,282.0536],[15.25533,13.1039,282.8126],[15.25951,13.10122,286.9535],[15.26463,13.10049,283.6937],[15.2699,13.10204,282.6265],[15.27569,13.10886,287.2057],[15.27848,13.11522,292.1036],[15.28049,13.12168,291.2862],[15.28235,13.13413,281.6196],[15.2839,13.13966,290.878],[15.28654,13.14369,284.0625],[15.29011,13.14607,280.9016],[15.29321,13.14741,281.7303],[15.30127,13.15021,291.1773],[15.30669,13.15072,287.3245],[15.31165,13.14979,289.4285],[15.31894,13.14209,291.4582],[15.32266,13.14132,289.8123],[15.32798,13.14416,293.7478],[15.3793,13.18504,298.9712],[15.38209,13.18886,287.5683],[15.38349,13.19367,289.4373],[15.38318,13.19878,298.0114],[15.37821,13.21418,290.5552],[15.37573,13.21852,289.3056],[15.37201,13.22183,289.1617],[15.36674,13.22369,288.7203],[15.31817,13.23315,293.5829],[15.31336,13.23521,293.7049],[15.30917,13.23795,283.6654],[15.30592,13.24105,281.1181],[15.21946,13.36141,284.1767],[15.2145,13.37241,278.7844],[15.21905,13.37779,284.6748],[15.2299,13.38141,281.156],[15.35682,13.40513,286.7411],[15.36814,13.40497,283.9916],[15.37449,13.40022,283.841],[15.37837,13.39577,281.549],[15.40214,13.3566,294.7458],[15.41423,13.3411,290.6682],[15.43222,13.32404,291.4095],[15.44105,13.31867,287.0449],[15.56014,13.26483,288.4129],[15.37582,13.75199,304.9488],[15.21326,13.75058,314.5529],[14.91581,13.67875,297.89],[14.9076,13.67824,298.0985],[14.85825,13.68754,298.9595],[14.85096,13.68764,298.1897],[14.83964,13.68588,298.5251],[14.81572,13.66831,294.9937],[14.80517,13.66382,295.2936],[14.79572,13.67121,294.5511],[14.64379,13.90892,308.2405],[14.61604,13.94111,310.0115],[14.57645,13.9747,309.0309],[14.56514,13.98721,307.5742],[14.47744,14.10451,307.0019],[14.47016,14.11097,306.1348],[14.46411,14.11511,310.6613],[14.45357,14.11883,306.3],[14.4421,14.12172,304.8251],[14.3761,14.12829,298.7705],[14.36773,14.1302,298.4643],[14.35657,14.13495,297.0942],[14.34696,14.14565,299.6051],[14.31885,14.18647,299.9153],[14.30738,14.19882,299.9263],[14.26174,14.21319,295.1263],[14.24826,14.22404,295.9121],[14.19022,14.28616,298.7331],[14.15627,14.30352,296.4433],[14.1494,14.30848,294.6676],[14.14568,14.31386,298.0858],[14.14103,14.32869,298.9441],[14.13421,14.37147,303.2896],[14.13188,14.37835,303.0121],[14.12708,14.38672,302.5829],[14.12165,14.39018,302.8035],[14.11529,14.39142,303.8343],[14.10909,14.39101,303.4502],[14.10506,14.39354,303.4707],[14.08734,14.41669,304.2845],[14.08021,14.42129,305.3971],[14.07369,14.42403,304.9438],[14.06145,14.42563,303.7376],[14.02636,14.42656,301.7149],[14.01737,14.42806,301.0404],[14.0121,14.43106,300.9391],[14.00807,14.43467,301.1241],[13.99582,14.45235,299.9601],[13.9505,14.46615,299.7217],[13.78493,14.47638,294.6352],[13.7778,14.48072,298.9263],[13.77066,14.48842,294.3935],[13.76074,14.50216,295.3085],[13.74782,14.51291,296.3954],[13.73558,14.5157,296.9255],[13.72162,14.517,296.2494],[13.61532,14.51653,289.9743]]]}
,"properties": {"ISO3166-1-Alpha-3": "TCD","country": "Chad","fill": "#F00","name": "Lac","area_km2": 20412.04,"hist_schema_id": "Elevation0-9000","hist_area_km2": {"275": 13407.79,"300": 6973.42,"325": 30.83}}}