{"type": "Feature","bbox": [15.803,10.574,17.363,11.818],"geometry": {"type": "MultiPolygon","coordinates": [[[[16.508,11.803,314.1837],[16.419,11.818,312.7742],[16.218,11.791,314.649],[16.1,11.747,331.5188],[16.03,11.712,329.5316],[15.95,11.665,318.0952],[15.873,11.593,330.3235],[15.832,11.516,325.7008],[15.803,11.472,325.6321],[15.963,11.378,327.9974],[16.037,11.321,328.9298],[16.105,11.284,329.3875],[16.165,11.31,329.8419],[16.256,11.311,331.6912],[16.349,11.306,329.3981],[16.434,11.242,332.1956],[16.55,11.222,332.0229],[16.64,11.164,333.6918],[16.688,11.12,333.6354],[16.711,11.054,330.3153],[16.856,11.075,334.5632],[16.992,11.101,333.3042],[17.033,11.065,333.6229],[17.1,11.013,331.5404],[17.122,10.977,335.3913],[17.147,10.836,337.9899],[17.134,10.775,337.8233],[17.152,10.721,340.5937],[17.189,10.681,340.6505],[17.214,10.683,339.087],[17.241,10.654,339.6277],[17.254,10.599,338.9249],[17.277,10.587,341.7987],[17.294,10.599,341.9048],[17.327,10.574,340.9664],[17.352,10.671,341.8769],[17.363,10.795,342.2492],[17.36,10.935,337.9415],[17.345,11.029,339.2904],[17.329,11.075,337.7805],[17.289,11.12,336.3422],[17.252,11.153,334.5675],[17.183,11.203,333.6829],[17.106,11.237,331.2062],[17.026,11.232,332.7721],[16.931,11.251,332.3807],[16.841,11.285,332.0439],[16.757,11.341,332.5581],[16.686,11.426,329.8559],[16.624,11.525,328.7426],[16.562,11.637,327.4982],[16.533,11.734,318.4885],[16.508,11.803,314.1837]]]]}
,"properties": {"GID_3": "TCD.4.1.7_1","GID_0": "TCD","country": "Chad","GID_1": "TCD.4_1","province": "Chari-Baguirmi","NL_NAME_1": "NA","GID_2": "TCD.4.1_1","county": "Baguirmi","NL_NAME_2": "NA","city": "Massenya","VARNAME_3": "NA","NL_NAME_3": "NA","TYPE_3": "Sub-prefecture","ENGTYPE_3": "Sub-prefecture","CC_3": "NA","HASC_3": "NA","name": "Massenya.city","area_km2": 6851.126,"hist_schema_id": "Elevation0-9000","hist_area_km2": {"300": 9.058,"325": 6049.96,"350": 792.108}}}