{"type":"Feature","properties":{"GID_3":"TCD.7.2.2_1","GID_0":"TCD","country":"Chad","GID_1":"TCD.7_1","province":"Guéra","NL_NAME_1":"NA","GID_2":"TCD.7.2_1","county":"Bitkine","NL_NAME_2":"NA","city":"Dangaleat","VARNAME_3":"NA","NL_NAME_3":"NA","TYPE_3":"Sub-prefecture","ENGTYPE_3":"Sub-prefecture","CC_3":"NA","HASC_3":"NA","name":"Dangaleat.city"},
"geometry":{"type": "MultiPolygon","coordinates": [[[[18.294,12.057,460.1146],[18.313,12.075,445.749],[18.369,12.106,447.2509],[18.383,12.166,483.5716],[18.308,12.162,404.8759],[18.283,12.185,395.0062],[18.225,12.208,384.335],[18.172,12.204,378.2367],[18.132,12.219,367.1538],[18.099,12.129,393.0641],[18.09,12.09,437.0396],[18.0926,12.0433,655.6677],[18.097,12.016,465.4621],[18.241,12.029,509.0023],[18.294,12.057,460.1146]]]]}}