{"type": "Feature","bbox": [16.6173,9.0629,16.8549,9.2779],"geometry": {"type": "MultiPolygon","coordinates": [[[[16.8549,9.0629,474.0133],[16.8499,9.1028,467.3754],[16.8438,9.1217,440.1663],[16.8416,9.166,377.0081],[16.8337,9.1929,375.8939],[16.8202,9.2117,369.4992],[16.8012,9.2241,371.9147],[16.785,9.2245,371.0806],[16.769,9.2308,368.1435],[16.7623,9.235,365.8934],[16.7554,9.2431,365.4802],[16.7398,9.2563,369.3783],[16.7252,9.2655,371.1302],[16.712,9.2687,371.9521],[16.6978,9.2762,369.2567],[16.6874,9.2739,368.841],[16.6706,9.2779,371.579],[16.6614,9.2765,367.2757],[16.6477,9.2715,367.5114],[16.6373,9.2711,367.4052],[16.6244,9.2296,388.0206],[16.6173,9.2131,396.0573],[16.6325,9.1998,412.3672],[16.6424,9.1872,412.2726],[16.647,9.1853,407.3289],[16.6642,9.1688,420.2141],[16.6716,9.1646,430.629],[16.6795,9.1557,444.5472],[16.7035,9.1395,463.5483],[16.7265,9.1153,459.5044],[16.7503,9.0993,461.5541],[16.7686,9.0797,465.6347],[16.772,9.071,471.314],[16.8549,9.0629,474.0133]]]]}
,"properties": {"GID_3": "TCD.20.2.7_1","GID_0": "TCD","country": "Chad","GID_1": "TCD.20_1","province": "Tandjilé","NL_NAME_1": "NA","GID_2": "TCD.20.2_1","county": "TandjiléEst","NL_NAME_2": "NA","city": "Kariade-Boum","VARNAME_3": "NA","NL_NAME_3": "NA","TYPE_3": "Sub-prefecture","ENGTYPE_3": "Sub-prefecture","CC_3": "NA","HASC_3": "NA","name": "Kariade-Boum.city","area_km2": 351.3878,"hist_schema_id": "Elevation0-9000","hist_area_km2": {"350": 0.0419,"375": 146.9785,"400": 81.1276,"425": 49.7782,"450": 47.5843,"475": 25.8773}}}