{"type": "Feature","bbox": [15.0708,9.2375,15.4008,9.6179],"geometry": {"type": "MultiPolygon","coordinates": [[[[15.4008,9.5447,372.5128],[15.3987,9.5583,371.7522],[15.3903,9.5662,371.2296],[15.3681,9.5767,370.0975],[15.3324,9.5759,365.9073],[15.3147,9.5776,364.4632],[15.302,9.5895,368.2514],[15.269,9.5988,349.287],[15.2545,9.6015,362.6176],[15.2301,9.6021,362.0016],[15.2174,9.6002,365.2514],[15.1976,9.6079,367.8771],[15.1639,9.611,366.8116],[15.1564,9.6136,370.3028],[15.1501,9.6179,366.6922],[15.1404,9.6108,366.0857],[15.1354,9.599,373.3644],[15.1212,9.5918,390.8176],[15.1031,9.5764,397.4771],[15.0912,9.5749,399.9774],[15.0708,9.5604,373.9364],[15.0742,9.5518,371.6434],[15.0808,9.5418,381.2709],[15.0881,9.5212,395.0623],[15.086,9.4969,405.8676],[15.0886,9.4813,416.0354],[15.0921,9.4774,419.972],[15.0919,9.4683,424.0269],[15.0879,9.4532,426.5518],[15.0893,9.4385,424.4163],[15.0999,9.427,439.1922],[15.1039,9.412,444.422],[15.1115,9.4014,440.8025],[15.1199,9.3951,451.1326],[15.1283,9.3765,454.3438],[15.1345,9.3668,475.9366],[15.1378,9.3574,485.7635],[15.1818,9.3246,511.4901],[15.2445,9.2947,498.9261],[15.27,9.2713,471.4812],[15.3376,9.2415,453.8375],[15.3498,9.2375,452.5661],[15.351,9.2528,468.7166],[15.3396,9.2892,477.1421],[15.3309,9.3402,474.7593],[15.3255,9.3559,456.9072],[15.3175,9.4044,421.3166],[15.3209,9.4345,399.9354],[15.3258,9.4544,389.9292],[15.3405,9.4841,377.3144],[15.3482,9.4917,374.0729],[15.3592,9.508,370.537],[15.3768,9.5287,362.1991],[15.387,9.5324,367.5259],[15.3951,9.5382,370.2486],[15.4008,9.5447,372.5128]]]]}
,"properties": {"GID_3": "TCD.14.1.7_1","GID_0": "TCD","country": "Chad","GID_1": "TCD.14_1","province": "Mayo-KebbiEst","NL_NAME_1": "NA","GID_2": "TCD.14.1_1","county": "Kabbia","NL_NAME_2": "NA","city": "Tagal","VARNAME_3": "NA","NL_NAME_3": "NA","TYPE_3": "Sub-prefecture","ENGTYPE_3": "Sub-prefecture","CC_3": "NA","HASC_3": "NA","name": "Tagal.city","area_km2": 881.3799,"hist_schema_id": "Elevation0-9000","hist_area_km2": {"350": 34.0374,"375": 197.3143,"400": 249.2608,"425": 137.77,"450": 78.5938,"475": 106.4493,"500": 77.3895,"525": 0.5649}}}