{"type":"Feature","properties":{"GID_2":"TCD.17.2_1","GID_0":"TCD","country":"Chad","GID_1":"TCD.17_1","province":"Ouaddaï","NL_NAME_1":"NA","county":"DjourfAlAhmar","VARNAME_2":"Am-Dam","NL_NAME_2":"NA","TYPE_2":"Department","ENGTYPE_2":"Department","CC_2":"NA","HASC_2":"TD.OD.DA","name":"Djourf_Al_Ahmar.county"},
"geometry":{"type": "MultiPolygon","coordinates": [[[[21.139,12.649,521.149],[21.224,12.67,531.0534],[21.269,12.672,552.4709],[21.313,12.665,577.0409],[21.358,12.647,591.0487],[21.387,12.678,676.6882],[21.42,12.721,555.5839],[21.44,12.734,568.9501],[21.484,12.778,562.1451],[21.539,12.808,587.5849],[21.598,12.827,604.7829],[21.645,12.845,634.4429],[21.681,12.861,649.6697],[21.657,12.886,634.8359],[21.625,12.979,590.882],[21.63,13.059,608.6333],[21.622,13.094,614.1605],[21.632,13.209,687.6026],[21.57,13.184,648.2061],[21.524,13.162,641.376],[21.446,13.146,579.2441],[21.408,13.145,572.3458],[21.303,13.136,561.7341],[21.152,13.094,525.7267],[21.095,13.081,549.267],[20.964,13.045,547.9667],[20.874,13.041,562.8983],[20.763,13.017,486.0927],[20.763,12.978,485.1526],[20.773,12.932,479.8849],[20.764,12.888,497.45],[20.791,12.886,504.9098],[20.845,12.866,505.2039],[20.915,12.853,510.8358],[20.941,12.8,483.9613],[20.929,12.752,482.4338],[20.932,12.694,471.8859],[21.022,12.658,482.7336],[21.087,12.635,508.6494],[21.111,12.649,509.887],[21.139,12.649,521.149]]]]}}