{"type": "Feature","bbox": [15.962,13.662,18.051,16.242],"geometry": {"type": "MultiPolygon","coordinates": [[[[16.2477,13.8915,289.8954],[16.2493,13.89,287.1352],[16.509,13.883,293.071],[16.679,13.858,277.6924],[16.858,13.844,290.5924],[17.018,13.818,291.6922],[17.196,13.717,296.1293],[17.271,13.662,301.1361],[17.586,13.76,302.0954],[18.051,15.476,254.0689],[17.967,15.558,279.7372],[17.865,15.702,276.4281],[17.842,15.746,278.6995],[16.687,16.242,255.6402],[16.523,15.974,274.382],[16.182,14.834,317.221],[16.143,14.545,312.3877],[16.102,14.47,312.6013],[15.962,14.315,305.4407],[16.012,14.263,299.9327],[16.054,14.198,297.0644],[16.118,14.131,308.5736],[16.194,14.041,293.0848],[16.233,13.967,291.6699],[16.2477,13.8915,289.8954]]]]}
,"properties": {"GID_3": "TCD.1.1.3_1","GID_0": "TCD","country": "Chad","GID_1": "TCD.1_1","province": "BarhelGhazel","NL_NAME_1": "NA","GID_2": "TCD.1.1_1","county": "BarhElGazel","NL_NAME_2": "NA","city": "Salal","VARNAME_3": "NA","NL_NAME_3": "NA","TYPE_3": "Sub-prefecture","ENGTYPE_3": "Sub-prefecture","CC_3": "NA","HASC_3": "NA","name": "Salal.city","area_km2": 41781.39,"hist_schema_id": "Elevation0-9000","hist_area_km2": {"250": 185.57,"275": 22487.04,"300": 18468.42,"325": 640.37}}}