{"type":"Feature","properties":{"GID_3":"TCD.23.2.11_1","GID_0":"TCD","country":"Chad","GID_1":"TCD.23_1","province":"WadiFira","NL_NAME_1":"NA","GID_2":"TCD.23.2_1","county":"DarTama","NL_NAME_2":"NA","city":"Mabraone","VARNAME_3":"NA","NL_NAME_3":"NA","TYPE_3":"Sub-prefecture","ENGTYPE_3":"Sub-prefecture","CC_3":"NA","HASC_3":"NA","name":"Mabraone.city"},
"geometry":{"type": "MultiPolygon","coordinates": [[[[21.502,14.629,659.3231],[21.824,14.624,910.3279],[21.826,14.69,919.862],[21.889,14.704,937.2701],[21.963,14.729,965.4867],[21.923,14.742,948.402],[21.844,14.775,968.512],[21.774,14.797,905.2703],[21.701,14.832,847.0267],[21.653,14.88,775.4323],[21.553,14.81,826.4775],[21.496,14.777,639.6626],[21.469,14.718,658.7634],[21.494,14.672,711.488],[21.502,14.629,659.3231]]]]}}