{"type": "Feature","bbox": [15.421,9.023,16.2248,9.7247],"geometry": {"type": "MultiPolygon","coordinates": [[[[15.432,9.092,445.8777],[15.441,9.061,430.1317],[15.573,9.023,437.222],[15.602,9.033,420.9954],[15.652,9.061,437.2389],[15.713,9.051,389.4253],[15.778,9.051,396.6694],[15.819,9.039,428.053],[15.859,9.053,399.7435],[15.893,9.052,382.0798],[15.929,9.061,398.0057],[15.959,9.113,387.1385],[15.962,9.1477,370.3616],[15.9654,9.1622,371.1071],[15.9644,9.1782,390.0706],[15.9588,9.1913,395.8719],[15.9489,9.2068,389.0992],[15.9379,9.2112,389.3251],[15.9355,9.2203,388.3259],[15.9377,9.2289,382.576],[15.938,9.2446,378.9211],[15.9455,9.2707,370.9465],[15.9459,9.28,368.7678],[15.9563,9.2874,364.6811],[15.9627,9.2981,365.1801],[15.9842,9.3217,369.8806],[15.9936,9.3268,369.0356],[16.0044,9.3279,367.7561],[16.0242,9.3415,366.4898],[16.0792,9.3732,357.399],[16.1174,9.4107,354.7602],[16.1653,9.4724,351.6626],[16.1951,9.4937,351.0895],[16.2071,9.506,351.3689],[16.2248,9.5183,352.2408],[16.2065,9.5364,351.1898],[16.2002,9.5468,351.37],[16.1861,9.5608,350.6876],[16.1473,9.5855,349.9949],[16.1348,9.5856,349.3664],[16.0472,9.6139,347.1993],[16.0339,9.6224,346.6921],[16.0161,9.6473,343.6153],[16.0043,9.6552,345.3101],[15.9794,9.6635,345.5868],[15.9735,9.6683,344.9278],[15.9644,9.6622,344.6534],[15.9328,9.6542,344.3931],[15.9145,9.6558,343.8254],[15.8892,9.6761,343.2586],[15.8809,9.7014,341.6504],[15.8654,9.7113,340.2084],[15.8531,9.713,342.3989],[15.8414,9.7169,342.1716],[15.8217,9.715,341.4856],[15.8027,9.7165,341.1225],[15.7967,9.7192,340.777],[15.7938,9.7247,340.7392],[15.755,9.708,339.6074],[15.727,9.676,338.456],[15.714,9.602,348.4015],[15.682,9.586,350.418],[15.675,9.525,359.0696],[15.665,9.504,360.5041],[15.611,9.459,357.2895],[15.566,9.419,355.2267],[15.484,9.319,395.1607],[15.475,9.289,387.5073],[15.445,9.242,391.9383],[15.421,9.21,386.6461],[15.432,9.179,390.134],[15.432,9.092,445.8777]]]]}
,"properties": {"GID_2": "TCD.20.3_1","GID_0": "TCD","country": "Chad","GID_1": "TCD.20_1","province": "Tandjilé","NL_NAME_1": "NA","county": "TandjiléOuest","VARNAME_2": "Kelo|Kélo","NL_NAME_2": "NA","TYPE_2": "Department","ENGTYPE_2": "Department","CC_2": "NA","HASC_2": "TD.TA.TO","name": "Tandjilé_Ouest.county","area_km2": 3829.463,"hist_schema_id": "Elevation0-9000","hist_area_km2": {"350": 1726.068,"375": 771.606,"400": 563.726,"425": 379.678,"450": 290.535,"475": 93.641,"500": 4.208}}}