{"type": "Feature","bbox": [15.263,8.271,16.594,9.245],"geometry": {"type": "MultiPolygon","coordinates": [[[[15.822,8.364,456.2755],[15.834,8.403,441.9726],[15.862,8.435,438.1562],[15.918,8.462,422.4141],[15.958,8.491,411.5927],[15.99,8.512,404.5541],[15.996,8.536,403.8359],[16.043,8.558,395.0],[16.077,8.569,401.4833],[16.117,8.608,390.5021],[16.203,8.634,391.0815],[16.273,8.66,391.6723],[16.351,8.655,383.8521],[16.369,8.685,381.7602],[16.379,8.696,384.0733],[16.406,8.717,405.4222],[16.45,8.727,413.3294],[16.493,8.746,403.6899],[16.521,8.777,401.6826],[16.558,8.83,413.9657],[16.574,8.874,397.8556],[16.594,8.899,371.2922],[16.587,8.925,370.539],[16.574,8.937,369.7752],[16.567,8.959,369.246],[16.545,8.951,376.6483],[16.538,8.966,373.2346],[16.533,8.989,367.8985],[16.504,8.995,372.7166],[16.486,9.028,368.0943],[16.446,9.087,365.3629],[16.427,9.118,362.8237],[16.414,9.15,362.1847],[16.411,9.181,360.4333],[16.381,9.21,359.8554],[16.364,9.245,359.631],[16.335,9.225,360.7455],[16.289,9.181,363.9789],[16.279,9.175,365.2005],[16.239,9.165,368.3464],[16.214,9.154,374.6972],[16.202,9.122,391.6862],[16.187,9.098,400.7762],[16.157,9.079,399.7266],[16.133,9.083,390.2533],[16.088,9.102,393.6171],[16.044,9.128,382.7423],[15.984,9.129,379.4662],[15.959,9.113,387.1385],[15.929,9.061,398.0057],[15.893,9.052,382.0798],[15.859,9.053,399.7435],[15.819,9.039,428.053],[15.778,9.051,396.6694],[15.713,9.051,389.4253],[15.652,9.061,437.2389],[15.602,9.033,420.9954],[15.573,9.023,437.222],[15.441,9.061,430.1317],[15.387,9.033,457.7555],[15.394,8.988,428.5629],[15.365,8.937,435.7984],[15.357,8.87,437.597],[15.355,8.822,418.9467],[15.357,8.759,469.8202],[15.307,8.716,474.6984],[15.292,8.701,472.5769],[15.277,8.662,513.5436],[15.263,8.611,500.4311],[15.2664,8.542,531.0745],[15.2707,8.5179,531.1376],[15.2691,8.5002,547.1566],[15.2724,8.482,528.7414],[15.2805,8.4657,518.2931],[15.295,8.445,505.8051],[15.323,8.427,480.2214],[15.342,8.403,496.4581],[15.383,8.378,473.123],[15.417,8.37,477.928],[15.446,8.376,457.8954],[15.455,8.352,458.5453],[15.488,8.328,451.8398],[15.49,8.29,460.4266],[15.526,8.304,433.3526],[15.537,8.29,437.9861],[15.529,8.273,434.1033],[15.553,8.271,438.43],[15.581,8.281,466.2848],[15.607,8.286,466.4526],[15.648,8.311,461.4268],[15.685,8.33,450.4518],[15.768,8.337,434.3221],[15.803,8.334,421.8107],[15.822,8.364,456.2755]]]]}
,"properties": {"GID_1": "TCD.11_1","GID_0": "TCD","country": "Chad","province": "LogoneOccidental","VARNAME_1": "Logone-Occidental","NL_NAME_1": "NA","TYPE_1": "Région","ENGTYPE_1": "Region","CC_1": "NA","HASC_1": "TD.LO","ISO_1": "NA","name": "Logone_Occidental.province","area_km2": 8844.04,"hist_schema_id": "Elevation0-9000","hist_area_km2": {"350": 51.885,"375": 584.671,"400": 1572.461,"425": 2103.519,"450": 1944.093,"475": 1316.143,"500": 804.409,"525": 395.135,"550": 71.704}}}