{"type":"Feature","properties":{"ISO3166-1-Alpha-3":"TCD","country":"Chad","fill":"#F0F","id":"1484","name":"Logone Occidental"},
"geometry":{"type": "Polygon","coordinates": [[[16.43536,9.12761,362.9042],[16.43396,9.13608,362.7075],[16.43324,9.15138,362.4028],[16.42053,9.18084,361.2664],[16.37908,9.22507,360.3532],[16.37102,9.23758,359.1266],[16.35743,9.23871,358.8662],[16.34823,9.23365,360.8124],[16.31935,9.20393,361.219],[16.31113,9.19696,361.9594],[16.30431,9.19241,361.8882],[16.29408,9.189,362.8264],[16.27185,9.18414,372.3611],[16.24922,9.1768,373.1325],[16.21212,9.16073,370.8701],[16.20421,9.15593,378.612],[16.19723,9.149,389.9229],[16.1884,9.13701,389.5051],[16.17455,9.11185,389.4807],[16.1623,9.09758,394.9734],[16.15424,9.09175,393.725],[16.14695,9.08854,386.4858],[16.14137,9.08833,383.2326],[16.04236,9.11712,385.3828],[16.03352,9.11789,384.2029],[16.02205,9.11727,377.9666],[16.00143,9.11397,376.8081],[15.97813,9.10611,376.0594],[15.82945,9.02844,422.277],[15.81814,9.02508,428.5515],[15.79333,9.02539,406.7109],[15.7553,9.03221,381.0227],[15.59562,8.99423,426.0184],[15.56973,8.99139,439.0486],[15.54332,8.99113,464.741],[15.5303,8.99232,466.8257],[15.51852,8.99485,452.035],[15.50921,8.99826,446.4359],[15.48901,9.00772,436.6676],[15.48048,9.01299,444.7409],[15.46389,9.02674,431.667],[15.42819,9.01346,459.5516],[15.4178,9.00431,448.6818],[15.37713,8.88328,409.4891],[15.37294,8.86427,419.1672],[15.37108,8.83145,414.9836],[15.37232,8.81951,420.9443],[15.37682,8.80375,431.7792],[15.37806,8.79802,436.044],[15.37852,8.79182,441.4426],[15.3762,8.76959,457.5119],[15.37728,8.75239,458.155],[15.37542,8.74624,463.0],[15.37263,8.74153,466.9496],[15.31693,8.68805,501.9647],[15.30948,8.67885,496.2083],[15.30592,8.67177,502.4409],[15.26494,8.50212,554.917],[15.26401,8.49271,535.775],[15.26478,8.48124,522.4463],[15.26602,8.47566,517.7534],[15.27099,8.46052,514.513],[15.27321,8.44863,510.0782],[15.31259,8.42429,508.9582],[15.34845,8.40884,482.5853],[15.41981,8.36104,464.4899],[15.43144,8.35515,453.5412],[15.45521,8.35556,450.653],[15.47351,8.35189,446.9673],[15.48172,8.34791,449.644],[15.48746,8.34228,442.2115],[15.49242,8.33598,442.621],[15.50131,8.32792,448.2529],[15.51417,8.32177,439.0231],[15.52007,8.31701,438.4428],[15.52162,8.31257,435.2147],[15.51759,8.30358,436.1759],[15.5165,8.29737,441.6228],[15.51712,8.29066,438.6637],[15.51976,8.28363,442.5117],[15.52425,8.27991,445.2525],[15.53014,8.2781,442.3489],[15.5365,8.27774,435.0782],[15.55014,8.27856,434.1893],[15.55805,8.27836,432.3485],[15.56198,8.27608,434.8568],[15.56291,8.26663,427.9935],[15.5657,8.26058,427.1935],[15.57081,8.25815,424.245],[15.57655,8.25764,425.5422],[15.61407,8.26203,433.0598],[15.6183,8.26353,424.8102],[15.62249,8.26554,422.7862],[15.63102,8.27071,421.7949],[15.63567,8.27283,422.4655],[15.64125,8.27407,421.139],[15.6597,8.27484,429.492],[15.66471,8.27639,424.9873],[15.66884,8.27877,423.0181],[15.67975,8.28869,425.0795],[15.69137,8.30487,415.7329],[15.69463,8.30854,415.5306],[15.69866,8.31143,416.3284],[15.71912,8.31805,414.9993],[15.72817,8.3227,414.8566],[15.73685,8.32326,413.0197],[15.79039,8.31412,409.1395],[15.80635,8.3137,412.074],[15.81364,8.31582,411.0817],[15.8186,8.31898,419.3274],[15.85353,8.3599,406.0104],[15.85741,8.36647,404.799],[15.85839,8.37262,404.4463],[15.85787,8.3768,419.1423],[15.86795,8.41354,427.8941],[15.89291,8.43876,405.9628],[15.98014,8.48667,400.2072],[16.00412,8.51101,406.9875],[16.0112,8.51462,398.9144],[16.02164,8.51814,397.5944],[16.09884,8.56072,394.5799],[16.1452,8.59751,390.5657],[16.28746,8.64035,385.2778],[16.36503,8.64857,383.8052],[16.37981,8.65766,383.3921],[16.39236,8.69378,382.1274],[16.40957,8.70655,395.4981],[16.43179,8.71461,397.3794],[16.4537,8.71942,408.6736],[16.4905,8.73244,399.6686],[16.51349,8.75316,399.3443],[16.59711,8.88111,372.2123],[16.59618,8.90266,371.5241],[16.59246,8.91749,370.5959],[16.58414,8.9302,370.0774],[16.56982,8.94535,369.9435],[16.56564,8.94721,368.1795],[16.56031,8.94752,368.6313],[16.55468,8.9485,372.7475],[16.54931,8.95217,372.9131],[16.54708,8.95785,371.5242],[16.54574,8.97299,368.3987],[16.54248,8.98012,367.6766],[16.53835,8.98116,367.434],[16.52528,8.9794,370.5939],[16.52078,8.98012,373.2261],[16.51835,8.98353,372.1124],[16.51504,8.99304,367.3193],[16.51179,8.99749,366.0084],[16.48972,9.02147,369.6347],[16.47065,9.0534,363.873],[16.4674,9.05681,362.3415],[16.46399,9.06146,362.8945],[16.46058,9.06947,364.8389],[16.4537,9.09619,361.3499],[16.4506,9.10218,364.2261],[16.44006,9.11665,363.5571],[16.43536,9.12761,362.9042]]]}}