{"type":"Feature","properties":{"GID_3":"TCD.18.1.4_1","GID_0":"TCD","country":"Chad","GID_1":"TCD.18_1","province":"Salamat","NL_NAME_1":"NA","GID_2":"TCD.18.1_1","county":"Aboudeïa","NL_NAME_2":"NA","city":"Yalnas-Abou-Deia","VARNAME_3":"NA","NL_NAME_3":"NA","TYPE_3":"Sub-prefecture","ENGTYPE_3":"Sub-prefecture","CC_3":"NA","HASC_3":"NA","name":"Yalnas-Abou-Deia.city"},
"geometry":{"type": "MultiPolygon","coordinates": [[[[19.2445,11.4281,541.0791],[19.3017,11.407,507.6242],[19.3517,11.4316,482.6222],[19.3686,11.4517,459.6936],[19.3896,11.4827,464.5016],[19.4101,11.5172,451.9284],[19.4324,11.5738,447.9622],[19.3889,11.5809,455.4641],[19.3768,11.587,458.0198],[19.3624,11.5871,455.4492],[19.3454,11.5957,455.3315],[19.325,11.6015,456.3542],[19.2798,11.5617,480.25],[19.2651,11.5437,495.008],[19.2585,11.5278,508.285],[19.2511,11.5011,510.5511],[19.2464,11.4757,544.0717],[19.2468,11.4593,565.2959],[19.2445,11.4281,541.0791]]]]}}