{"type":"Feature","properties":{"GID_3":"TCD.13.1.7_1","GID_0":"TCD","country":"Chad","GID_1":"TCD.13_1","province":"Mandoul","NL_NAME_1":"NA","GID_2":"TCD.13.1_1","county":"BarhSara","NL_NAME_2":"NA","city":"Dembo","VARNAME_3":"NA","NL_NAME_3":"NA","TYPE_3":"Sub-prefecture","ENGTYPE_3":"Sub-prefecture","CC_3":"NA","HASC_3":"NA","name":"Dembo.city"},
"geometry":{"type": "MultiPolygon","coordinates": [[[[18.1223,8.013,397.8803],[18.1056,8.0526,389.4832],[18.0824,8.0782,399.3057],[18.0583,8.0986,397.7775],[18.0149,8.1516,395.8567],[18.0068,8.1566,398.3663],[17.9798,8.1587,393.686],[17.9469,8.1731,400.2131],[17.9173,8.1729,398.4808],[17.8856,8.1867,399.6712],[17.8374,8.2003,382.5817],[17.8065,8.192,392.1855],[17.7518,8.2005,382.5233],[17.7287,8.207,380.1213],[17.716,8.1372,388.4464],[17.7187,8.0923,387.8511],[17.7092,8.005,392.7137],[17.7131,7.9775,379.5706],[17.7332,7.9784,379.049],[17.7724,7.9735,405.2224],[17.7975,7.9722,409.375],[17.8475,7.9652,401.7767],[17.9216,7.9586,402.8167],[17.9449,7.9628,405.1563],[17.9956,7.9928,408.5222],[18.0,7.9859,408.0642],[18.032,8.0093,403.3239],[18.0467,8.0112,406.8039],[18.1223,8.013,397.8803]]]]}}