{"type": "Feature","bbox": [15.5075,7.4411,15.9186,7.8248],"geometry": {"type": "MultiPolygon","coordinates": [[[[15.5519,7.5704,516.8617],[15.5407,7.5569,516.8845],[15.5277,7.5464,514.2727],[15.5229,7.5448,518.9473],[15.5169,7.5322,530.3182],[15.5075,7.5275,527.1276],[15.5465,7.5112,584.1244],[15.5604,7.5105,567.5298],[15.6221,7.5132,652.4961],[15.6396,7.5167,667.3915],[15.6481,7.5155,682.3015],[15.66,7.5176,660.3298],[15.728,7.5191,561.2725],[15.7299,7.5162,571.5054],[15.7276,7.505,594.7529],[15.7315,7.5006,611.9489],[15.743,7.4785,603.6069],[15.7462,7.4762,605.6964],[15.7554,7.4746,637.8694],[15.7581,7.4709,664.7668],[15.759,7.4638,644.4381],[15.7664,7.4578,657.8611],[15.7691,7.458,664.0076],[15.7735,7.4628,659.1714],[15.7853,7.4619,784.6576],[15.8,7.4549,895.6274],[15.8096,7.4411,911.605],[15.813,7.4417,918.8708],[15.8167,7.4454,904.2252],[15.834,7.4456,960.5433],[15.8402,7.4506,936.9306],[15.8458,7.4522,936.4412],[15.864,7.453,966.0671],[15.9186,7.4707,821.5076],[15.9104,7.4889,830.9904],[15.9053,7.4967,881.4758],[15.8918,7.5287,695.9718],[15.8819,7.5705,740.5942],[15.864,7.6091,750.4646],[15.8451,7.6443,690.8492],[15.834,7.6621,811.2274],[15.8195,7.6774,657.8028],[15.8037,7.7001,534.7307],[15.7757,7.7265,523.6963],[15.7615,7.7433,558.2921],[15.7392,7.7809,469.3555],[15.735,7.791,462.571],[15.7342,7.8248,436.5],[15.7172,7.8027,443.3517],[15.6952,7.7787,452.7712],[15.6378,7.7612,461.8665],[15.5959,7.7578,458.4687],[15.5915,7.7495,463.9672],[15.591,7.7443,468.2242],[15.5954,7.7378,469.3402],[15.593,7.7296,472.5073],[15.5955,7.7208,474.5627],[15.5957,7.6951,481.9657],[15.5982,7.6901,490.9392],[15.5949,7.6754,501.6623],[15.5827,7.6584,496.6546],[15.5824,7.6555,498.485],[15.5865,7.6497,510.6631],[15.5872,7.6419,504.1766],[15.5816,7.6245,507.7086],[15.5701,7.611,511.4042],[15.5684,7.6048,513.6719],[15.57,7.5995,515.5198],[15.5746,7.5951,520.5711],[15.5739,7.5905,517.0001],[15.5709,7.5866,511.4995],[15.5663,7.5843,514.5887],[15.5591,7.5752,521.59],[15.5519,7.5704,516.8617]]]]}
,"properties": {"GID_3": "TCD.12.2.5_1","GID_0": "TCD","country": "Chad","GID_1": "TCD.12_1","province": "LogoneOriental","NL_NAME_1": "NA","GID_2": "TCD.12.2_1","county": "MontsdeLam","NL_NAME_2": "NA","city": "Mbaissaye","VARNAME_3": "NA","NL_NAME_3": "NA","TYPE_3": "Sub-prefecture","ENGTYPE_3": "Sub-prefecture","CC_3": "NA","HASC_3": "NA","name": "Mbaissaye.city","area_km2": 950.8704,"hist_schema_id": "Elevation0-9000","hist_area_km2": {"450": 31.6164,"475": 33.1307,"500": 61.708,"525": 127.8443,"550": 143.8433,"575": 121.2631,"600": 90.8355,"625": 62.4018,"650": 46.2403,"675": 37.1393,"700": 27.0922,"725": 20.1979,"750": 14.3339,"775": 11.98,"800": 14.3974,"825": 15.2176,"850": 13.6204,"875": 10.762,"900": 13.4951,"925": 14.904,"950": 18.3096,"975": 13.1172,"1000": 5.8229,"1025": 1.1772,"1050": 0.2312,"1075": 0.1471,"1100": 0.021,"1125": 0.021}}}