{"type":"Feature","properties":{"GID_3":"TCD.15.2.1_1","GID_0":"TCD","country":"Chad","GID_1":"TCD.15_1","province":"Mayo-KebbiOuest","NL_NAME_1":"NA","GID_2":"TCD.15.2_1","county":"Mayo-Dallah","NL_NAME_2":"NA","city":"Dari","VARNAME_3":"NA","NL_NAME_3":"NA","TYPE_3":"Sub-prefecture","ENGTYPE_3":"Sub-prefecture","CC_3":"NA","HASC_3":"NA","name":"Dari.city"},
"geometry":{"type": "MultiPolygon","coordinates": [[[[14.8546,8.8199,358.0038],[14.8516,8.8765,418.752],[14.8478,8.8947,433.7438],[14.8446,8.9261,416.1151],[14.8405,8.9396,409.8368],[14.8322,8.9577,387.1099],[14.8055,9.0006,376.9349],[14.7915,9.0146,402.6434],[14.7638,9.0508,398.0645],[14.7563,9.0578,402.7242],[14.7466,9.0733,394.151],[14.7287,9.0853,412.8426],[14.7209,9.1001,429.323],[14.7004,9.1097,435.5002],[14.694,9.1285,432.5226],[14.6258,9.1662,374.7678],[14.6039,9.1827,355.1507],[14.5897,9.2038,359.2195],[14.5829,9.2025,353.9125],[14.5741,9.1907,364.0312],[14.5509,9.1661,333.2861],[14.5373,9.1562,338.4922],[14.5055,9.1284,339.8985],[14.4974,9.119,337.9883],[14.4888,9.1137,349.3301],[14.475,9.1087,366.3019],[14.4727,9.1124,361.8442],[14.4703,9.1133,364.1261],[14.4712,9.1026,362.9312],[14.4884,9.0761,386.5499],[14.493,9.0577,392.9727],[14.4971,9.0537,399.2922],[14.5191,9.0426,411.7842],[14.5861,9.002,452.7338],[14.5903,8.9969,447.3637],[14.6183,8.9748,456.5155],[14.836,8.8152,362.2852],[14.8509,8.8153,359.689],[14.8537,8.8132,357.064],[14.8546,8.8199,358.0038]]]]}}