{"type": "Feature","bbox": [21.54,12.071,22.13,12.59],"geometry": {"type": "MultiPolygon","coordinates": [[[[22.041,12.171,599.2425],[22.047,12.233,640.4544],[22.061,12.345,668.2235],[22.074,12.385,696.1454],[22.13,12.454,729.0551],[22.106,12.486,680.6131],[22.015,12.491,650.9442],[21.916,12.512,643.6808],[21.787,12.549,621.1265],[21.678,12.59,627.3306],[21.644,12.484,581.8774],[21.596,12.386,595.7319],[21.562,12.347,566.2931],[21.54,12.316,556.0026],[21.569,12.3,553.371],[21.595,12.277,537.5443],[21.607,12.248,537.4545],[21.611,12.207,535.6601],[21.609,12.161,537.6964],[21.614,12.101,513.7999],[21.629,12.071,513.3553],[21.686,12.117,525.0575],[21.737,12.144,549.093],[21.842,12.186,584.6165],[21.923,12.183,728.808],[21.936,12.189,656.981],[21.976,12.189,665.6116],[22.041,12.171,599.2425]]]]}
,"properties": {"GID_3": "TCD.19.2.7_1","GID_0": "TCD","country": "Chad","GID_1": "TCD.19_1","province": "Sila","NL_NAME_1": "NA","GID_2": "TCD.19.2_1","county": "Sila","NL_NAME_2": "NA","city": "Ouadi-Habile","VARNAME_3": "NA","NL_NAME_3": "NA","TYPE_3": "Sub-prefecture","ENGTYPE_3": "Sub-prefecture","CC_3": "NA","HASC_3": "NA","name": "Ouadi-Habile.city","area_km2": 2092.757,"hist_schema_id": "Elevation0-9000","hist_area_km2": {"500": 0.021,"525": 218.473,"550": 433.796,"575": 395.394,"600": 402.72,"625": 264.497,"650": 221.716,"675": 120.601,"700": 28.495,"725": 5.116,"750": 1.16,"775": 0.497,"800": 0.186,"825": 0.083}}}