{"type":"Feature","properties":{"GID_2":"TCD.8.2_1","GID_0":"TCD","country":"Chad","GID_1":"TCD.8_1","province":"Hadjer-Lamis","NL_NAME_1":"NA","county":"Dagana","VARNAME_2":"Massakory","NL_NAME_2":"NA","TYPE_2":"Department","ENGTYPE_2":"Department","CC_2":"NA","HASC_2":"TD.HD.DG","name":"Dagana.county"},
"geometry":{"type": "MultiPolygon","coordinates": [[[[15.91,13.173,285.6227],[15.862,13.154,286.2017],[15.755,13.163,290.146],[15.736,13.179,293.3441],[15.576,13.247,293.9448],[15.428,13.317,298.4993],[15.38,13.393,287.6427],[15.231,13.372,290.2999],[15.258,13.299,292.5529],[15.313,13.239,278.5508],[15.378,13.215,290.5552],[15.399,13.189,295.1014],[15.332,13.136,285.0241],[15.31,13.149,281.5468],[15.29,13.14,290.7212],[15.275,13.103,283.5964],[15.26,13.095,286.427],[15.244,13.116,281.8274],[15.208,13.156,281.6046],[15.19,13.199,281.835],[15.145,13.223,285.5361],[15.101,13.219,278.8374],[15.027,13.252,279.2312],[15.009,13.244,286.179],[15.001,13.227,284.9877],[15.042,13.171,283.8838],[15.042,13.111,279.6314],[15.019,12.996,280.7685],[14.835,12.993,280.7745],[14.839,12.874,283.9276],[14.843,12.85,286.5867],[14.899,12.812,284.5735],[15.002,12.81,286.6973],[15.105,12.724,288.8593],[15.184,12.64,287.7371],[15.26,12.589,288.7074],[15.342,12.579,288.8643],[15.409,12.56,288.8842],[15.475,12.571,289.0596],[15.592,12.567,291.0685],[15.637,12.55,290.593],[15.717,12.559,290.5153],[15.78,12.553,290.8895],[15.824,12.569,290.6633],[15.869,12.578,291.0919],[15.958,12.584,291.0378],[16.011,12.604,290.2397],[16.143,12.617,289.8712],[16.195,12.619,290.2295],[16.164,12.672,287.9655],[16.144,12.719,289.1208],[16.146,12.771,288.785],[16.175,12.848,289.433],[16.143,12.915,289.037],[16.106,12.959,289.2939],[16.108,13.036,289.4623],[15.998,13.044,288.3004],[15.991,13.08,287.7307],[15.966,13.122,285.1739],[15.91,13.173,285.6227]]]]}}