{"type": "Feature","bbox": [19.889,11.96,20.399,12.549],"geometry": {"type": "MultiPolygon","coordinates": [[[[20.082,12.494,455.7078],[20.001,12.385,466.616],[19.94,12.246,448.3839],[19.905,12.118,464.8142],[19.889,12.079,445.7538],[19.912,12.029,443.866],[19.9211,11.96,452.718],[19.97,11.965,441.1681],[20.011,11.982,439.2983],[20.019,12.027,453.5631],[20.237,12.042,450.0596],[20.266,12.029,458.5164],[20.303,12.035,449.437],[20.302,12.074,458.1285],[20.316,12.18,454.9539],[20.322,12.24,469.4235],[20.348,12.361,467.4272],[20.352,12.456,452.5953],[20.399,12.512,455.2961],[20.343,12.521,458.0499],[20.209,12.549,464.6231],[20.154,12.531,450.7625],[20.082,12.494,455.7078]]]]}
,"properties": {"GID_3": "TCD.19.1.3_1","GID_0": "TCD","country": "Chad","GID_1": "TCD.19_1","province": "Sila","NL_NAME_1": "NA","GID_2": "TCD.19.1_1","county": "DjourfAlAhmar","NL_NAME_2": "NA","city": "Birguit","VARNAME_3": "NA","NL_NAME_3": "NA","TYPE_3": "Sub-prefecture","ENGTYPE_3": "Sub-prefecture","CC_3": "NA","HASC_3": "NA","name": "Birguit.city","area_km2": 2257.059,"hist_schema_id": "Elevation0-9000","hist_area_km2": {"425": 97.514,"450": 1411.005,"475": 748.519,"500": 0.021}}}