{"type":"Feature","properties":{"ISO3166-1-Alpha-3":"TCD","country":"Chad","fill":"#F00","id":"5582","name":"Sila"},
"geometry":{"type": "Polygon","coordinates": [[[20.41035,13.04536,436.8676],[20.29455,13.09233,417.8516],[20.26804,13.05088,421.6545],[20.2604,13.04355,420.4896],[20.25575,13.04117,420.972],[20.24536,13.03786,421.1075],[19.98765,12.98603,423.0039],[19.98062,12.98267,422.891],[19.98233,12.97792,425.2047],[19.99028,12.97058,429.0668],[20.13643,12.86046,440.0055],[20.14154,12.85808,439.1343],[20.14635,12.85875,438.539],[20.15549,12.86195,439.076],[20.16004,12.86268,443.1705],[20.16376,12.86071,442.2658],[20.16748,12.85798,442.1266],[20.17074,12.85441,440.4171],[20.17322,12.84852,439.2489],[20.17461,12.84066,436.3567],[20.17306,12.82609,437.0891],[20.17492,12.80434,432.1494],[20.17337,12.79653,433.2668],[20.1695,12.78785,430.881],[20.15896,12.77555,430.6444],[20.15136,12.77183,431.6341],[20.14418,12.771,433.1897],[20.13844,12.7725,432.772],[20.13301,12.77328,431.9202],[20.12774,12.77245,432.8996],[20.12247,12.7679,434.0262],[20.05498,12.68,435.3278],[20.04863,12.66848,434.6838],[20.04847,12.66021,436.8938],[20.05018,12.65453,437.8564],[20.05607,12.64631,439.5058],[20.08785,12.61515,444.3053],[20.09328,12.60714,443.8001],[20.09514,12.60306,443.9555],[20.09576,12.59939,442.8677],[20.09405,12.59484,441.9344],[20.09017,12.58931,441.6529],[20.07483,12.57789,443.379],[20.05901,12.57112,446.5377],[20.05452,12.56864,447.7563],[20.05064,12.56559,449.1308],[20.04336,12.55887,449.3619],[20.03695,12.55117,451.1006],[20.01199,12.51459,458.9992],[19.97504,12.47981,462.2053],[19.95179,12.44565,454.2906],[19.9445,12.43748,453.9951],[19.9383,12.43211,451.4558],[19.93396,12.42953,449.7878],[19.93008,12.42653,449.4243],[19.92631,12.42312,448.999],[19.92011,12.41542,446.5659],[19.91546,12.40756,449.7943],[19.88554,12.34338,453.8056],[19.82146,12.16319,438.9897],[19.81898,12.14334,442.755],[19.82001,12.08701,435.5265],[19.83417,12.06231,433.3594],[19.83805,12.04836,434.3848],[19.84425,11.99441,433.2289],[19.84766,11.98376,431.8642],[19.85262,11.97684,430.3291],[19.85851,11.97493,428.9948],[19.8675,11.97395,432.0354],[19.89391,11.9755,433.9443],[19.94,11.97395,450.5221],[19.94698,11.97467,449.6531],[19.95179,11.97679,444.8113],[19.95396,11.98118,439.2376],[19.95442,11.98697,436.5877],[19.9445,12.0434,436.7059],[19.9445,12.05642,436.3969],[19.94605,12.06262,436.8204],[19.94992,12.06779,437.3444],[19.96016,12.07006,434.7107],[20.22179,12.07833,449.297],[20.25047,12.07244,449.0852],[20.27254,12.06474,447.1251],[20.5211,11.89943,469.1435],[21.02914,11.64963,477.8514],[21.26143,11.59641,481.5605],[21.82113,11.6981,504.7328],[21.8387,11.69841,521.1577],[21.85358,11.69303,522.3665],[21.89286,11.6704,512.4474],[22.04613,11.62513,547.595],[22.06804,11.61014,540.9389],[22.08261,11.59485,531.1321],[22.36425,10.95509,474.1398],[22.36456,10.95447,474.1398],[22.36469,10.95421,473.9973],[22.39184,10.95851,480.0146],[22.40703,10.96305,480.4723],[22.41923,10.97073,476.579],[22.43763,10.99155,477.9313],[22.44714,10.99827,479.4103],[22.46047,11.00083,482.6855],[22.47628,10.99796,481.9001],[22.49075,10.99315,481.0345],[22.50284,10.99217,482.1253],[22.51194,11.00083,482.9713],[22.53468,10.98052,485.0083],[22.55576,10.97897,486.5459],[22.57705,10.98512,487.7874],[22.60082,10.98781,489.5176],[22.60909,10.98522,490.1454],[22.62821,10.97613,491.6154],[22.63834,10.97414,491.6984],[22.67317,10.97507,493.1025],[22.68268,10.97414,494.3926],[22.71988,10.96465,497.5017],[22.7451,10.9438,499.5728],[22.80598,10.9245,507.9611],[22.86106,10.91915,507.7413],[22.90023,11.05989,522.3964],[22.90654,11.06989,518.0478],[22.92235,11.08708,520.4723],[22.92514,11.09795,519.8354],[22.92566,11.11813,522.3082],[22.92897,11.13793,530.3077],[22.93517,11.15588,538.4639],[22.95201,11.19105,565.8442],[22.95646,11.2088,568.8207],[22.95454,11.23784,593.3812],[22.95367,11.25094,588.0327],[22.92835,11.32515,571.5227],[22.91481,11.3961,620.7881],[22.90044,11.40825,614.8762],[22.87698,11.40884,598.4548],[22.78179,11.39889,591.533],[22.77187,11.40318,612.3436],[22.77156,11.43331,607.9406],[22.76877,11.44233,614.4713],[22.74304,11.4661,637.7996],[22.66252,11.49307,653.558],[22.62811,11.50984,661.5378],[22.59235,11.54366,717.4498],[22.56175,11.58601,703.1735],[22.5417,11.63299,704.6118],[22.53705,11.68089,668.8215],[22.59286,11.98893,586.7057],[22.61054,12.03963,596.6149],[22.61353,12.05725,574.5652],[22.6124,12.0728,581.204],[22.60733,12.07771,578.3585],[22.59886,12.06324,573.7792],[22.58553,12.07136,573.4955],[22.54646,12.06443,568.9402],[22.48145,12.04428,562.3074],[22.47049,12.03611,574.658],[22.4645,12.03296,563.231],[22.45809,12.03043,559.6194],[22.48383,12.14035,568.5335],[22.48476,12.15254,570.2891],[22.48403,12.16474,570.2417],[22.48145,12.17667,569.8875],[22.40797,12.39976,588.1194],[22.37489,12.45087,595.3282],[22.37283,12.46312,596.1309],[22.39587,12.49609,615.4586],[22.44569,12.61107,697.3085],[22.43246,12.62383,702.3654],[22.33014,12.66145,678.7298],[22.20488,12.74336,715.1324],[22.17625,12.7015,665.1476],[22.14411,12.67127,648.1693],[22.10586,12.65039,655.4902],[22.05874,12.6367,645.6118],[22.01967,12.63143,630.4595],[21.97719,12.63184,628.5329],[21.93595,12.63954,626.4019],[21.90081,12.65644,629.5014],[21.88014,12.67628,640.3367],[21.84087,12.74894,649.9455],[21.81369,12.7823,652.4252],[21.809449999999998,12.79366,658.8872],[21.69702,12.83092,658.1346],[21.57448,12.88198,581.8918],[21.48258,12.85134,547.9694],[21.38046,12.79007,524.7668],[21.28856,12.69817,565.8049],[21.2375,12.67774,528.559],[21.19665,12.68796,519.664],[21.09453,12.69817,507.2427],[20.98221,12.66753,480.9519],[20.84945,12.71859,467.8624],[20.84945,12.8105,500.8115],[20.83924,12.88198,504.2244],[20.75755,12.89219,490.1897],[20.68607,12.91261,461.3952],[20.67586,13.04536,506.7069],[20.52268,13.04536,444.2065],[20.41035,13.04536,436.8676]]]}}