{"type": "Feature","bbox": [15.117,10.4382,15.3151,10.8469],"geometry": {"type": "MultiPolygon","coordinates": [[[[15.146,10.5522,315.5],[15.1461,10.5381,315.7704],[15.1501,10.5313,316.6072],[15.1874,10.5048,319.1795],[15.2063,10.5002,317.4658],[15.2227,10.4888,319.1897],[15.2396,10.4742,317.5],[15.2465,10.4646,318.0],[15.2476,10.4522,320.485],[15.2523,10.4382,320.196],[15.2833,10.4749,318.5215],[15.2943,10.4852,319.3783],[15.3003,10.5002,318.0145],[15.2939,10.5213,317.5386],[15.2946,10.5408,317.5955],[15.2912,10.5831,315.7314],[15.2933,10.5871,315.8681],[15.2789,10.6024,315.1589],[15.2592,10.6196,314.9754],[15.2544,10.6365,315.025],[15.2605,10.6502,314.7646],[15.2547,10.6649,313.7209],[15.2566,10.6827,313.8818],[15.2748,10.7015,312.5858],[15.2754,10.7184,312.4476],[15.262,10.73,312.2798],[15.2612,10.7372,311.9528],[15.2682,10.751,311.7604],[15.2858,10.769,311.7679],[15.3151,10.7921,312.113],[15.3133,10.8247,311.3117],[15.3108,10.8381,310.979],[15.3006,10.8388,310.6385],[15.2906,10.8433,310.2704],[15.2698,10.8469,310.4321],[15.2554,10.8468,310.1157],[15.2413,10.8409,310.1984],[15.2152,10.8393,310.1945],[15.2005,10.8362,310.244],[15.171,10.8214,310.3638],[15.1575,10.8015,310.613],[15.1475,10.783,311.0066],[15.1387,10.7625,311.9799],[15.117,10.7268,314.3706],[15.1261,10.7121,314.1017],[15.1362,10.7062,314.8382],[15.1384,10.7028,315.1208],[15.1378,10.6884,313.8283],[15.1413,10.6678,313.0],[15.1457,10.6587,313.7403],[15.1567,10.646,314.6911],[15.158,10.6402,314.9087],[15.1572,10.6126,314.0],[15.1475,10.5922,315.627],[15.1442,10.574,315.6432],[15.146,10.5522,315.5]]]]}
,"properties": {"GID_3": "TCD.14.2.8_1","GID_0": "TCD","country": "Chad","GID_1": "TCD.14_1","province": "Mayo-KebbiEst","NL_NAME_1": "NA","GID_2": "TCD.14.2_1","county": "Mayo-Boneye","NL_NAME_2": "NA","city": "Koumi","VARNAME_3": "NA","NL_NAME_3": "NA","TYPE_3": "Sub-prefecture","ENGTYPE_3": "Sub-prefecture","CC_3": "NA","HASC_3": "NA","name": "Koumi.city","area_km2": 582.6992,"hist_schema_id": "Elevation0-9000","hist_area_km2": {"300": 196.9268,"325": 385.7724}}}