{"type": "Feature","bbox": [15.3973,9.6532,15.6238,9.7966],"geometry": {"type": "MultiPolygon","coordinates": [[[[15.5696,9.668,342.5142],[15.5822,9.6901,340.0535],[15.5962,9.7041,338.1292],[15.6025,9.7131,338.0832],[15.6137,9.7424,334.2524],[15.6238,9.7851,336.0833],[15.5807,9.7798,334.359],[15.5653,9.7827,333.9818],[15.5508,9.7818,333.5296],[15.5384,9.788,333.2453],[15.5255,9.7913,333.8113],[15.5147,9.7966,332.8655],[15.4936,9.7905,333.4876],[15.4722,9.776,335.3521],[15.4353,9.7762,333.9669],[15.3986,9.7733,334.4644],[15.3995,9.7648,335.9344],[15.3973,9.7482,335.1904],[15.3996,9.7292,338.8323],[15.399,9.7223,340.3947],[15.414,9.6739,346.3683],[15.4123,9.6676,353.1536],[15.4134,9.6603,343.6538],[15.4363,9.6539,344.1343],[15.4685,9.6532,345.7073],[15.4893,9.6581,343.1525],[15.5188,9.6678,339.0769],[15.5474,9.6729,342.0038],[15.559,9.6726,342.3311],[15.5696,9.668,342.5142]]]]}
,"properties": {"GID_3": "TCD.14.1.2_1","GID_0": "TCD","country": "Chad","GID_1": "TCD.14_1","province": "Mayo-KebbiEst","NL_NAME_1": "NA","GID_2": "TCD.14.1_1","county": "Kabbia","NL_NAME_2": "NA","city": "Djarao","VARNAME_3": "NA","NL_NAME_3": "NA","TYPE_3": "Sub-prefecture","ENGTYPE_3": "Sub-prefecture","CC_3": "NA","HASC_3": "NA","name": "Djarao.city","area_km2": 290.0986,"hist_schema_id": "Elevation0-9000","hist_area_km2": {"325": 179.059,"350": 111.0396}}}