{"type": "Feature","bbox": [18.014,12.999,18.368,13.552],"geometry": {"type": "MultiPolygon","coordinates": [[[[18.045,13.066,316.7076],[18.104,13.036,328.3032],[18.197,12.999,329.2985],[18.308,13.037,330.8615],[18.333,13.091,332.5609],[18.368,13.259,333.4853],[18.34,13.447,332.1059],[18.289,13.468,330.4584],[18.247,13.463,329.2791],[18.165,13.552,329.6436],[18.116,13.537,328.3568],[18.098,13.529,319.3005],[18.069,13.525,322.5416],[18.014,13.477,312.9259],[18.037,13.398,324.2354],[18.049,13.329,329.6469],[18.04,13.213,324.2114],[18.041,13.145,314.8847],[18.045,13.066,316.7076]]]]}
,"properties": {"GID_3": "TCD.2.2.4_1","GID_0": "TCD","country": "Chad","GID_1": "TCD.2_1","province": "Batha","NL_NAME_1": "NA","GID_2": "TCD.2.2_1","county": "BathaOues","NL_NAME_2": "NA","city": "Salamat","VARNAME_3": "NA","NL_NAME_3": "NA","TYPE_3": "Sub-prefecture","ENGTYPE_3": "Sub-prefecture","CC_3": "NA","HASC_3": "NA","name": "Salamat.city","area_km2": 1763.535,"hist_schema_id": "Elevation0-9000","hist_area_km2": {"300": 1.939,"325": 1761.349,"350": 0.248}}}