{"type":"Feature","properties":{"GID_3":"TCD.12.4.3_1","GID_0":"TCD","country":"Chad","GID_1":"TCD.12_1","province":"LogoneOriental","NL_NAME_1":"NA","GID_2":"TCD.12.4_1","county":"Pendé","NL_NAME_2":"NA","city":"Bodo","VARNAME_3":"NA","NL_NAME_3":"NA","TYPE_3":"Sub-prefecture","ENGTYPE_3":"Sub-prefecture","CC_3":"NA","HASC_3":"NA","name":"Bodo.city"},
"geometry":{"type": "MultiPolygon","coordinates": [[[[17.108,8.131,393.5346],[17.156,8.146,388.7861],[17.213,8.157,380.1679],[17.295,8.296,378.5481],[17.159,8.495,411.7458],[17.13,8.545,387.6786],[17.1185,8.54,388.3145],[17.1051,8.5372,388.1407],[17.092,8.5311,389.4575],[17.0793,8.5244,390.4844],[17.0596,8.5107,392.3356],[17.0441,8.4899,393.0486],[17.031,8.465,394.4939],[17.0223,8.4543,392.1783],[17.0169,8.4442,387.7774],[17.0027,8.4317,394.3226],[16.9901,8.4255,396.568],[16.9746,8.4223,392.7928],[16.9781,8.3982,399.105],[16.9751,8.3578,404.6839],[16.977,8.3174,413.5617],[16.985,8.286,420.5774],[17.0243,8.2279,532.7679],[17.0591,8.1672,448.8899],[17.0829,8.1467,408.1649],[17.108,8.131,393.5346]]]]}}