{"type":"Feature","properties":{"GID_3":"TCD.13.3.4_1","GID_0":"TCD","country":"Chad","GID_1":"TCD.13_1","province":"Mandoul","NL_NAME_1":"NA","GID_2":"TCD.13.3_1","county":"MandoulOriental","NL_NAME_2":"NA","city":"Goundi","VARNAME_3":"NA","NL_NAME_3":"NA","TYPE_3":"Sub-prefecture","ENGTYPE_3":"Sub-prefecture","CC_3":"NA","HASC_3":"NA","name":"Goundi.city"},
"geometry":{"type": "MultiPolygon","coordinates": [[[[17.6658,9.4487,409.2858],[17.6588,9.4695,393.3145],[17.6444,9.5029,387.7633],[17.6205,9.5428,371.9713],[17.5956,9.5673,366.4301],[17.554,9.597,353.9871],[17.507,9.616,351.873],[17.484,9.641,348.5521],[17.449,9.632,349.2567],[17.427,9.62,354.5831],[17.371,9.612,352.1404],[17.347,9.599,349.9286],[17.317,9.594,346.197],[17.288,9.601,342.7347],[17.251,9.596,343.4028],[17.209,9.576,344.3195],[17.216,9.545,344.8169],[17.257,9.492,346.1147],[17.228,9.47,350.1866],[17.23,9.393,353.8706],[17.228,9.371,359.8567],[17.2624,9.3444,361.6],[17.2933,9.327,362.3009],[17.3145,9.2966,363.9045],[17.3242,9.2768,370.5712],[17.3169,9.2561,378.9549],[17.3191,9.2352,380.0161],[17.3532,9.2351,380.9987],[17.3685,9.238,368.1662],[17.4026,9.2527,367.5554],[17.431,9.2572,361.9742],[17.4582,9.2548,368.0983],[17.4836,9.2467,362.8043],[17.5247,9.2111,373.4356],[17.5384,9.1935,371.876],[17.5617,9.2277,392.7855],[17.5638,9.2483,392.9618],[17.5619,9.2798,392.8401],[17.5696,9.3053,390.2342],[17.5804,9.328,390.7162],[17.584,9.3974,375.0791],[17.6004,9.4116,386.5617],[17.6383,9.4304,403.6212],[17.6658,9.4487,409.2858]]]]}}