{"type":"Feature","properties":{"GID_3":"TCD.12.3.8_1","GID_0":"TCD","country":"Chad","GID_1":"TCD.12_1","province":"LogoneOriental","NL_NAME_1":"NA","GID_2":"TCD.12.3_1","county":"NyaPendé","NL_NAME_2":"NA","city":"Miladi","VARNAME_3":"NA","NL_NAME_3":"NA","TYPE_3":"Sub-prefecture","ENGTYPE_3":"Sub-prefecture","CC_3":"NA","HASC_3":"NA","name":"Miladi.city"},
"geometry":{"type": "MultiPolygon","coordinates": [[[[16.273,8.66,391.6723],[16.2766,8.6216,405.2259],[16.2863,8.5687,464.4767],[16.2878,8.5427,481.9085],[16.2813,8.475,503.5072],[16.2788,8.4316,469.0138],[16.2793,8.3991,441.1281],[16.3081,8.4136,455.3305],[16.3288,8.4276,465.4552],[16.3377,8.4353,464.7188],[16.3535,8.4395,461.3062],[16.3909,8.4581,459.9005],[16.4011,8.4617,463.9583],[16.4381,8.4656,457.6656],[16.4502,8.4688,447.4025],[16.4489,8.4751,445.004],[16.4438,8.4807,448.2968],[16.4431,8.4862,447.8845],[16.438,8.494,450.931],[16.4312,8.5132,451.7172],[16.4208,8.5245,453.1288],[16.4119,8.5309,453.5097],[16.4007,8.5423,450.0475],[16.3639,8.5741,445.7682],[16.3609,8.58,442.2592],[16.3418,8.6017,421.2333],[16.3379,8.6106,414.0118],[16.3367,8.6222,403.5432],[16.3397,8.6557,385.8063],[16.273,8.66,391.6723]]]]}}