{"type": "Feature","bbox": [17.7194,8.5111,18.0265,8.959],"geometry": {"type": "MultiPolygon","coordinates": [[[[17.7685,8.5643,376.174],[17.785,8.5369,378.3713],[17.8016,8.5233,381.7653],[17.8147,8.5152,380.4671],[17.8226,8.5119,380.1283],[17.8265,8.515,380.9837],[17.8468,8.5157,377.8457],[17.8758,8.5111,375.998],[17.9101,8.5727,371.0518],[17.9154,8.5853,371.8],[17.9367,8.62,371.4534],[17.9544,8.6549,369.4931],[17.9598,8.6758,369.1628],[17.9555,8.6991,370.5843],[17.9546,8.7146,370.677],[17.9562,8.7283,372.5276],[17.9586,8.7349,371.7839],[17.9745,8.7495,363.4888],[17.9866,8.7568,370.308],[17.9923,8.7808,372.9802],[17.9919,8.7951,365.5575],[17.9938,8.8077,368.1843],[17.9972,8.8134,368.2682],[18.0161,8.8301,370.1398],[18.0265,8.8363,371.8868],[18.0248,8.8406,371.6107],[18.019,8.844,370.9634],[18.0097,8.8737,370.9355],[18.0087,8.8837,370.0268],[18.0038,8.8931,371.1572],[18.0005,8.9037,369.7863],[17.9977,8.9171,366.1687],[17.9958,8.959,367.0868],[17.9852,8.9517,359.7347],[17.9704,8.9472,366.4111],[17.9595,8.9366,367.8078],[17.9507,8.9308,367.2175],[17.9249,8.925,364.5008],[17.9207,8.9111,368.3295],[17.906,8.9099,368.3228],[17.8884,8.9123,363.174],[17.8744,8.9089,365.0014],[17.8667,8.9046,363.523],[17.8651,8.8958,369.9879],[17.8652,8.8823,371.3265],[17.8405,8.8813,364.638],[17.8324,8.8754,364.1112],[17.8247,8.8725,364.4457],[17.8179,8.873,364.5213],[17.8006,8.8625,364.6326],[17.7947,8.8506,364.8865],[17.7849,8.8371,364.2828],[17.7539,8.8048,364.0621],[17.7465,8.8021,364.2256],[17.7356,8.8016,364.349],[17.7238,8.7934,364.7584],[17.7194,8.7827,364.6145],[17.7194,8.7727,365.3463],[17.7245,8.7564,368.9488],[17.7338,8.7383,371.5167],[17.7343,8.7307,372.5605],[17.7316,8.7038,372.6703],[17.726,8.6788,375.1859],[17.7237,8.6587,378.7794],[17.7257,8.6492,377.547],[17.7362,8.6263,377.6325],[17.752,8.6084,375.29],[17.7548,8.603,375.5827],[17.7685,8.5643,376.174]]]]}
,"properties": {"GID_3": "TCD.13.1.15_1","GID_0": "TCD","country": "Chad","GID_1": "TCD.13_1","province": "Mandoul","NL_NAME_1": "NA","GID_2": "TCD.13.1_1","county": "BarhSara","NL_NAME_2": "NA","city": "Ngalo","VARNAME_3": "NA","NL_NAME_3": "NA","TYPE_3": "Sub-prefecture","ENGTYPE_3": "Sub-prefecture","CC_3": "NA","HASC_3": "NA","name": "Ngalo.city","area_km2": 991.3647,"hist_schema_id": "Elevation0-9000","hist_area_km2": {"350": 7.7929,"375": 946.8932,"400": 30.6214,"425": 6.0572}}}