{"type":"Feature","properties":{"GID_2":"TCD.16.1_1","GID_0":"TCD","country":"Chad","GID_1":"TCD.16_1","province":"Moyen-Chari","NL_NAME_1":"NA","county":"BarhKöh","VARNAME_2":"Sarh","NL_NAME_2":"NA","TYPE_2":"Department","ENGTYPE_2":"Department","CC_2":"NA","HASC_2":"TD.MO.BA","name":"Barh_Köh.county"},
"geometry":{"type": "MultiPolygon","coordinates": [[[[18.0638,8.5995,374.7173],[18.0701,8.5813,377.6443],[18.0783,8.5655,379.244],[18.0944,8.5601,381.172],[18.1025,8.5526,382.355],[18.1104,8.5533,380.5299],[18.1169,8.5459,379.5455],[18.1231,8.5301,377.5259],[18.1345,8.5397,377.818],[18.1782,8.5421,377.5167],[18.202,8.5458,381.5576],[18.2224,8.5542,385.3632],[18.2494,8.5624,387.178],[18.2836,8.5679,399.3318],[18.3193,8.5843,408.9498],[18.3453,8.618,383.3934],[18.3641,8.6464,379.8506],[18.3844,8.6552,382.327],[18.3904,8.6787,370.7526],[18.4029,8.7001,386.2666],[18.4345,8.7301,382.574],[18.4476,8.7458,376.9115],[18.4528,8.7688,375.4546],[18.4613,8.824,372.6133],[18.4664,8.8416,372.062],[18.4835,8.8576,370.4669],[18.4924,8.8568,371.7028],[18.5087,8.8678,371.5984],[18.5366,8.8816,370.6335],[18.5557,8.8755,370.7337],[18.5659,8.8649,371.5611],[18.5683,8.8437,372.7925],[18.5747,8.8149,374.6293],[18.6033,8.7994,377.5817],[18.6122,8.7844,378.1141],[18.6165,8.7648,379.4133],[18.6126,8.7403,381.244],[18.6365,8.7307,379.3419],[18.6583,8.7324,380.0771],[18.6702,8.7209,380.6779],[18.6761,8.7013,382.7094],[18.6861,8.6898,382.5535],[18.7039,8.6913,382.9333],[18.7166,8.7003,383.3098],[18.7432,8.6992,385.3008],[18.7649,8.6851,385.1175],[18.7725,8.6692,379.6565],[18.8196,8.6538,383.6719],[18.8525,8.661,384.4139],[18.8867,8.6525,382.4363],[18.9043,8.6682,384.3231],[18.9453,8.6585,385.7737],[18.9713,8.6723,381.8526],[19.0081,8.6805,379.9306],[19.0506,8.6735,376.4898],[19.0778,8.6408,373.1341],[19.0836,8.6492,375.6269],[19.091,8.6496,374.1594],[19.094,8.6519,372.9341],[19.0966,8.6577,375.2465],[19.1005,8.661,372.459],[19.1133,8.6647,366.8956],[19.1206,8.6687,366.676],[19.1222,8.6712,373.4364],[19.1214,8.6754,368.462],[19.1159,8.6782,370.3474],[19.109,8.6857,369.7831],[19.105,8.6939,368.2584],[19.1051,8.6987,378.3035],[19.0998,8.6995,366.0119],[19.0822,8.7105,366.1223],[19.0595,8.7158,365.8912],[19.0417,8.7274,373.4809],[19.0333,8.7355,374.665],[19.0196,8.7614,385.5948],[19.0145,8.7657,380.6852],[19.0,8.7704,373.4348],[18.9971,8.7693,364.4854],[18.9704,8.7814,364.1634],[18.9604,8.7881,363.7707],[18.9566,8.7935,364.743],[18.9523,8.8092,372.1512],[18.9466,8.8128,372.6743],[18.9427,8.8126,369.1385],[18.9359,8.81,368.3324],[18.923,8.8004,370.9101],[18.9097,8.8069,371.4686],[18.9071,8.8146,363.3622],[18.9062,8.8468,361.8328],[18.9008,8.8506,366.0287],[18.8885,8.8513,368.4076],[18.8839,8.8482,367.9356],[18.8808,8.8437,366.7111],[18.8814,8.8405,368.2735],[18.8745,8.8411,365.5325],[18.8715,8.8428,365.612],[18.8686,8.8493,364.6728],[18.8636,8.8505,365.0717],[18.8625,8.8526,365.6757],[18.8673,8.8617,368.041],[18.8655,8.8659,365.5838],[18.8657,8.8714,367.4248],[18.8683,8.8757,370.1907],[18.8823,8.8811,367.7268],[18.8927,8.8896,370.7127],[18.8923,8.8935,370.2634],[18.8866,8.898,366.599],[18.889,8.901,367.3116],[18.8957,8.9013,368.3852],[18.9053,8.8978,373.0602],[18.9117,8.9126,374.5897],[18.9186,8.9231,367.5045],[18.9226,8.926,369.1739],[18.933,8.9264,374.1345],[18.9431,8.931,365.7291],[18.9482,8.9307,368.7248],[18.9571,8.927,372.9796],[18.9604,8.9276,373.617],[18.9624,8.9338,370.2406],[18.9661,8.936,370.5182],[18.9685,8.9403,370.8439],[18.9759,8.9415,368.3549],[18.9775,8.9484,370.2569],[18.9814,8.9537,369.296],[18.9838,8.9684,370.1972],[18.9876,8.9752,368.655],[18.9927,8.9792,369.473],[18.9988,8.9798,369.3768],[19.0042,8.977,370.4861],[19.0097,8.9781,370.3688],[19.0233,8.9951,369.2812],[18.9964,9.0303,375.7739],[18.9758,9.0511,373.3156],[18.9333,9.0727,372.5318],[18.9142,9.0793,373.2345],[18.8968,9.09,373.9454],[18.8719,9.1006,371.3459],[18.8551,9.1134,372.3795],[18.8426,9.1273,371.9526],[18.8392,9.1451,373.3746],[18.8366,9.1827,371.3875],[18.8352,9.2404,374.4268],[18.839,9.2764,372.6173],[18.8472,9.3227,372.1503],[18.8474,9.3465,370.9129],[18.8355,9.3405,371.0443],[18.8032,9.3294,370.8804],[18.7817,9.3371,367.0976],[18.7776,9.3312,366.5924],[18.7752,9.3144,368.845],[18.7776,9.2984,370.1064],[18.7731,9.2811,371.0934],[18.7526,9.2702,366.607],[18.6971,9.2531,365.9603],[18.6807,9.2376,363.0411],[18.6706,9.2218,363.785],[18.6581,9.2076,366.2466],[18.6405,9.2097,368.4635],[18.5912,9.211,368.352],[18.5765,9.2022,362.751],[18.5601,9.2045,367.3114],[18.5417,9.2009,367.1624],[18.5171,9.2077,365.9731],[18.5108,9.2183,366.4628],[18.5036,9.2245,367.0811],[18.4971,9.2354,367.811],[18.4897,9.2558,370.3101],[18.4878,9.2711,366.4372],[18.4744,9.2873,367.4339],[18.4674,9.3022,369.1414],[18.4593,9.3095,365.9367],[18.4296,9.3284,366.0374],[18.3622,9.3618,362.6743],[18.3617,9.3694,363.2727],[18.3574,9.3797,365.7065],[18.3465,9.3901,363.731],[18.3425,9.3971,363.5938],[18.3303,9.431,367.928],[18.3206,9.4476,367.5298],[18.3087,9.5014,372.554],[18.2998,9.5169,371.8026],[18.2953,9.5358,365.8579],[18.3076,9.5703,364.4988],[18.3111,9.5919,365.1766],[18.3233,9.6363,368.5447],[18.3299,9.6741,370.6097],[18.3412,9.7078,372.5966],[18.3604,9.7762,368.9551],[18.3783,9.8203,368.0287],[18.4047,9.8198,370.2719],[18.4133,9.8116,368.7338],[18.4434,9.8381,367.1696],[18.462,9.8235,369.3203],[18.4822,9.8183,371.2056],[18.4964,9.8342,372.9146],[18.5019,9.8499,374.1723],[18.5117,9.8642,375.4083],[18.5286,9.8787,377.2505],[18.5326,9.8939,376.8866],[18.5502,9.9025,375.4698],[18.5627,9.9011,375.1774],[18.5879,9.9029,373.0095],[18.6176,9.9119,372.7489],[18.632,9.919,371.116],[18.642,10.025,377.0905],[18.496,10.186,375.2409],[18.437,10.212,369.0147],[18.381,10.247,367.4492],[18.341,10.24,368.7788],[18.289,10.262,364.929],[18.209,10.322,365.8643],[18.164,10.346,361.2156],[18.104,10.365,359.2461],[18.067,10.35,358.4732],[18.013,10.381,358.4543],[17.962,10.397,356.0126],[17.864,10.497,396.2153],[17.543,10.451,350.8359],[17.489,10.172,345.8617],[17.381,9.826,347.7145],[17.461,9.785,353.3111],[17.521,9.74,358.116],[17.591,9.673,352.9009],[17.575,9.624,355.0051],[17.554,9.597,353.9871],[17.5956,9.5673,366.4301],[17.6205,9.5428,371.9713],[17.6444,9.5029,387.7633],[17.6588,9.4695,393.3145],[17.6658,9.4487,409.2858],[17.6758,9.4463,412.1399],[17.6851,9.4486,412.5443],[17.7238,9.4437,423.0581],[17.7366,9.4443,427.5028],[17.7459,9.4403,433.6071],[17.7567,9.4391,433.437],[17.763,9.436,430.4745],[17.7756,9.417,407.7555],[17.811,9.347,502.5811],[17.8197,9.3251,503.3396],[17.8255,9.2953,449.9493],[17.8425,9.2906,441.5938],[17.9244,9.2509,410.2451],[17.9439,9.2394,418.9103],[17.9834,9.223,429.9676],[17.994,9.2173,462.7167],[18.003,9.2027,488.6562],[18.0112,9.1989,475.1106],[18.0362,9.1962,439.3744],[18.0557,9.1907,404.9777],[18.1118,9.1861,376.3273],[18.1444,9.1793,364.4191],[18.1999,9.1762,356.2724],[18.1977,9.1623,363.6245],[18.1918,9.1488,363.5717],[18.1623,9.1032,365.0865],[18.1492,9.0789,363.0798],[18.109,9.0274,368.6042],[18.1005,9.02,367.7028],[18.0674,9.0131,366.8805],[18.0257,8.9976,365.8775],[17.9993,8.9676,368.5105],[17.9958,8.959,367.0868],[17.9977,8.9171,366.1687],[18.0038,8.8931,371.1572],[18.0087,8.8837,370.0268],[18.0097,8.8737,370.9355],[18.019,8.844,370.9634],[18.0248,8.8406,371.6107],[18.0279,8.8303,372.3184],[18.0426,8.8094,373.8477],[18.0518,8.8026,372.9504],[18.0585,8.7952,370.1831],[18.0615,8.7851,371.5945],[18.0617,8.763,371.0831],[18.0525,8.7324,372.1924],[18.0493,8.7142,371.5462],[18.0489,8.6605,373.7096],[18.0573,8.6332,374.3855],[18.0638,8.5995,374.7173]]]]}}