{"type":"Feature","properties":{"GID_3":"TCD.20.2.3_1","GID_0":"TCD","country":"Chad","GID_1":"TCD.20_1","province":"Tandjilé","NL_NAME_1":"NA","GID_2":"TCD.20.2_1","county":"TandjiléEst","NL_NAME_2":"NA","city":"Dormon","VARNAME_3":"NA","NL_NAME_3":"NA","TYPE_3":"Sub-prefecture","ENGTYPE_3":"Sub-prefecture","CC_3":"NA","HASC_3":"NA","name":"Dormon.city"},
"geometry":{"type": "MultiPolygon","coordinates": [[[[16.6101,9.4701,351.9162],[16.5995,9.4823,351.2229],[16.5946,9.479,352.1542],[16.5689,9.47,352.3389],[16.5466,9.4601,352.7242],[16.5077,9.4371,354.6406],[16.4855,9.4151,356.1896],[16.4795,9.4109,356.0915],[16.4797,9.372,356.8343],[16.4756,9.3562,356.7522],[16.4758,9.3213,360.3896],[16.4847,9.2975,357.9995],[16.5028,9.2783,361.9969],[16.5058,9.269,362.969],[16.5187,9.2708,361.0859],[16.5299,9.2744,363.0634],[16.5676,9.2931,361.8593],[16.5945,9.3089,355.7097],[16.5958,9.3219,361.2408],[16.6019,9.3471,354.8261],[16.6127,9.3715,359.437],[16.6096,9.3792,356.9784],[16.61,9.4374,353.1428],[16.6073,9.4673,351.7145],[16.6101,9.4701,351.9162]]]]}}