{"type":"Feature","properties":{"GID_2":"TCD.2.3_1","GID_0":"TCD","country":"Chad","GID_1":"TCD.2_1","province":"Batha","NL_NAME_1":"NA","county":"Fitri","VARNAME_2":"Djedaa","NL_NAME_2":"NA","TYPE_2":"Department","ENGTYPE_2":"Department","CC_2":"NA","HASC_2":"TD.BA.FI","name":"Fitri.county"},
"geometry":{"type": "MultiPolygon","coordinates": [[[[18.466,13.422,336.9965],[18.566,13.398,337.8111],[18.637,13.358,341.153],[18.766,13.331,346.8111],[18.846,13.423,349.3728],[18.896,13.551,350.7895],[18.909,13.674,349.1914],[18.943,13.885,348.5945],[18.974,14.064,350.9891],[18.99,14.215,347.6998],[19.372,14.622,360.3961],[19.504,14.74,364.6904],[19.662,14.929,370.6092],[19.804,15.137,378.2955],[19.899,15.316,384.1512],[20.028,15.572,393.8312],[20.044,15.661,395.8506],[20.043,15.742,393.0444],[19.865,15.773,388.1422],[19.749,15.813,377.6882],[19.705,15.816,378.4165],[19.626,15.827,373.6362],[19.559,15.843,368.4338],[19.483,15.92,362.0444],[19.433,16.007,362.2748],[19.402,16.081,350.8624],[19.355,16.109,351.312],[19.2741,16.097,347.8762],[19.2811,16.0091,358.307],[19.2701,15.9161,356.5922],[19.2531,15.8291,352.2906],[19.2191,15.7361,352.3477],[19.1561,15.6291,351.988],[19.09,15.545,348.2359],[19.027,15.488,347.4782],[18.926,15.415,347.5593],[18.801,15.354,336.8184],[18.651,15.314,332.1689],[18.497,15.309,308.1888],[18.341,15.328,293.9366],[18.238,15.363,279.404],[18.143,15.414,269.2956],[18.051,15.476,254.0689],[17.586,13.76,302.0954],[17.271,13.662,301.1361],[17.234,13.427,300.5247],[17.371,13.473,300.174],[17.45,13.497,305.0779],[17.533,13.48,304.2411],[17.612,13.456,302.5169],[17.757,13.481,304.5004],[17.967,13.482,309.6087],[18.014,13.477,312.9259],[18.069,13.525,322.5416],[18.098,13.529,319.3005],[18.116,13.537,328.3568],[18.165,13.552,329.6436],[18.247,13.463,329.2791],[18.289,13.468,330.4584],[18.34,13.447,332.1059],[18.405,13.45,334.5145],[18.466,13.422,336.9965]]]]}}