{"type": "Feature","bbox": [18.7731,9.6852,19.4018,9.988],"geometry": {"type": "MultiPolygon","coordinates": [[[[18.794,9.879,380.3649],[18.7984,9.8502,381.3087],[18.8001,9.7759,377.7894],[18.7944,9.7554,375.9616],[18.776,9.7335,375.6737],[18.7731,9.7227,375.5075],[18.807,9.7004,396.7482],[18.8356,9.7078,402.4836],[18.8864,9.6863,403.0504],[18.9236,9.6852,394.7954],[18.9689,9.7032,388.5355],[18.9838,9.7217,379.957],[19.0253,9.7225,399.7384],[19.0535,9.7273,385.4776],[19.1644,9.7038,383.7334],[19.1922,9.7006,381.2675],[19.2123,9.7099,386.0173],[19.2465,9.7734,385.3177],[19.2651,9.7974,384.9105],[19.2912,9.8088,386.6079],[19.3435,9.8169,387.5746],[19.3683,9.8304,388.0904],[19.3937,9.8522,387.6822],[19.4018,9.8692,388.0221],[19.3997,9.8992,389.0983],[19.3685,9.9231,388.3222],[19.353,9.9446,389.8475],[19.3334,9.9563,390.463],[19.2954,9.9542,387.6415],[19.2701,9.9477,389.2593],[19.2445,9.9316,388.3721],[19.2201,9.9226,387.671],[19.1948,9.9001,386.7675],[19.1698,9.8832,385.2],[19.1488,9.8831,386.4196],[19.1173,9.8648,384.7327],[19.1034,9.8427,384.8378],[19.0856,9.8302,383.7252],[19.0562,9.8185,382.4591],[19.0357,9.8127,383.7027],[19.004,9.8113,380.0859],[18.985,9.823,381.5503],[18.9631,9.8212,381.979],[18.9388,9.8151,382.2103],[18.9283,9.8327,380.2074],[18.9797,9.8958,383.495],[19.0035,9.9291,380.5641],[19.0189,9.947,382.3051],[19.0354,9.988,383.0174],[18.825,9.988,383.7515],[18.794,9.879,380.3649]]]]}
,"properties": {"GID_3": "TCD.16.3.1_1","GID_0": "TCD","country": "Chad","GID_1": "TCD.16_1","province": "Moyen-Chari","NL_NAME_1": "NA","GID_2": "TCD.16.3_1","county": "LacIro","NL_NAME_2": "NA","city": "Alako","VARNAME_3": "NA","NL_NAME_3": "NA","TYPE_3": "Sub-prefecture","ENGTYPE_3": "Sub-prefecture","CC_3": "NA","HASC_3": "NA","name": "Alako.city","area_km2": 1336.38,"hist_schema_id": "Elevation0-9000","hist_area_km2": {"375": 1150.349,"400": 185.844,"425": 0.188}}}