{"type": "Feature","bbox": [15.4224,9.9828,16.0051,10.3089],"geometry": {"type": "MultiPolygon","coordinates": [[[[15.6521,10.026,334.0439],[15.6678,10.028,334.5488],[15.6699,10.0374,334.3949],[15.667,10.0439,334.2788],[15.6741,10.0549,333.9283],[15.7005,10.0675,333.6716],[15.7096,10.0741,333.2363],[15.7259,10.0762,333.5967],[15.7601,10.0319,335.3795],[15.7725,10.0069,336.3185],[15.7779,9.9917,335.9695],[15.7839,9.9857,336.3511],[15.7967,9.9828,337.1472],[15.8043,9.9832,336.6332],[15.8259,9.9915,337.0689],[15.8715,10.014,336.5515],[15.9058,10.0246,337.9217],[15.9272,10.0517,337.8922],[15.9714,10.0864,336.1817],[16.0051,10.127,336.1092],[15.9888,10.1726,334.8413],[15.9815,10.1985,333.9286],[15.976,10.2264,332.4574],[15.9763,10.2477,332.5208],[15.9712,10.2601,332.8012],[15.9694,10.286,331.6017],[15.9512,10.2836,331.6948],[15.9215,10.2865,331.8111],[15.8782,10.2968,331.1241],[15.838,10.3017,330.9248],[15.8198,10.3089,330.9351],[15.8189,10.3019,331.0318],[15.8012,10.2884,330.8745],[15.7294,10.2499,330.7462],[15.7032,10.2377,333.3936],[15.624,10.2074,328.1846],[15.5905,10.2052,329.9043],[15.5661,10.2066,329.2622],[15.51,10.2258,327.9829],[15.448,10.2163,328.2114],[15.4224,10.2144,327.6004],[15.4275,10.2054,325.3754],[15.441,10.1993,326.8116],[15.4504,10.1897,326.0774],[15.4612,10.1595,329.056],[15.4676,10.152,329.2539],[15.4806,10.1436,329.5909],[15.4842,10.1376,329.6154],[15.4841,10.1295,329.902],[15.4871,10.1237,327.9855],[15.4963,10.1234,329.8638],[15.5018,10.1149,329.0714],[15.5091,10.1083,330.5552],[15.5108,10.0956,327.8729],[15.5125,10.0936,330.0288],[15.517,10.0945,330.7925],[15.5258,10.1012,329.0738],[15.5367,10.0988,332.3624],[15.5487,10.0853,330.9675],[15.557,10.0811,331.709],[15.564,10.0679,328.5695],[15.5722,10.0673,329.7617],[15.5774,10.0693,328.5],[15.5833,10.0682,331.1902],[15.5941,10.06,332.7083],[15.596,10.051,331.944],[15.5998,10.0463,331.5624],[15.6115,10.0485,329.5],[15.6185,10.0468,333.4058],[15.6521,10.026,334.0439]]]]}
,"properties": {"GID_3": "TCD.14.2.14_1","GID_0": "TCD","country": "Chad","GID_1": "TCD.14_1","province": "Mayo-KebbiEst","NL_NAME_1": "NA","GID_2": "TCD.14.2_1","county": "Mayo-Boneye","NL_NAME_2": "NA","city": "Tougoude","VARNAME_3": "NA","NL_NAME_3": "NA","TYPE_3": "Sub-prefecture","ENGTYPE_3": "Sub-prefecture","CC_3": "NA","HASC_3": "NA","name": "Tougoude.city","area_km2": 1283.0667,"hist_schema_id": "Elevation0-9000","hist_area_km2": {"325": 1274.278,"350": 8.7887}}}