{"type": "Feature","bbox": [15.738,11.472,16.797,12.305],"geometry": {"type": "MultiPolygon","coordinates": [[[[16.797,11.874,325.781],[16.79,11.904,317.8187],[16.744,11.932,318.2285],[16.708,11.995,316.1006],[16.725,12.133,308.4584],[16.695,12.198,303.9737],[16.666,12.229,301.8358],[16.493,12.296,296.2957],[16.45,12.305,295.1011],[16.362,12.217,295.0902],[16.306,12.198,296.5041],[16.248,12.195,296.9469],[16.173,12.187,296.1904],[16.09,12.166,298.04],[15.974,12.158,297.4058],[15.885,12.146,298.1713],[15.824,12.129,297.7111],[15.771,12.102,298.2897],[15.744,12.086,299.0122],[15.741,11.994,297.8586],[15.753,11.92,302.2419],[15.743,11.836,305.638],[15.738,11.737,318.4394],[15.769,11.612,322.8653],[15.781,11.518,323.4045],[15.803,11.472,325.6321],[15.832,11.516,325.7008],[15.873,11.593,330.3235],[15.95,11.665,318.0952],[16.03,11.712,329.5316],[16.1,11.747,331.5188],[16.218,11.791,314.649],[16.419,11.818,312.7742],[16.508,11.803,314.1837],[16.533,11.811,315.7049],[16.632,11.818,316.6855],[16.715,11.83,319.5126],[16.797,11.874,325.781]]]]}
,"properties": {"GID_3": "TCD.4.1.4_1","GID_0": "TCD","country": "Chad","GID_1": "TCD.4_1","province": "Chari-Baguirmi","NL_NAME_1": "NA","GID_2": "TCD.4.1_1","county": "Baguirmi","NL_NAME_2": "NA","city": "Dourbali/Abouguerne","VARNAME_3": "NA","NL_NAME_3": "NA","TYPE_3": "Sub-prefecture","ENGTYPE_3": "Sub-prefecture","CC_3": "NA","HASC_3": "NA","name": "Dourbali_Abouguerne.city","area_km2": 5447.195,"hist_schema_id": "Elevation0-9000","hist_area_km2": {"300": 3762.055,"325": 1685.015,"350": 0.124}}}