{"type": "Feature","bbox": [17.046,8.5264,17.2541,8.695],"geometry": {"type": "MultiPolygon","coordinates": [[[[17.13,8.545,387.6786],[17.1401,8.5276,383.1804],[17.1575,8.5301,384.1193],[17.174,8.5301,385.6077],[17.1916,8.5264,397.3909],[17.1967,8.5272,400.8806],[17.205,8.5342,404.0686],[17.2159,8.5344,411.1038],[17.2233,8.537,416.3555],[17.2245,8.5426,414.1439],[17.2234,8.5565,414.7315],[17.2246,8.5751,413.1912],[17.2278,8.5848,410.2157],[17.2357,8.5987,415.3305],[17.251,8.634,411.9891],[17.2541,8.638,414.4606],[17.2267,8.6623,374.7076],[17.2235,8.6693,380.3411],[17.2192,8.695,380.285],[17.2044,8.6906,380.476],[17.1948,8.685,378.3448],[17.1711,8.6805,378.9142],[17.1454,8.6721,377.1091],[17.1002,8.6509,383.5357],[17.046,8.631,385.2645],[17.13,8.545,387.6786]]]]}
,"properties": {"GID_3": "TCD.13.2.3_1","GID_0": "TCD","country": "Chad","GID_1": "TCD.13_1","province": "Mandoul","NL_NAME_1": "NA","GID_2": "TCD.13.2_1","county": "MandoulOccidental","NL_NAME_2": "NA","city": "Bedjondo","VARNAME_3": "NA","NL_NAME_3": "NA","TYPE_3": "Sub-prefecture","ENGTYPE_3": "Sub-prefecture","CC_3": "NA","HASC_3": "NA","name": "Bedjondo.city","area_km2": 248.8555,"hist_schema_id": "Elevation0-9000","hist_area_km2": {"375": 200.0915,"400": 46.374,"425": 2.39}}}