{"type": "Feature","bbox": [19.6984,9.0953,21.455,10.1572],"geometry": {"type": "MultiPolygon","coordinates": [[[[20.8045,9.4425,398.6329],[20.8174,9.428,403.9758],[20.8273,9.4304,399.2944],[20.8277,9.4405,399.388],[20.8248,9.4511,404.3549],[20.8269,9.4628,402.9975],[20.8395,9.48,403.7048],[20.8447,9.4844,403.6924],[20.8496,9.4856,405.7405],[20.8554,9.4824,406.7764],[20.8626,9.4841,406.6653],[20.8664,9.4874,404.3364],[20.864,9.4989,405.0672],[20.8687,9.5072,406.9542],[20.8745,9.5114,405.981],[20.8765,9.5151,405.9843],[20.8737,9.5201,407.1131],[20.8746,9.5233,407.6527],[20.8773,9.5252,407.2085],[20.8949,9.5261,406.9101],[20.8993,9.528,405.45],[20.9065,9.5283,407.6486],[20.9153,9.5254,408.7141],[20.9194,9.5285,409.5737],[20.9219,9.5333,405.6798],[20.919,9.5406,406.692],[20.9195,9.545,408.4652],[20.9244,9.5538,409.147],[20.9243,9.5641,407.4922],[20.9275,9.5711,406.4735],[20.9312,9.5723,407.2369],[20.9367,9.5707,407.3964],[20.9442,9.5635,406.539],[20.9516,9.5679,410.4591],[20.9543,9.576,409.417],[20.9553,9.5868,409.2939],[20.9501,9.6138,407.0569],[20.9515,9.6164,408.9192],[20.9545,9.6187,410.0683],[20.9609,9.6192,410.407],[20.9783,9.6171,410.3376],[20.988,9.6207,410.824],[20.9907,9.6267,413.0219],[20.9874,9.6343,413.8691],[20.9719,9.6357,409.2457],[20.9686,9.6386,409.9556],[20.9671,9.6425,411.5663],[20.9703,9.6472,412.585],[20.9752,9.6479,412.648],[20.9824,9.6445,412.4333],[20.9889,9.6439,412.8168],[20.9937,9.6456,411.9466],[20.9962,9.6502,412.2915],[20.9936,9.6548,410.5894],[20.986,9.6574,413.0873],[20.9811,9.6611,409.6349],[20.9815,9.6654,410.533],[20.995,9.6789,411.7512],[20.9986,9.6849,413.2935],[20.9939,9.6906,411.3408],[20.9876,9.694,411.9393],[20.9742,9.6955,410.7631],[20.9697,9.6977,411.3552],[20.9678,9.7023,410.2891],[20.9694,9.7057,404.186],[20.9722,9.706,410.4489],[20.9808,9.7013,410.637],[21.0019,9.702,411.965],[21.0044,9.7057,414.5312],[21.0008,9.7158,407.6433],[20.993,9.7272,407.8684],[20.9915,9.7349,406.4047],[20.995,9.747,409.1437],[21.0103,9.7322,410.8534],[21.021,9.7286,407.0813],[21.0305,9.7285,408.3659],[21.0363,9.732,413.5465],[21.0385,9.7376,410.0574],[21.0383,9.741,406.7758],[21.0249,9.7585,407.6744],[21.0238,9.765,409.376],[21.0254,9.7693,410.3629],[21.0305,9.774,409.5881],[21.0392,9.7766,409.8833],[21.0492,9.7728,407.0772],[21.0581,9.7665,406.4107],[21.0632,9.7654,406.5802],[21.0742,9.7786,416.0946],[21.0791,9.7789,409.6015],[21.0851,9.7764,412.792],[21.0925,9.7768,413.8734],[21.1077,9.7852,415.9163],[21.1153,9.7919,414.0259],[21.1181,9.8013,410.8459],[21.1164,9.8118,409.8772],[21.1174,9.8187,411.88],[21.1223,9.8321,410.9825],[21.1331,9.8479,413.4933],[21.1522,9.8663,411.5323],[21.1772,9.8841,412.3232],[21.1838,9.8918,411.3308],[21.1901,9.89,411.6389],[21.199,9.8953,416.1117],[21.2031,9.9014,416.3817],[21.2044,9.9087,412.2406],[21.2007,9.9264,412.3682],[21.2028,9.9308,411.9757],[21.2118,9.9357,412.9059],[21.2133,9.9408,412.2358],[21.2125,9.9477,411.452],[21.2148,9.9514,412.737],[21.234,9.9578,413.4692],[21.2425,9.9654,414.1082],[21.2429,9.9694,414.5809],[21.2494,9.9749,413.0363],[21.2513,9.9864,413.3007],[21.254,9.9904,413.7414],[21.2628,9.9937,416.8154],[21.2826,9.9856,415.826],[21.2878,9.9772,416.5935],[21.2927,9.9754,415.6014],[21.2944,9.9713,414.9005],[21.2979,9.9681,416.6129],[21.3018,9.9693,414.7574],[21.3048,9.9734,415.528],[21.3095,9.99,421.8577],[21.317,9.9853,415.0596],[21.3208,9.9722,416.2201],[21.3243,9.9709,417.0046],[21.3301,9.9719,416.0883],[21.3364,9.9653,416.6043],[21.3406,9.9637,417.4186],[21.3475,9.9656,416.8275],[21.3547,9.9703,416.4903],[21.3594,9.985,416.8995],[21.3624,9.989,415.4951],[21.3691,9.9844,417.0981],[21.3733,9.9838,418.8583],[21.3773,9.9852,422.4028],[21.3938,10.0012,418.0717],[21.396,10.013,417.8941],[21.4022,10.0167,416.9761],[21.4045,10.0213,418.1307],[21.4037,10.0344,419.2958],[21.4078,10.0411,417.3805],[21.416,10.0483,420.4916],[21.4204,10.0502,420.0037],[21.4297,10.0473,418.5563],[21.432,10.0487,418.8265],[21.4331,10.0543,419.012],[21.4375,10.0594,418.7081],[21.4378,10.0732,419.3158],[21.4414,10.0808,419.1118],[21.4451,10.083,420.0078],[21.4534,10.0831,423.3604],[21.455,10.087,419.4717],[21.4233,10.096,424.5181],[21.3922,10.1073,425.7208],[21.3613,10.129,422.7503],[21.3416,10.1555,424.4149],[21.3093,10.1572,423.6455],[21.2746,10.1506,423.1312],[21.2246,10.1515,424.3087],[21.1741,10.1458,423.5081],[21.1354,10.1547,422.0738],[21.0821,10.1492,419.7672],[21.0181,10.1343,419.4013],[21.008,10.0984,418.6358],[21.0056,10.0664,419.3157],[20.9935,10.0399,415.067],[20.9668,10.0261,417.1777],[20.8797,10.0273,417.969],[20.7765,10.0425,414.4424],[20.7402,10.0347,412.9529],[20.7234,10.0178,414.0292],[20.7038,10.0046,412.0244],[20.6757,9.9889,409.7937],[20.6547,9.9877,411.0921],[20.6325,9.9796,410.6039],[20.6126,9.9792,410.4951],[20.5481,9.9873,409.1811],[20.5366,9.9905,409.5794],[20.4848,9.9946,408.151],[20.4704,9.9939,408.9583],[20.4541,9.9995,408.9957],[20.4107,10.003,410.0977],[20.327,10.0042,406.9348],[20.2943,10.0014,409.338],[20.2256,10.0081,400.3068],[20.1893,10.0136,403.243],[20.1673,10.0133,403.7257],[20.1459,10.0094,395.0913],[20.1091,9.9864,399.7737],[20.0818,9.9762,402.3128],[20.0549,9.9815,403.3517],[20.0311,9.9753,399.2697],[19.9999,9.9806,398.9891],[19.9802,9.9868,400.4309],[19.9197,9.9729,398.7906],[19.8749,9.9677,397.2239],[19.8325,9.9584,395.0765],[19.7726,9.9304,395.9817],[19.727,9.9179,393.0842],[19.6984,9.9121,392.3088],[19.923,9.269,387.0109],[19.9854,9.0953,383.4006],[19.9979,9.1164,382.8379],[20.0071,9.1029,382.9816],[20.0091,9.1049,382.9412],[20.0113,9.1116,383.8878],[20.0106,9.1237,384.208],[20.0124,9.1261,384.7889],[20.0182,9.1278,384.743],[20.0298,9.127,383.2985],[20.0358,9.1282,382.4341],[20.0469,9.1404,383.7055],[20.0527,9.1425,384.6539],[20.0578,9.1417,382.0243],[20.0713,9.1324,384.5503],[20.0815,9.1333,384.9348],[20.0881,9.1389,383.9384],[20.0935,9.1498,384.9268],[20.1015,9.1565,385.5255],[20.1049,9.1564,386.2392],[20.1089,9.1532,385.61],[20.1132,9.1457,384.9761],[20.1174,9.1425,386.5077],[20.1306,9.1381,385.4003],[20.1392,9.138,386.0976],[20.1475,9.1407,385.9641],[20.1528,9.139,387.2493],[20.1799,9.1375,384.9537],[20.1912,9.1391,388.0243],[20.2074,9.1506,387.7938],[20.2212,9.1518,386.0856],[20.2294,9.1471,386.6635],[20.2387,9.1459,385.9933],[20.2477,9.1323,384.9852],[20.2624,9.1245,385.6388],[20.2736,9.1221,386.067],[20.3034,9.1215,386.9619],[20.3246,9.1255,389.8868],[20.3319,9.1325,388.7962],[20.3367,9.1333,392.8508],[20.3463,9.1276,389.514],[20.3532,9.1282,388.0324],[20.378,9.14,388.1049],[20.3878,9.1484,388.92],[20.3929,9.1506,393.0439],[20.4104,9.1533,389.9248],[20.4342,9.1539,389.1218],[20.4439,9.1595,390.9788],[20.4559,9.1735,390.0359],[20.4703,9.2212,392.3056],[20.4827,9.2411,392.704],[20.4981,9.2721,392.6706],[20.4977,9.2785,391.3117],[20.4915,9.2922,390.6821],[20.4912,9.2968,393.6346],[20.4962,9.3049,395.0044],[20.4958,9.3071,391.03],[20.5083,9.3033,392.2248],[20.5182,9.3045,395.2751],[20.5239,9.3076,391.8549],[20.5269,9.3134,392.3635],[20.5275,9.3191,392.6581],[20.5248,9.332,393.199],[20.5286,9.3371,390.8011],[20.5346,9.3374,394.1224],[20.5407,9.3333,392.7689],[20.5435,9.3336,392.2405],[20.5485,9.3373,392.4189],[20.5607,9.3297,392.595],[20.5674,9.3302,393.002],[20.5715,9.3335,394.6103],[20.5758,9.3414,392.8425],[20.5809,9.3428,393.6151],[20.5841,9.3403,393.1277],[20.5882,9.3328,392.9601],[20.5942,9.3294,393.2989],[20.5997,9.3198,394.3953],[20.6043,9.3165,394.0652],[20.6379,9.3178,399.6627],[20.6406,9.3231,397.6083],[20.6375,9.3263,397.2563],[20.6285,9.3285,394.8608],[20.6235,9.3346,395.1459],[20.6262,9.339,396.5228],[20.6304,9.3409,395.2183],[20.6413,9.3399,400.4164],[20.6477,9.3423,402.8915],[20.6502,9.3469,400.9903],[20.652,9.3674,396.7796],[20.6628,9.3953,403.9657],[20.6669,9.3983,404.3621],[20.6919,9.3991,395.7481],[20.7054,9.3954,396.5453],[20.7129,9.4024,396.8255],[20.7192,9.402,397.4411],[20.7289,9.3966,397.475],[20.7335,9.3973,397.262],[20.7404,9.4023,397.5111],[20.7451,9.4018,397.9185],[20.7481,9.3994,399.0117],[20.7608,9.4011,397.6661],[20.7681,9.4079,397.5852],[20.7699,9.4146,399.4594],[20.767,9.4246,398.3398],[20.7681,9.4281,398.1882],[20.7804,9.4294,398.2205],[20.7932,9.4417,398.6165],[20.7982,9.4434,399.6906],[20.8045,9.4425,398.6329]]]]}
,"properties": {"GID_3": "TCD.18.3.3_1","GID_0": "TCD","country": "Chad","GID_1": "TCD.18_1","province": "Salamat","NL_NAME_1": "NA","GID_2": "TCD.18.3_1","county": "HarazeMangueigne","NL_NAME_2": "NA","city": "Kouga-Tchad","VARNAME_3": "NA","NL_NAME_3": "NA","TYPE_3": "Sub-prefecture","ENGTYPE_3": "Sub-prefecture","CC_3": "NA","HASC_3": "NA","name": "Kouga-Tchad.city","area_km2": 11705.865,"hist_schema_id": "Elevation0-9000","hist_area_km2": {"375": 93.047,"400": 9974.542,"425": 1638.276}}}