{"type":"Feature","properties":{"GID_3":"TCD.8.3.2_1","GID_0":"TCD","country":"Chad","GID_1":"TCD.8_1","province":"Hadjer-Lamis","NL_NAME_1":"NA","GID_2":"TCD.8.3_1","county":"HarazeAlBiar","NL_NAME_2":"NA","city":"Mani","VARNAME_3":"NA","NL_NAME_3":"NA","TYPE_3":"Sub-prefecture","ENGTYPE_3":"Sub-prefecture","CC_3":"NA","HASC_3":"NA","name":"Mani.city"},
"geometry":{"type": "MultiPolygon","coordinates": [[[[14.7143,12.6875,288.8636],[14.71,12.6839,288.063],[14.7055,12.6755,287.0906],[14.706,12.6643,282.0536],[14.7103,12.6572,286.0823],[14.7183,12.6534,288.548],[14.7264,12.6561,288.1528],[14.7307,12.6594,287.7385],[14.7331,12.6652,288.415],[14.735,12.6802,287.1211],[14.7422,12.6851,288.1364],[14.7473,12.6854,289.2031],[14.7542,12.6814,282.6509],[14.7574,12.6755,286.6318],[14.762,12.6598,283.3066],[14.7635,12.6416,285.128],[14.7689,12.6345,286.6969],[14.7769,12.6296,288.4183],[14.7904,12.6283,285.8013],[14.8239,12.6335,289.7836],[14.831,12.6295,288.8094],[14.8359,12.6177,282.875],[14.8377,12.5972,283.0],[14.8422,12.5821,283.0],[14.8527,12.5596,283.9639],[14.854,12.5451,288.9908],[14.8512,12.5134,284.0],[14.857,12.5035,284.0],[14.8592,12.4923,284.5],[14.8582,12.48,290.4669],[14.8476,12.4735,289.6422],[14.845,12.4697,284.5],[14.8443,12.4636,286.6662],[14.8461,12.4567,286.636],[14.8502,12.449,289.7702],[14.8552,12.446,289.6495],[14.8611,12.4473,290.4895],[14.8646,12.4512,289.991],[14.8659,12.4606,288.6398],[14.8725,12.4626,289.758],[14.877,12.4604,286.256],[14.8799,12.4539,285.0],[14.8783,12.4387,285.0],[14.8807,12.4266,287.3936],[14.9,12.3984,285.5],[14.9096,12.3762,288.8732],[14.9067,12.362,290.6303],[14.9013,12.3499,291.1546],[14.9009,12.3409,290.0703],[14.9039,12.3351,289.8406],[14.9105,12.3297,287.995],[14.9104,12.3249,290.3963],[14.9021,12.3135,291.1174],[14.8937,12.3059,286.0],[14.8932,12.3024,286.0],[14.8961,12.2944,288.5369],[14.905,12.2814,291.0866],[14.9066,12.2693,289.4151],[14.9054,12.2633,291.6375],[14.9,12.2567,291.1343],[14.898,12.2513,291.2579],[14.8965,12.2431,286.0],[14.8968,12.2397,290.6433],[14.9031,12.2279,287.695],[14.9037,12.2203,293.6768],[14.9023,12.2153,291.9813],[14.8955,12.2065,291.5662],[14.8931,12.2004,286.25],[14.8976,12.191,292.9893],[14.9064,12.1876,291.4755],[14.9007,12.2002,292.7068],[14.9,12.2055,291.5931],[14.9049,12.2175,294.1061],[14.9061,12.2253,292.5177],[14.961,12.244,291.793],[14.987,12.298,291.3294],[15.002,12.336,292.1104],[15.051,12.364,291.6423],[15.108,12.368,291.047],[15.173,12.387,292.0482],[15.221,12.422,289.3275],[15.248,12.436,291.3359],[15.292,12.474,290.6261],[15.258,12.528,289.1428],[15.26,12.589,288.7074],[15.184,12.64,287.7371],[15.105,12.724,288.8593],[15.002,12.81,286.6973],[14.899,12.812,284.5735],[14.843,12.85,286.5867],[14.839,12.874,283.9276],[14.835,12.993,280.7745],[14.5168,12.9949,281.386],[14.5334,12.9705,281.6108],[14.5329,12.9665,281.6617],[14.5292,12.961,281.8945],[14.5397,12.937,281.3929],[14.5516,12.9343,281.5793],[14.5527,12.9262,281.9055],[14.5616,12.9149,282.1289],[14.5641,12.9077,282.2438],[14.5642,12.8899,283.5499],[14.5716,12.8838,280.4121],[14.5701,12.8801,283.8204],[14.56,12.8806,284.7725],[14.5577,12.8787,281.7338],[14.5564,12.8593,282.2644],[14.566,12.8367,283.5684],[14.5648,12.8267,287.8973],[14.5612,12.8182,285.4652],[14.5529,12.8073,282.7689],[14.5474,12.796,280.0],[14.5483,12.7872,280.0],[14.5518,12.7801,282.5048],[14.5569,12.7727,288.394],[14.5597,12.7709,285.9818],[14.5664,12.7781,282.9105],[14.5697,12.7793,283.2918],[14.5726,12.7796,283.6458],[14.5769,12.7762,280.5],[14.579,12.7702,280.5],[14.578,12.7561,285.8617],[14.5817,12.75,285.1271],[14.5885,12.7447,285.8616],[14.5952,12.7439,286.3903],[14.6013,12.7478,287.4982],[14.6148,12.7677,281.558],[14.6218,12.7704,287.5103],[14.6247,12.7684,283.6481],[14.6256,12.7606,285.1983],[14.6209,12.7469,284.141],[14.6171,12.7435,284.3614],[14.6176,12.7374,286.1119],[14.6216,12.7365,285.6445],[14.6343,12.7387,284.6205],[14.6374,12.7377,284.7071],[14.6465,12.7308,283.6185],[14.6532,12.7224,286.4507],[14.663,12.7186,288.3486],[14.676,12.7178,283.0326],[14.7036,12.7239,288.8439],[14.7175,12.719,284.549],[14.724,12.711,284.1047],[14.7259,12.7073,281.5],[14.7259,12.7032,287.8147],[14.724,12.6979,288.7809],[14.7143,12.6875,288.8636]]]]}}