{"type": "Feature","bbox": [16.596,9.071,16.772,9.2131],"geometry": {"type": "MultiPolygon","coordinates": [[[[16.772,9.071,471.314],[16.7686,9.0797,465.6347],[16.7503,9.0993,461.5541],[16.7265,9.1153,459.5044],[16.7035,9.1395,463.5483],[16.6795,9.1557,444.5472],[16.6716,9.1646,430.629],[16.6642,9.1688,420.2141],[16.647,9.1853,407.3289],[16.6424,9.1872,412.2726],[16.6325,9.1998,412.3672],[16.6173,9.2131,396.0573],[16.6098,9.1951,404.8398],[16.6091,9.1889,407.1716],[16.6041,9.1772,408.7872],[16.5992,9.162,417.9664],[16.5989,9.1551,426.7156],[16.596,9.149,432.51369999999997],[16.624,9.125,460.9213],[16.654,9.106,494.6443],[16.684,9.113,499.8199],[16.772,9.071,471.314]]]]}
,"properties": {"GID_3": "TCD.20.2.9_1","GID_0": "TCD","country": "Chad","GID_1": "TCD.20_1","province": "Tandjilé","NL_NAME_1": "NA","GID_2": "TCD.20.2_1","county": "TandjiléEst","NL_NAME_2": "NA","city": "Koro-Tchad","VARNAME_3": "NA","NL_NAME_3": "NA","TYPE_3": "Sub-prefecture","ENGTYPE_3": "Sub-prefecture","CC_3": "NA","HASC_3": "NA","name": "Koro-Tchad.city","area_km2": 92.75388,"hist_schema_id": "Elevation0-9000","hist_area_km2": {"400": 7.34649,"425": 26.89691,"450": 21.51932,"475": 27.82195,"500": 8.18531,"525": 0.66989,"550": 0.31401}}}