{"type": "Feature","bbox": [15.2544,10.4918,15.8792,10.7921],"geometry": {"type": "MultiPolygon","coordinates": [[[[15.2933,10.5871,315.8681],[15.3147,10.5856,315.8059],[15.3485,10.5918,315.6584],[15.3836,10.6007,315.365],[15.4047,10.6026,315.4482],[15.4334,10.5858,315.7539],[15.4631,10.5647,316.8801],[15.4787,10.5477,318.7874],[15.4948,10.5252,320.0071],[15.5146,10.5192,320.5403],[15.551,10.5322,319.6467],[15.6041,10.5434,323.5558],[15.6283,10.5394,325.0536],[15.691,10.497,324.7956],[15.7111,10.4918,322.1316],[15.7399,10.503,325.5794],[15.7922,10.5328,325.7829],[15.8083,10.5314,323.6883],[15.8274,10.5206,324.4785],[15.8465,10.5131,327.8542],[15.8599,10.5037,327.9328],[15.8792,10.507,328.246],[15.865,10.5229,324.0091],[15.8286,10.5439,327.0013],[15.8132,10.5491,325.8593],[15.7869,10.5537,324.9942],[15.7676,10.553,325.457],[15.7498,10.555,326.4108],[15.7296,10.5623,327.3251],[15.7275,10.5856,326.7115],[15.7138,10.6409,326.0426],[15.6949,10.7032,326.2135],[15.685,10.7156,322.6883],[15.6672,10.7284,322.2753],[15.6467,10.7411,320.6473],[15.6209,10.7436,319.4892],[15.5381,10.7429,316.0946],[15.4908,10.7466,315.9661],[15.4607,10.774,314.3219],[15.4371,10.753,314.7831],[15.4277,10.7419,314.1719],[15.4196,10.7274,314.619],[15.4136,10.6999,314.2539],[15.3993,10.6978,313.5701],[15.3751,10.715,313.9084],[15.3709,10.727,312.7123],[15.3575,10.7435,312.3211],[15.3477,10.7591,311.8042],[15.327,10.7774,313.3099],[15.3151,10.7921,312.113],[15.2858,10.769,311.7679],[15.2682,10.751,311.7604],[15.2612,10.7372,311.9528],[15.262,10.73,312.2798],[15.2754,10.7184,312.4476],[15.2748,10.7015,312.5858],[15.2566,10.6827,313.8818],[15.2547,10.6649,313.7209],[15.2605,10.6502,314.7646],[15.2544,10.6365,315.025],[15.2592,10.6196,314.9754],[15.2789,10.6024,315.1589],[15.2933,10.5871,315.8681]]]]}
,"properties": {"GID_3": "TCD.14.2.9_1","GID_0": "TCD","country": "Chad","GID_1": "TCD.14_1","province": "Mayo-KebbiEst","NL_NAME_1": "NA","GID_2": "TCD.14.2_1","county": "Mayo-Boneye","NL_NAME_2": "NA","city": "Magao","VARNAME_3": "NA","NL_NAME_3": "NA","TYPE_3": "Sub-prefecture","ENGTYPE_3": "Sub-prefecture","CC_3": "NA","HASC_3": "NA","name": "Magao.city","area_km2": 1090.9764,"hist_schema_id": "Elevation0-9000","hist_area_km2": {"300": 55.7015,"325": 1035.2749}}}