{"type": "Feature","bbox": [13.4735,12.993,15.042,14.5158],"geometry": {"type": "MultiPolygon","coordinates": [[[[14.5168,12.9949,281.386],[14.835,12.993,280.7745],[15.019,12.996,280.7685],[15.042,13.111,279.6314],[15.042,13.171,283.8838],[15.001,13.227,284.9877],[15.009,13.244,286.179],[14.952,13.307,277.9649],[14.872,13.414,279.7479],[14.827,13.509,292.8746],[14.793,13.635,293.3503],[14.66,13.876,307.6376],[14.554,13.996,301.0393],[14.489,14.093,308.0615],[14.355,14.125,296.6594],[14.325,14.183,301.9528],[14.25,14.2,295.2995],[14.216,14.267,301.0387],[14.159,14.285,297.3889],[14.144,14.354,302.0349],[14.077,14.416,303.9973],[14.027,14.42,300.4708],[13.999,14.466,304.0053],[13.806,14.467,294.7903],[13.776,14.506,296.7492],[13.6442,14.5158,291.3395],[13.6332,14.5105,288.9311],[13.6009,14.5023,289.8951],[13.5721,14.5057,290.2184],[13.4934,14.4746,286.475],[13.4788,14.4601,287.3344],[13.4751,14.452,288.1178],[13.4735,14.4428,282.0005],[13.4796,14.3796,280.3333],[13.4938,14.3215,279.002],[13.4993,14.3048,276.9869],[13.501,14.2926,276.1372],[13.5571,14.0484,271.1863],[13.5636,14.0142,271.3085],[13.5907,13.9021,279.5869],[13.5945,13.8795,270.7467],[13.6208,13.7713,272.1752],[13.623,13.7559,272.8066],[13.6378,13.7015,281.795],[13.6621,13.6693,273.9669],[13.6621,13.6666,274.0618],[13.6832,13.6414,281.9061],[13.6931,13.6264,274.2463],[13.708,13.6085,282.131],[13.7122,13.6056,283.3719],[13.7155,13.5961,274.5197],[13.7519,13.545,281.7465],[13.7555,13.5378,281.5283],[13.7611,13.5332,275.4751],[13.7626,13.5284,275.5846],[13.7744,13.5117,276.0293],[13.781,13.5059,276.2083],[13.7845,13.4965,276.4044],[13.7994,13.4791,276.4564],[13.8034,13.4703,281.447],[13.8497,13.4028,282.3377],[13.8612,13.3863,281.0986],[13.8659,13.3829,280.5919],[13.8702,13.3734,279.9979],[13.8843,13.3567,279.995],[13.8893,13.3461,278.8482],[13.9669,13.2391,279.4037],[13.9744,13.229,279.4819],[13.977,13.2276,279.567],[13.9798,13.2214,279.9963],[14.025,13.1599,280.1695],[14.0484,13.1238,280.1762],[14.0519,13.1217,280.2957],[14.0677,13.0974,280.1177],[14.0721,13.0937,280.2586],[14.0829,13.0794,280.3948],[14.0888,13.0771,280.3901],[14.4598,13.0738,280.0],[14.5168,12.9949,281.386]]]]}
,"properties": {"GID_3": "TCD.10.1.1_1","GID_0": "TCD","country": "Chad","GID_1": "TCD.10_1","province": "Lac","NL_NAME_1": "NA","GID_2": "TCD.10.1_1","county": "Mamdi","NL_NAME_2": "NA","city": "Bol","VARNAME_3": "NA","NL_NAME_3": "NA","TYPE_3": "Sub-prefecture","ENGTYPE_3": "Sub-prefecture","CC_3": "NA","HASC_3": "NA","name": "Bol.city","area_km2": 16529.65,"hist_schema_id": "Elevation0-9000","hist_area_km2": {"275": 12100.32,"300": 4429.29}}}