{"type": "Feature","bbox": [16.948,11.906,17.598,12.346],"geometry": {"type": "MultiPolygon","coordinates": [[[[17.31,12.346,302.7043],[17.183,12.279,304.0892],[17.151,12.236,305.2206],[17.124,12.184,307.508],[17.086,12.172,308.2328],[17.042,12.166,308.1572],[16.982,12.134,308.8505],[16.959,12.084,309.7672],[16.948,11.934,316.5957],[16.991,11.926,317.7674],[17.172,11.919,319.5214],[17.323,11.915,330.9591],[17.395,11.906,328.5363],[17.545,11.911,336.3253],[17.542,11.95,336.4068],[17.576,12.04,334.7657],[17.598,12.125,335.4867],[17.552,12.133,328.4498],[17.504,12.158,319.8728],[17.446,12.155,317.6791],[17.411,12.184,315.6617],[17.408,12.229,312.0338],[17.388,12.27,306.7254],[17.34,12.3,304.9272],[17.31,12.346,302.7043]]]]}
,"properties": {"GID_3": "TCD.8.1.1_1","GID_0": "TCD","country": "Chad","GID_1": "TCD.8_1","province": "Hadjer-Lamis","NL_NAME_1": "NA","GID_2": "TCD.8.1_1","county": "Dababa","NL_NAME_2": "NA","city": "Amladoba","VARNAME_3": "NA","NL_NAME_3": "NA","TYPE_3": "Sub-prefecture","ENGTYPE_3": "Sub-prefecture","CC_3": "NA","HASC_3": "NA","name": "Amladoba.city","area_km2": 2226.989,"hist_schema_id": "Elevation0-9000","hist_area_km2": {"300": 680.845,"325": 1543.863,"350": 2.115,"375": 0.124,"400": 0.041}}}