{"type": "Feature","bbox": [15.2458,7.4411,17.295,9.153],"geometry": {"type": "MultiPolygon","coordinates": [[[[15.5565,7.5776,516.2236],[15.5546,7.5722,517.7152],[15.5499,7.569,519.0411],[15.5407,7.5569,516.8845],[15.5277,7.5464,514.2727],[15.5229,7.5448,518.9473],[15.5169,7.5322,530.3182],[15.5075,7.5275,527.1276],[15.5465,7.5112,584.1244],[15.5604,7.5105,567.5298],[15.6221,7.5132,652.4961],[15.6396,7.5167,667.3915],[15.6481,7.5155,682.3015],[15.66,7.5176,660.3298],[15.728,7.5191,561.2725],[15.7299,7.5162,571.5054],[15.7276,7.505,594.7529],[15.7315,7.5006,611.9489],[15.743,7.4785,603.6069],[15.7462,7.4762,605.6964],[15.7554,7.4746,637.8694],[15.7581,7.4709,664.7668],[15.759,7.4638,644.4381],[15.7664,7.4578,657.8611],[15.7691,7.458,664.0076],[15.7735,7.4628,659.1714],[15.7853,7.4619,784.6576],[15.8,7.4549,895.6274],[15.8096,7.4411,911.605],[15.813,7.4417,918.8708],[15.8167,7.4454,904.2252],[15.834,7.4456,960.5433],[15.8402,7.4506,936.9306],[15.8458,7.4522,936.4412],[15.864,7.453,966.0671],[15.8836,7.4603,904.2001],[15.9094,7.4671,822.5062],[15.9186,7.4707,821.5076],[15.931,7.4787,807.096],[15.9511,7.4837,766.7122],[15.9748,7.4833,686.0883],[15.981,7.4893,646.0237],[15.99,7.4904,641.6502],[15.9979,7.4986,628.5394],[16.0103,7.5057,596.7491],[16.0175,7.5199,586.9627],[16.0231,7.5229,581.137],[16.027,7.5299,569.5862],[16.0358,7.5308,561.5076],[16.039,7.5338,563.8173],[16.039,7.5435,571.1703],[16.0432,7.56,569.144],[16.0493,7.5707,549.3575],[16.0567,7.5776,534.8154],[16.0661,7.5819,526.6057],[16.0878,7.5892,510.4957],[16.1046,7.5916,501.0223],[16.1313,7.5908,490.9521],[16.1396,7.5949,486.4175],[16.1493,7.5958,486.071],[16.1636,7.5946,485.9493],[16.1728,7.6023,481.5788],[16.1807,7.6119,479.6102],[16.1855,7.6145,478.1865],[16.2042,7.6151,470.56],[16.2111,7.6114,465.566],[16.2332,7.6083,457.1518],[16.2355,7.6067,464.6093],[16.2511,7.6132,460.7387],[16.2618,7.6235,451.7202],[16.2777,7.6278,453.5432],[16.2865,7.6326,454.5904],[16.2922,7.6369,462.2826],[16.2967,7.6479,456.7013],[16.3015,7.6518,439.7374],[16.3119,7.6511,446.7176],[16.3414,7.662,434.037],[16.3476,7.661,443.6511],[16.3541,7.667,440.4896],[16.3571,7.6674,434.8517],[16.361,7.6644,438.1801],[16.3723,7.6669,435.4667],[16.3755,7.6659,435.6104],[16.3847,7.6712,430.5442],[16.3928,7.6711,440.2163],[16.3946,7.6782,428.5108],[16.4067,7.6858,425.8055],[16.4104,7.6942,429.9259],[16.4189,7.7038,427.5327],[16.4259,7.7091,422.502],[16.4305,7.7187,422.264],[16.4278,7.7212,422.4011],[16.4252,7.721,421.9525],[16.4174,7.7277,424.972],[16.4156,7.7342,430.368],[16.4168,7.7406,422.4435],[16.4186,7.7424,422.5594],[16.4242,7.7433,436.4835],[16.4263,7.7467,438.9153],[16.4203,7.7598,430.8836],[16.4139,7.7642,424.0967],[16.4125,7.7679,420.8761],[16.4146,7.7741,428.1306],[16.4239,7.7793,428.3361],[16.439,7.8052,422.0472],[16.4422,7.8059,419.2475],[16.4475,7.8031,422.437],[16.4553,7.8024,430.4472],[16.4574,7.7987,429.0409],[16.4541,7.7925,419.7524],[16.4562,7.7879,418.9685],[16.4598,7.7849,417.2029],[16.4891,7.7903,416.2166],[16.4926,7.7921,422.8914],[16.4947,7.7971,425.2807],[16.494,7.8031,422.966],[16.4956,7.8086,414.9192],[16.5088,7.8191,414.2459],[16.5141,7.8273,417.7724],[16.5161,7.8429,414.5949],[16.5188,7.8457,414.1426],[16.5303,7.8463,423.2402],[16.535,7.8484,425.2285],[16.5421,7.8559,412.1923],[16.5465,7.8568,412.056],[16.5527,7.8542,422.4305],[16.5606,7.8547,434.8959],[16.5631,7.8595,427.4435],[16.5608,7.8648,415.7644],[16.5636,7.8684,411.3138],[16.5774,7.87,422.9386],[16.5954,7.8784,415.0089],[16.5959,7.8802,416.9354],[16.598,7.8761,418.8564],[16.5982,7.8703,432.2984],[16.5944,7.8621,416.6892],[16.5868,7.8515,430.1184],[16.5856,7.8378,425.2957],[16.5837,7.8339,414.6983],[16.5913,7.8251,431.0306],[16.5914,7.812,426.9368],[16.5979,7.8049,429.9077],[16.5981,7.7982,429.0693],[16.5953,7.793,430.0415],[16.5968,7.7748,435.1271],[16.5945,7.7689,430.5433],[16.6124,7.7582,432.9352],[16.6177,7.7587,446.4274],[16.6271,7.7628,429.8168],[16.6313,7.7623,433.6475],[16.6384,7.7581,427.707],[16.6497,7.7482,440.2368],[16.668,7.7382,440.3927],[16.6703,7.7297,439.9279],[16.6654,7.7093,457.7252],[16.6667,7.6939,467.8947],[16.6657,7.6756,470.3079],[16.6672,7.6687,467.0976],[16.6725,7.665,469.2183],[16.6792,7.6632999999999996,477.3585],[16.6851,7.6532,475.3532],[16.6902,7.6509,491.1848],[16.7268,7.6502,474.0009],[16.7337,7.6426,476.5468],[16.7357,7.6366,463.599],[16.7387,7.6332,466.3081],[16.7481,7.6285,464.491],[16.7515,7.6223,456.5767],[16.7619,7.6172,453.0625],[16.7747,7.6066,451.71],[16.7939,7.5854,444.5245],[16.7976,7.5773,452.7002],[16.7964,7.5617,441.348],[16.8007,7.5557,431.9906],[16.8097,7.5502,444.9704],[16.8112,7.5407,439.3097],[16.8149,7.5357,424.5129],[16.8229,7.5324,434.2831],[16.8349,7.5328,430.0747],[16.8438,7.5298,441.1007],[16.8508,7.5353,433.9234],[16.8634,7.5363,453.9491],[16.8678,7.5386,455.9801],[16.8699,7.5414,455.2859],[16.8697,7.5515,436.5867],[16.8741,7.5563,426.4317],[16.8836,7.5576,422.5163],[16.8918,7.5509,422.9629],[16.896,7.5502,428.8173],[16.908,7.5581,429.0043],[16.9101,7.5616,425.6536],[16.9097,7.5662,427.8003],[16.9074,7.5694,420.7764],[16.8991,7.5713,428.9196],[16.8956,7.5745,417.8129],[16.8957,7.5791,431.5609],[16.9045,7.5919,428.9416],[16.9057,7.5972,434.833],[16.8981,7.6103,421.0854],[16.8986,7.614,421.2998],[16.9009,7.6165,420.5358],[16.9053,7.6163,416.4568],[16.9225,7.6056,427.458],[16.9269,7.606,430.1749],[16.9278,7.6076,427.175],[16.9246,7.6178,421.6334],[16.9284,7.6228,416.6018],[16.9374,7.6289,411.4121],[16.957,7.6359,414.0136],[16.9634,7.6355,413.8506],[16.9751,7.6278,415.6048],[16.9781,7.6283,424.9468],[16.9818,7.6342,415.329],[16.9871,7.6356,412.7183],[16.9936,7.6318,417.5288],[17.0053,7.6348,413.0283],[17.0403,7.635,424.3865],[17.0424,7.6382,418.9891],[17.0441,7.6504,405.4407],[17.0492,7.6552,404.1755],[17.063,7.651,412.7471],[17.0673,7.6514,417.1665],[17.0791,7.6576,404.8902],[17.0856,7.658,416.0855],[17.0906,7.6605,431.2977],[17.0918,7.6683,417.7117],[17.0873,7.6864,410.7612],[17.0883,7.6903,409.7912],[17.0913,7.6922,409.8104],[17.0966,7.6919,411.5393],[17.1021,7.6884,409.694],[17.1106,7.6893,400.8531],[17.1157,7.6877,409.6555],[17.1259,7.6674,400.504],[17.1321,7.6632,406.5307],[17.1392,7.6618,405.2189],[17.1604,7.6667,415.8418],[17.1625,7.6702,420.8568],[17.1616,7.6764,413.8545],[17.1628,7.6812,416.7928],[17.1742,7.6885,416.6032],[17.1659,7.6995,401.0483],[17.1657,7.7028,398.524],[17.1692,7.7069,405.9494],[17.1983,7.7196,398.0471],[17.2091,7.7209,415.9114],[17.2137,7.7259,422.6235],[17.2186,7.7266,427.2448],[17.2202,7.7298,421.6482],[17.217,7.7422,408.8175],[17.2201,7.7465,408.1923],[17.2254,7.7499,404.6898],[17.2284,7.7589,403.2256],[17.2326,7.7634,396.6208],[17.2379,7.7639,396.9059],[17.2441,7.7595,395.5303],[17.2546,7.7463,407.1706],[17.2601,7.7452,412.7986],[17.2627,7.747,413.2941],[17.2694,7.7616,418.0508],[17.269,7.7669,416.5812],[17.2638,7.7798,401.0119],[17.2647,7.7841,401.0912],[17.2668,7.7857,398.8977],[17.2707,7.7853,403.2292],[17.2742,7.791,401.2809],[17.2816,7.7914,401.1724],[17.2836,7.7939,401.2275],[17.2818,7.8013,402.7578],[17.2839,7.8035,402.2545],[17.108,8.131,393.5346],[17.156,8.146,388.7861],[17.213,8.157,380.1679],[17.295,8.296,378.5481],[17.159,8.495,411.7458],[17.13,8.545,387.6786],[17.046,8.631,385.2645],[17.142,8.762,382.3062],[17.152,8.885,378.4353],[17.15,8.971,395.8194],[17.134,9.078,521.037],[16.986,9.05,469.8042],[16.772,9.071,471.314],[16.684,9.113,499.8199],[16.654,9.106,494.6443],[16.624,9.125,460.9213],[16.596,9.149,432.51369999999997],[16.543,9.153,414.5497],[16.467,9.132,371.9079],[16.427,9.118,362.8237],[16.446,9.087,365.3629],[16.486,9.028,368.0943],[16.504,8.995,372.7166],[16.533,8.989,367.8985],[16.538,8.966,373.2346],[16.545,8.951,376.6483],[16.567,8.959,369.246],[16.574,8.937,369.7752],[16.587,8.925,370.539],[16.594,8.899,371.2922],[16.574,8.874,397.8556],[16.558,8.83,413.9657],[16.521,8.777,401.6826],[16.493,8.746,403.6899],[16.45,8.727,413.3294],[16.406,8.717,405.4222],[16.379,8.696,384.0733],[16.369,8.685,381.7602],[16.351,8.655,383.8521],[16.273,8.66,391.6723],[16.203,8.634,391.0815],[16.117,8.608,390.5021],[16.077,8.569,401.4833],[16.043,8.558,395.0],[15.996,8.536,403.8359],[15.99,8.512,404.5541],[15.958,8.491,411.5927],[15.918,8.462,422.4141],[15.862,8.435,438.1562],[15.834,8.403,441.9726],[15.822,8.364,456.2755],[15.803,8.334,421.8107],[15.768,8.337,434.3221],[15.685,8.33,450.4518],[15.648,8.311,461.4268],[15.607,8.286,466.4526],[15.581,8.281,466.2848],[15.553,8.271,438.43],[15.529,8.273,434.1033],[15.537,8.29,437.9861],[15.526,8.304,433.3526],[15.49,8.29,460.4266],[15.488,8.328,451.8398],[15.455,8.352,458.5453],[15.446,8.376,457.8954],[15.417,8.37,477.928],[15.383,8.378,473.123],[15.342,8.403,496.4581],[15.323,8.427,480.2214],[15.295,8.445,505.8051],[15.2805,8.4657,518.2931],[15.2724,8.482,528.7414],[15.2458,8.4702,539.4794],[15.2623,8.4106,544.6965],[15.2794,8.339,556.7823],[15.3967,8.0913,490.6112],[15.3949,8.0556,534.764],[15.3957,8.0444,528.0247],[15.4524,7.8811,601.7222],[15.5047,7.7936,493.155],[15.5886,7.7725,477.9204],[15.5891,7.7654,462.0355],[15.5924,7.7572,458.2682],[15.5865,7.7438,465.4135],[15.5909,7.7382,465.465],[15.5887,7.7244,466.7221],[15.5927,7.7202,471.0181],[15.5896,7.7121,469.7786],[15.5904,7.6947,475.135],[15.5936,7.6892,485.8616],[15.5922,7.6776,487.3932],[15.5891,7.6728,489.2359],[15.5872,7.6651,495.8593],[15.583,7.6624,492.8241],[15.5816,7.6577,493.877],[15.5769,7.6557,492.9643],[15.5822,7.651,490.8959],[15.5833,7.6398,503.8307],[15.5797,7.6354,504.2038],[15.579,7.626,506.702],[15.5704,7.6142,511.2397],[15.5648,7.6097,512.3954],[15.5647,7.6022,509.8814],[15.5705,7.5947,510.2347],[15.5702,7.5929,508.9589],[15.5634,7.5828,516.8216],[15.5565,7.5776,516.2236]]]]}
,"properties": {"GID_1": "TCD.12_1","GID_0": "TCD","country": "Chad","province": "LogoneOriental","VARNAME_1": "Logone-Oriental","NL_NAME_1": "NA","TYPE_1": "Région","ENGTYPE_1": "Region","CC_1": "NA","HASC_1": "TD.LR","ISO_1": "NA","name": "Logone_Oriental.province","area_km2": 23817.99,"hist_schema_id": "Elevation0-9000","hist_area_km2": {"350": 11.05,"375": 2600.67,"400": 3683.61,"425": 3442.78,"450": 3824.07,"475": 3749.8,"500": 2749.82,"525": 1529.27,"550": 814.8,"575": 469.84,"600": 226.32,"625": 131.3,"650": 100.69,"675": 80.66,"700": 69.08,"725": 59.22,"750": 44.18,"775": 37.07,"800": 36.19,"825": 32.09,"850": 27.3,"875": 18.85,"900": 18.39,"925": 17.76,"950": 20.29,"975": 14.1,"1000": 6.45,"1025": 1.39,"1050": 0.44,"1075": 0.32}}}