{"type": "Feature","id": "1485","bbox": [15.21071,7.45557,17.24947,9.14042],"geometry": {"type": "Polygon","coordinates": [[[16.94499,9.0349,453.6161],[16.9191,9.03614,450.498],[16.75043,9.07676,474.6213],[16.71999,9.08864,483.8713],[16.66723,9.10038,489.7459],[16.65343,9.10766,495.0235],[16.61323,9.12394,466.9653],[16.56874,9.13608,450.0279],[16.54372,9.1398,426.2779],[16.51582,9.14042,403.312],[16.45298,9.12782,374.6606],[16.43536,9.12761,362.9042],[16.44006,9.11665,363.5571],[16.4506,9.10218,364.2261],[16.4537,9.09619,361.3499],[16.46058,9.06947,364.8389],[16.46399,9.06146,362.8945],[16.4674,9.05681,362.3415],[16.47065,9.0534,363.873],[16.48972,9.02147,369.6347],[16.51179,8.99749,366.0084],[16.51504,8.99304,367.3193],[16.51835,8.98353,372.1124],[16.52078,8.98012,373.2261],[16.52528,8.9794,370.5939],[16.53835,8.98116,367.434],[16.54248,8.98012,367.6766],[16.54574,8.97299,368.3987],[16.54708,8.95785,371.5242],[16.54931,8.95217,372.9131],[16.55468,8.9485,372.7475],[16.56031,8.94752,368.6313],[16.56564,8.94721,368.1795],[16.56982,8.94535,369.9435],[16.58414,8.9302,370.0774],[16.59246,8.91749,370.5959],[16.59618,8.90266,371.5241],[16.59711,8.88111,372.2123],[16.51349,8.75316,399.3443],[16.4905,8.73244,399.6686],[16.4537,8.71942,408.6736],[16.43179,8.71461,397.3794],[16.40957,8.70655,395.4981],[16.39236,8.69378,382.1274],[16.37981,8.65766,383.3921],[16.36503,8.64857,383.8052],[16.28746,8.64035,385.2778],[16.1452,8.59751,390.5657],[16.09884,8.56072,394.5799],[16.02164,8.51814,397.5944],[16.0112,8.51462,398.9144],[16.00412,8.51101,406.9875],[15.98014,8.48667,400.2072],[15.89291,8.43876,405.9628],[15.86795,8.41354,427.8941],[15.85787,8.3768,419.1423],[15.85839,8.37262,404.4463],[15.85741,8.36647,404.799],[15.85353,8.3599,406.0104],[15.8186,8.31898,419.3274],[15.81364,8.31582,411.0817],[15.80635,8.3137,412.074],[15.79039,8.31412,409.1395],[15.73685,8.32326,413.0197],[15.72817,8.3227,414.8566],[15.71912,8.31805,414.9993],[15.69866,8.31143,416.3284],[15.69463,8.30854,415.5306],[15.69137,8.30487,415.7329],[15.67975,8.28869,425.0795],[15.66884,8.27877,423.0181],[15.66471,8.27639,424.9873],[15.6597,8.27484,429.492],[15.64125,8.27407,421.139],[15.63567,8.27283,422.4655],[15.63102,8.27071,421.7949],[15.62249,8.26554,422.7862],[15.6183,8.26353,424.8102],[15.61407,8.26203,433.0598],[15.57655,8.25764,425.5422],[15.57081,8.25815,424.245],[15.5657,8.26058,427.1935],[15.56291,8.26663,427.9935],[15.56198,8.27608,434.8568],[15.55805,8.27836,432.3485],[15.55014,8.27856,434.1893],[15.5365,8.27774,435.0782],[15.53014,8.2781,442.3489],[15.52425,8.27991,445.2525],[15.51976,8.28363,442.5117],[15.51712,8.29066,438.6637],[15.5165,8.29737,441.6228],[15.51759,8.30358,436.1759],[15.52162,8.31257,435.2147],[15.52007,8.31701,438.4428],[15.51417,8.32177,439.0231],[15.50131,8.32792,448.2529],[15.49242,8.33598,442.621],[15.48746,8.34228,442.2115],[15.48172,8.34791,449.644],[15.47351,8.35189,446.9673],[15.45521,8.35556,450.653],[15.43144,8.35515,453.5412],[15.41981,8.36104,464.4899],[15.34845,8.40884,482.5853],[15.31259,8.42429,508.9582],[15.27321,8.44863,510.0782],[15.22789,8.43003,529.2812],[15.21071,8.42182,529.4841],[15.34535,8.13599,533.4852],[15.40653,7.92158,578.2994],[15.44074,7.83942,525.0005],[15.48787,7.80495,520.2328],[15.50937,7.80402,504.8163],[15.54079,7.79684,487.2964],[15.5629,7.79245,511.7282],[15.56218,7.69018,503.0171],[15.54895,7.6308,564.4937],[15.52198,7.57608,554.6849],[15.48105,7.52326,537.4835],[15.51557,7.5122,541.1078],[15.55195,7.50988,595.9865],[15.62481,7.51975,638.9977],[15.66853,7.51629,619.0623],[15.72,7.46864,646.0142],[15.75835,7.45557,639.3153],[15.7939,7.458,866.0995],[15.92526,7.48817,811.0368],[15.94314,7.49531,828.9839],[15.9757,7.5152,723.0898],[15.99037,7.52941,612.5942],[16.01228,7.56031,612.1175],[16.02634,7.57489,591.6718],[16.04298,7.58393,550.9366],[16.0652,7.59122,530.5797],[16.12876,7.59949,500.7305],[16.16266,7.61111,487.8942],[16.18561,7.61075,485.6409],[16.20721,7.61354,470.4355],[16.22726,7.62558,476.8856],[16.26188,7.65189,475.248],[16.28276,7.6601,461.0238],[16.37081,7.6725,433.9874],[16.38301,7.68067,435.0103],[16.38714,7.69467,455.0298],[16.38704,7.76263,439.0505],[16.39221,7.78361,447.8616],[16.4074,7.79606,440.9804],[16.41815,7.79586,424.252],[16.42724,7.79146,419.4628],[16.43737,7.78836,444.174],[16.45091,7.79208,420.6133],[16.45722,7.79963,428.6547],[16.46941,7.82583,450.6162],[16.47572,7.8358,447.5748],[16.49174,7.84924,440.3544],[16.5092,7.85828,437.5981],[16.54868,7.87001,420.7303],[16.55013,7.86169,412.1886],[16.55075,7.8527,423.3812],[16.55023,7.8435,445.3452],[16.54486,7.81301,448.7853],[16.5493,7.79472,439.3507],[16.56016,7.77973,450.1113],[16.57638,7.7678,432.782],[16.58682,7.76356,434.672],[16.59643,7.76113,440.1233],[16.60522,7.7572,436.8741],[16.61307,7.74821,437.974],[16.61814,7.73431,441.9286],[16.61617,7.72387,440.5184],[16.61183,7.7139,453.0645],[16.60987,7.7016,450.6697],[16.61421,7.67958,463.9355],[16.62455,7.66868,468.7341],[16.6632,7.65741,480.8345],[16.68687,7.64579,479.8367],[16.70981,7.62775,489.9008],[16.74671,7.58657,477.9687],[16.76862,7.55024,457.7335],[16.78237,7.54114,452.0038],[16.80552,7.54368,432.4561],[16.81285,7.54771,446.446],[16.81507,7.54954,442.9976],[16.83673,7.5675,436.133],[16.83962,7.56745,431.1913],[16.85037,7.5659,427.7549],[16.85389,7.5675,432.2646],[16.85585,7.5754,446.4702],[16.85244,7.58026,456.1036],[16.8481,7.58471,454.9658],[16.84717,7.59158,450.0682],[16.85482,7.61147,461.4622],[16.86546,7.62445,444.4761],[16.88065,7.63287,426.77],[16.91962,7.64408,453.8524],[16.96272,7.6507,440.4304],[16.98194,7.64873,417.2316],[16.98897,7.66077,428.0873],[16.99755,7.66672,438.3916],[17.00829,7.66765,441.7648],[17.03899,7.66248,424.3991],[17.04209,7.66703,432.6953],[17.04106,7.6755,424.2997],[17.04561,7.6847,420.5],[17.05935,7.69653,424.6677],[17.07909,7.68992,402.5234],[17.09025,7.68382,411.1005],[17.09552,7.67824,412.5294],[17.10193,7.67772,410.87],[17.1163,7.68687,406.0561],[17.13552,7.70511,438.5061],[17.17056,7.74754,408.6241],[17.18865,7.76413,419.0756],[17.1964,7.76516,410.7268],[17.20456,7.76382,397.5693],[17.21107,7.76831,404.304],[17.21448,7.78681,435.3806],[17.22068,7.79818,436.118],[17.23379,7.8108,416.6182],[17.2336,7.8112,416.6182],[17.09087,8.12038,399.9907],[17.08762,8.12472,392.7277],[17.08436,8.12808,390.0587],[17.08142,8.13211,392.9732],[17.08018,8.13682,398.0988],[17.08312,8.14359,404.7292],[17.08731,8.1472,407.7892],[17.09289,8.14932,404.4199],[17.11103,8.15134,395.7396],[17.12674,8.15588,393.2259],[17.13263,8.15651,393.3415],[17.13899,8.15645,390.1547],[17.15123,8.15475,383.725],[17.15728,8.15464,383.0645],[17.16255,8.15588,384.6745],[17.16674,8.15847,385.585],[17.1703,8.16198,389.3533],[17.17294,8.16632,391.4224],[17.17996,8.18028,392.7674],[17.18307,8.1842,391.9523],[17.19438,8.19361,390.0354],[17.19748,8.19743,390.5657],[17.20678,8.21593,389.0766],[17.21268,8.22399,387.3238],[17.21934,8.23118,379.9536],[17.22306,8.23443,380.813],[17.22616,8.23831,383.0256],[17.22864,8.24265,383.9796],[17.23035,8.24818,385.7656],[17.23298,8.26689,385.4111],[17.23505,8.27195,384.6074],[17.23815,8.27577,382.8629],[17.24203,8.27877,381.1823],[17.24652,8.28089,380.1973],[17.24947,8.28456,379.4392],[17.24947,8.29055,382.8182],[17.0392,8.61157,385.9373],[17.03579,8.62015,386.0344],[17.03346,8.63265,385.8302],[17.04803,8.66154,383.7301],[17.10219,8.74231,382.8794],[17.11041,8.76091,382.464],[17.11738,8.78365,382.0849],[17.12591,8.99594,426.2327],[17.12395,9.00576,437.4017],[17.10483,9.06978,504.4784],[16.99899,9.03748,450.5139],[16.94499,9.0349,453.6161]]]}
,"properties": {"ISO3166-1-Alpha-3": "TCD","country": "Chad","fill": "#00F","name": "Logone Oriental","area_km2": 23017.84,"hist_schema_id": "Elevation0-9000","hist_area_km2": {"350": 10.3,"375": 2330.49,"400": 3371.73,"425": 3155.14,"450": 3688.84,"475": 3740.87,"500": 2765.52,"525": 1601.46,"550": 933.47,"575": 515.03,"600": 231.03,"625": 132.46,"650": 96.71,"675": 78.83,"700": 68.24,"725": 57.67,"750": 41.99,"775": 34.23,"800": 32.45,"825": 28.86,"850": 24.82,"875": 17.34,"900": 14.69,"925": 12.3,"950": 14.21,"975": 11.2,"1000": 5.63,"1025": 1.39,"1050": 0.44,"1075": 0.32}}}