{"type": "Feature","bbox": [18.33,11.776,18.99,12.693],"geometry": {"type": "MultiPolygon","coordinates": [[[[18.501,12.693,354.9444],[18.475,12.692,350.2663],[18.33,12.618,355.2905],[18.368,12.542,364.8858],[18.442,12.422,370.6194],[18.489,12.278,388.864],[18.472,12.188,521.7495],[18.522,12.178,430.6861],[18.583,12.175,401.4771],[18.641,12.12,426.6216],[18.659,12.064,448.2032],[18.619,11.971,492.056],[18.526,11.911,484.0598],[18.444,11.88,518.3581],[18.473,11.776,553.3361],[18.543,11.822,582.0522],[18.627,11.852,510.8531],[18.67,11.892,537.8988],[18.714,11.947,544.0524],[18.735,11.979,526.104],[18.777,11.991,638.8916],[18.833,11.998,563.8656],[18.871,12.028,848.0583],[18.861,12.074,733.4775],[18.866,12.152,593.6987],[18.886,12.266,664.8115],[18.896,12.347,450.3308],[18.934,12.427,385.2875],[18.954,12.534,377.4139],[18.99,12.689,409.2924],[18.501,12.693,354.9444]]]]}
,"properties": {"GID_3": "TCD.7.1.2_1","GID_0": "TCD","country": "Chad","GID_1": "TCD.7_1","province": "Guéra","NL_NAME_1": "NA","GID_2": "TCD.7.1_1","county": "BarhSignaka","NL_NAME_2": "NA","city": "Dadjo-I","VARNAME_3": "NA","NL_NAME_3": "NA","TYPE_3": "Sub-prefecture","ENGTYPE_3": "Sub-prefecture","CC_3": "NA","HASC_3": "NA","name": "Dadjo-I.city","area_km2": 3944.486,"hist_schema_id": "Elevation0-9000","hist_area_km2": {"350": 647.665,"375": 1542.349,"400": 616.025,"425": 268.321,"450": 130.179,"475": 134.193,"500": 158.492,"525": 127.719,"550": 72.142,"575": 36.255,"600": 34.287,"625": 35.961,"650": 24.271,"675": 14.591,"700": 10.549,"725": 10.196,"750": 9.719,"775": 8.683,"800": 8.165,"825": 7.481,"850": 7.17,"875": 6.527,"900": 5.947,"925": 5.533,"950": 4.061,"975": 2.652,"1000": 2.756,"1025": 2.404,"1050": 1.823,"1075": 1.803,"1100": 1.45,"1125": 1.264,"1150": 1.181,"1175": 1.119,"1200": 0.394,"1225": 0.352,"1250": 0.331,"1275": 0.228,"1300": 0.124,"1325": 0.124}}}