{"type":"Feature","properties":{"GID_3":"TCD.17.1.3_1","GID_0":"TCD","country":"Chad","GID_1":"TCD.17_1","province":"Ouaddaï","NL_NAME_1":"NA","GID_2":"TCD.17.1_1","county":"Assoungha","NL_NAME_2":"NA","city":"Kado","VARNAME_3":"NA","NL_NAME_3":"NA","TYPE_3":"Sub-prefecture","ENGTYPE_3":"Sub-prefecture","CC_3":"NA","HASC_3":"NA","name":"Kado.city"},
"geometry":{"type": "MultiPolygon","coordinates": [[[[21.776,12.816,708.4246],[21.826,12.806,647.3782],[21.8391,12.8017,656.0579],[21.8396,12.8088,659.8915],[21.8483,12.8366,651.6903],[21.8503,12.8502,651.9631],[21.8507,12.8715,655.1295],[21.8534,12.8817,656.1204],[21.8604,12.8905,657.3384],[21.8787,12.9243,661.7336],[21.8911,12.9659,667.0919],[21.8987,12.9817,671.5258],[21.9113,13.0023,673.6636],[21.9256,13.0091,678.8898],[21.9308,13.0184,676.7769],[21.9308,13.0298,678.7717],[21.933,13.0358,681.4819],[21.9269,13.0416,679.5189],[21.9257,13.0469,680.3897],[21.939,13.0553,687.4211],[21.9473,13.068,685.1262],[21.9649,13.0727,687.822],[21.9821,13.0915,692.6149],[21.9942,13.0994,698.2822],[22.0033,13.1027,701.0757],[22.0075,13.1089,699.2421],[22.0099,13.1308,700.8735],[22.0136,13.1363,704.0551],[22.0204,13.139099999999999,705.4941],[22.0511,13.1382,714.0661],[22.0645,13.1427,711.8247],[22.0717,13.1432,714.4507],[22.0745,13.1462,712.949],[22.0786,13.157,718.0509],[22.0826,13.16,714.4284],[22.0882,13.1608,718.709],[22.0932,13.1592,727.5878],[22.1091,13.1605,722.3689],[22.1279,13.1643,740.9293],[22.1346,13.1678,730.6146],[22.1381,13.1719,724.8676],[22.1465,13.1927,726.114],[22.1539,13.196,742.4537],[22.1724,13.2151,743.3954],[22.1842,13.2451,739.7054],[22.1947,13.2519,750.995],[22.2105,13.2711,750.0112],[22.2215,13.2751,744.2036],[22.2304,13.2934,745.5612],[22.2358,13.299,750.6446],[22.2437,13.3029,746.7706],[22.244,13.3053,749.2479],[22.2544,13.3169,768.1865],[22.2611,13.3279,753.678],[22.2749,13.3423,762.2242],[22.2842,13.3497,757.5026],[22.2828,13.3819,760.8771],[22.2785,13.3906,760.9633],[22.252,13.3865,783.9614],[22.212,13.37,819.5848],[22.131,13.307,836.8615],[22.088,13.301,845.0701],[21.999,13.25,809.2277],[21.924,13.212,759.4935],[21.877,13.198,742.5233],[21.865,13.139,724.7539],[21.835,13.08,724.4843],[21.838,12.999,702.5219],[21.829,12.956,710.5917],[21.822,12.895,696.6419],[21.776,12.816,708.4246]]]]}}