{"type":"Feature","properties":{"GID_3":"TCD.11.3.5_1","GID_0":"TCD","country":"Chad","GID_1":"TCD.11_1","province":"LogoneOccidental","NL_NAME_1":"NA","GID_2":"TCD.11.3_1","county":"Ngourkosso","NL_NAME_2":"NA","city":"Bourou","VARNAME_3":"NA","NL_NAME_3":"NA","TYPE_3":"Sub-prefecture","ENGTYPE_3":"Sub-prefecture","CC_3":"NA","HASC_3":"NA","name":"Bourou.city"},
"geometry":{"type": "MultiPolygon","coordinates": [[[[16.4378,9.1005,363.6681],[16.427,9.118,362.8237],[16.414,9.15,362.1847],[16.411,9.181,360.4333],[16.381,9.21,359.8554],[16.364,9.245,359.631],[16.3566,9.2399,359.165],[16.3712,9.2013,362.4328],[16.3722,9.1861,362.8902],[16.3691,9.1688,363.1096],[16.3571,9.1506,363.0957],[16.3561,9.1436,363.4333],[16.3475,9.1319,364.632],[16.3302,9.1015,377.6828],[16.3262,9.0759,377.0067],[16.3421,9.0587,390.4625],[16.3641,9.0505,380.7718],[16.3885,9.0588,368.5971],[16.4075,9.0705,366.0927],[16.4237,9.0846,366.2],[16.4378,9.1005,363.6681]]]]}}