{"type":"Feature","properties":{"GID_3":"TCD.20.2.14_1","GID_0":"TCD","country":"Chad","GID_1":"TCD.20_1","province":"Tandjilé","NL_NAME_1":"NA","GID_2":"TCD.20.2_1","county":"TandjiléEst","NL_NAME_2":"NA","city":"Ninga","VARNAME_3":"NA","NL_NAME_3":"NA","TYPE_3":"Sub-prefecture","ENGTYPE_3":"Sub-prefecture","CC_3":"NA","HASC_3":"NA","name":"Ninga.city"},
"geometry":{"type": "MultiPolygon","coordinates": [[[[16.3164,9.6073,348.4879],[16.305,9.587,348.9299],[16.3034,9.5808,348.9185],[16.2868,9.5554,350.1899],[16.2813,9.5413,350.8946],[16.2812,9.5346,351.139],[16.2777,9.5278,351.4909],[16.2927,9.5075,353.0961],[16.2961,9.5002,354.197],[16.3135,9.4821,355.6527],[16.3223,9.4654,356.2726],[16.3375,9.4451,356.7244],[16.356,9.4248,357.1794],[16.3621,9.4143,357.2358],[16.3848,9.4086,360.1124],[16.4153,9.4067,358.226],[16.4704,9.4124,355.9772],[16.4795,9.4109,356.0915],[16.4855,9.4151,356.1896],[16.5077,9.4371,354.6406],[16.5313,9.4518,353.1432],[16.5466,9.4601,352.7242],[16.5689,9.47,352.3389],[16.5946,9.479,352.1542],[16.5995,9.4823,351.2229],[16.5871,9.513,350.9492],[16.5607,9.5644,349.1288],[16.5578,9.589,348.5772],[16.5429,9.6176,347.1895],[16.5348,9.6424,346.8586],[16.5275,9.6549,346.3149],[16.5128,9.6746,346.7479],[16.4801,9.6615,347.3583],[16.4724,9.6476,348.0887],[16.4592,9.6384,348.2595],[16.4476,9.628,348.74],[16.4292,9.6161,348.7048],[16.3982,9.6035,349.3984],[16.3762,9.5997,349.9867],[16.342,9.6014,348.5424],[16.3288,9.6034,348.1763],[16.3164,9.6073,348.4879]]]]}}