{"type": "Feature","bbox": [15.647,13.645,15.894,13.758],"geometry": {"type": "MultiPolygon","coordinates": [[[[15.647,13.735,283.7645],[15.663,13.712,284.7412],[15.699,13.682,294.4604],[15.779,13.645,294.9619],[15.811,13.66,294.4713],[15.841,13.681,296.7317],[15.894,13.685,298.5142],[15.892,13.728,291.6414],[15.884,13.747,281.6542],[15.774,13.758,291.5194],[15.762,13.739,290.2839],[15.647,13.735,283.7645]]]]}
,"properties": {"GID_3": "TCD.9.1.3_1","GID_0": "TCD","country": "Chad","GID_1": "TCD.9_1","province": "Kanem","NL_NAME_1": "NA","GID_2": "TCD.9.1_1","county": "Kanem","NL_NAME_2": "NA","city": "Illili","VARNAME_3": "NA","NL_NAME_3": "NA","TYPE_3": "Sub-prefecture","ENGTYPE_3": "Sub-prefecture","CC_3": "NA","HASC_3": "NA","name": "Illili.city","area_km2": 202.8521,"hist_schema_id": "Elevation0-9000","hist_area_km2": {"275": 100.3549,"300": 102.4972}}}