{"type": "Feature","bbox": [14.9072,9.5145,14.9898,9.6984],"geometry": {"type": "MultiPolygon","coordinates": [[[[14.9072,9.6894,383.8256],[14.913,9.6694,392.613],[14.9188,9.6352,370.3249],[14.9167,9.6175,387.3182],[14.9125,9.6095,395.0145],[14.9084,9.5961,398.5221],[14.9092,9.5847,398.8377],[14.9115,9.5736,392.1548],[14.9184,9.5556,390.5921],[14.942,9.5145,392.4615],[14.9488,9.5185,384.6952],[14.9511,9.5269,385.6212],[14.9561,9.5301,380.1423],[14.9578,9.5461,382.3648],[14.955,9.5711,395.1523],[14.957,9.5904,387.6151],[14.9596,9.6001,396.6116],[14.9638,9.6069,389.3159],[14.9721,9.6145,387.1037],[14.9788,9.6302,372.9642],[14.9821,9.6432,364.9047],[14.9865,9.6532,353.3889],[14.9898,9.683,354.0428],[14.9663,9.6891,367.0896],[14.9501,9.6984,375.2188],[14.9304,9.6965,381.4464],[14.9072,9.6894,383.8256]]]]}
,"properties": {"GID_3": "TCD.15.2.13_1","GID_0": "TCD","country": "Chad","GID_1": "TCD.15_1","province": "Mayo-KebbiOuest","NL_NAME_1": "NA","GID_2": "TCD.15.2_1","county": "Mayo-Dallah","NL_NAME_2": "NA","city": "Torrok","VARNAME_3": "NA","NL_NAME_3": "NA","TYPE_3": "Sub-prefecture","ENGTYPE_3": "Sub-prefecture","CC_3": "NA","HASC_3": "NA","name": "Torrok.city","area_km2": 111.33402,"hist_schema_id": "Elevation0-9000","hist_area_km2": {"350": 6.7931,"375": 70.02599,"400": 34.51492}}}