{"type": "Feature","bbox": [18.2953,9.3022,18.5474,9.5662],"geometry": {"type": "MultiPolygon","coordinates": [[[[18.4674,9.3022,369.1414],[18.4768,9.3116,365.9117],[18.4871,9.3158,365.8484],[18.5033,9.3315,365.2678],[18.5202,9.3444,362.9292],[18.5096,9.3612,364.34],[18.5048,9.385,406.7992],[18.5086,9.4078,405.1496],[18.5337,9.4537,409.7522],[18.5474,9.4716,443.7983],[18.5368,9.5017,437.4842],[18.5271,9.5151,434.6135],[18.5054,9.5317,406.2489],[18.4802,9.5424,381.8166],[18.4634,9.547,378.1486],[18.4354,9.5508,374.9828],[18.4169,9.5551,374.0315],[18.4116,9.5662,367.1076],[18.3884,9.5634,365.8352],[18.3336,9.5373,364.774],[18.3197,9.5323,365.6078],[18.3076,9.5354,364.651],[18.2953,9.5358,365.8579],[18.2998,9.5169,371.8026],[18.3087,9.5014,372.554],[18.3206,9.4476,367.5298],[18.3303,9.431,367.928],[18.3425,9.3971,363.5938],[18.3465,9.3901,363.731],[18.3574,9.3797,365.7065],[18.3617,9.3694,363.2727],[18.3622,9.3618,362.6743],[18.4296,9.3284,366.0374],[18.4593,9.3095,365.9367],[18.4674,9.3022,369.1414]]]]}
,"properties": {"GID_3": "TCD.16.3.4_1","GID_0": "TCD","country": "Chad","GID_1": "TCD.16_1","province": "Moyen-Chari","NL_NAME_1": "NA","GID_2": "TCD.16.3_1","county": "LacIro","NL_NAME_2": "NA","city": "Bohobe","VARNAME_3": "NA","NL_NAME_3": "NA","TYPE_3": "Sub-prefecture","ENGTYPE_3": "Sub-prefecture","CC_3": "NA","HASC_3": "NA","name": "Bohobe.city","area_km2": 507.5344,"hist_schema_id": "Elevation0-9000","hist_area_km2": {"350": 3.9744,"375": 368.9361,"400": 91.3323,"425": 41.7441,"450": 1.5475}}}