{"type":"Feature","properties":{"GID_3":"TCD.17.1.6_1","GID_0":"TCD","country":"Chad","GID_1":"TCD.17_1","province":"Ouaddaï","NL_NAME_1":"NA","GID_2":"TCD.17.1_1","county":"Assoungha","NL_NAME_2":"NA","city":"Troane","VARNAME_3":"NA","NL_NAME_3":"NA","TYPE_3":"Sub-prefecture","ENGTYPE_3":"Sub-prefecture","CC_3":"NA","HASC_3":"NA","name":"Troane.city"},
"geometry":{"type": "MultiPolygon","coordinates": [[[[21.341,13.967,713.1877],[21.337,13.91,693.3637],[21.355,13.844,708.0378],[21.373,13.815,692.7999],[21.449,13.764,704.0898],[21.495,13.74,722.6737],[21.532,13.66,700.3853],[21.58,13.597,707.9219],[21.657,13.647,733.1721],[21.703,13.697,760.7538],[21.736,13.751,781.4225],[21.759,13.813,768.412],[21.761,13.865,789.5165],[21.718,13.866,770.7579],[21.645,13.876,753.4919],[21.584,13.896,786.1356],[21.44,13.932,785.2327],[21.414,13.937,758.9745],[21.364,13.955,705.8216],[21.341,13.967,713.1877]]]]}}