{"type": "Feature","bbox": [18.3671,9.0957,18.451,9.198],"geometry": {"type": "MultiPolygon","coordinates": [[[[18.3937,9.0957,364.0536],[18.4084,9.1036,365.0317],[18.4274,9.1102,358.4089],[18.4459,9.1215,363.0596],[18.451,9.1349,362.2911],[18.4444,9.1681,364.1761],[18.4364,9.1799,359.8496],[18.4202,9.198,363.7371],[18.4021,9.1919,357.4768],[18.3917,9.1833,362.8268],[18.3828,9.171,358.1053],[18.3671,9.1557,365.9636],[18.3676,9.144,358.1248],[18.3814,9.1299,366.0],[18.3894,9.1176,363.7761],[18.3937,9.0957,364.0536]]]]}
,"properties": {"GID_3": "TCD.16.1.9_1","GID_0": "TCD","country": "Chad","GID_1": "TCD.16_1","province": "Moyen-Chari","NL_NAME_1": "NA","GID_2": "TCD.16.1_1","county": "BarhKöh","NL_NAME_2": "NA","city": "Sarh","VARNAME_3": "NA","NL_NAME_3": "NA","TYPE_3": "Sub-prefecture","ENGTYPE_3": "Sub-prefecture","CC_3": "NA","HASC_3": "NA","name": "Sarh.city","area_km2": 65.56069,"hist_schema_id": "Elevation0-9000","hist_area_km2": {"350": 33.91011,"375": 31.65059}}}