{"type":"Feature","properties":{"GID_3":"TCD.20.1.1_1","GID_0":"TCD","country":"Chad","GID_1":"TCD.20_1","province":"Tandjilé","NL_NAME_1":"NA","GID_2":"TCD.20.1_1","county":"Béré","NL_NAME_2":"NA","city":"Bere-Tchad","VARNAME_3":"NA","NL_NAME_3":"NA","TYPE_3":"Sub-prefecture","ENGTYPE_3":"Sub-prefecture","CC_3":"NA","HASC_3":"NA","name":"Bere-Tchad.city"},
"geometry":{"type": "MultiPolygon","coordinates": [[[[16.1815,9.3069,365.8397],[16.219,9.3374,357.9832],[16.2773,9.3795,355.244],[16.2718,9.4052,351.9496],[16.2585,9.4321,353.8648],[16.2482,9.4481,353.4825],[16.2391,9.4678,349.0],[16.2371,9.4909,352.2605],[16.2248,9.5183,352.2408],[16.2071,9.506,351.3689],[16.1951,9.4937,351.0895],[16.1653,9.4724,351.6626],[16.1174,9.4107,354.7602],[16.0792,9.3732,357.399],[16.0242,9.3415,366.4898],[16.0151,9.3345,366.7839],[16.0273,9.3115,371.4153],[16.0411,9.2988,361.5104],[16.0529,9.2808,367.9098],[16.0563,9.2428,373.0018],[16.0707,9.2516,371.9528],[16.0899,9.2543,362.3356],[16.1165,9.2659,360.6621],[16.1414,9.279,367.8348],[16.1562,9.2928,368.5887],[16.1815,9.3069,365.8397]]]]}}