{"type": "Feature","bbox": [17.046,8.296,17.5196,8.9227],"geometry": {"type": "MultiPolygon","coordinates": [[[[17.13,8.545,387.6786],[17.159,8.495,411.7458],[17.295,8.296,378.5481],[17.3053,8.3085,380.8216],[17.3105,8.3129,381.7901],[17.318,8.3164,381.6139],[17.3283,8.3461,375.9285],[17.3341,8.3564,375.1342],[17.3456,8.3911,378.5193],[17.3542,8.4064,380.5475],[17.3669,8.4401,371.0521],[17.3738,8.4648,370.9238],[17.3881,8.5014,369.9806],[17.3967,8.5167,371.3525],[17.4066,8.5291,369.8529],[17.4216,8.5394,369.4437],[17.4358,8.5453,372.4875],[17.4424,8.55,372.0674],[17.4458,8.5501,371.8778],[17.4632,8.5603,372.4477],[17.4707,8.5673,368.1105],[17.4895,8.5982,366.8211],[17.4956,8.6122,366.4849],[17.4873,8.6671,366.5157],[17.4719,8.6889,369.0815],[17.4654,8.7071,372.7036],[17.4812,8.724,369.055],[17.5196,8.7451,394.5746],[17.5005,8.7619,388.8502],[17.4821,8.7713,377.8693],[17.4583,8.7795,369.8648],[17.4366,8.8008,380.5331],[17.438,8.8195,380.6571],[17.4144,8.8328,381.6819],[17.3985,8.7893,369.8079],[17.3864,8.7751,378.6511],[17.3666,8.782,372.1028],[17.3621,8.7937,381.3332],[17.3633,8.8133,381.162],[17.3776,8.8338,378.5979],[17.3894,8.8447,379.0005],[17.3569,8.8565,378.344],[17.3329,8.873,378.3602],[17.3059,8.8936,378.0069],[17.2849,8.9227,376.5716],[17.2774,8.9204,377.3029],[17.2547,8.9062,378.7637],[17.2453,8.9053,378.7953],[17.2137,8.91,382.2429],[17.1996,8.9178,380.9294],[17.1841,8.9222,380.0657],[17.1511,8.9224,377.2905],[17.152,8.885,378.4353],[17.142,8.762,382.3062],[17.046,8.631,385.2645],[17.13,8.545,387.6786]]]]}
,"properties": {"GID_2": "TCD.13.2_1","GID_0": "TCD","country": "Chad","GID_1": "TCD.13_1","province": "Mandoul","NL_NAME_1": "NA","county": "MandoulOccidental","VARNAME_2": "Bédjondo","NL_NAME_2": "NA","TYPE_2": "Department","ENGTYPE_2": "Department","CC_2": "NA","HASC_2": "TD.MA.MC","name": "Mandoul_Occidental.county","area_km2": 1915.329,"hist_schema_id": "Elevation0-9000","hist_area_km2": {"375": 1504.998,"400": 226.866,"425": 132.15,"450": 47.749,"475": 3.565}}}