{"type": "Feature","bbox": [15.602,13.023,18.051,16.242],"geometry": {"type": "MultiPolygon","coordinates": [[[[17.2344,13.4297,301.1006],[17.271,13.662,301.1361],[17.586,13.76,302.0954],[18.051,15.476,254.0689],[17.967,15.558,279.7372],[17.865,15.702,276.4281],[17.842,15.746,278.6995],[16.687,16.242,255.6402],[16.523,15.974,274.382],[16.182,14.834,317.221],[16.143,14.545,312.3877],[16.102,14.47,312.6013],[15.962,14.315,305.4407],[15.911,14.263,316.0648],[15.804,14.145,315.4813],[15.711,14.066,312.9636],[15.619,14.032,310.8295],[15.607,13.878,296.8043],[15.602,13.749,287.5467],[15.647,13.735,283.7645],[15.762,13.739,290.2839],[15.774,13.758,291.5194],[15.884,13.747,281.6542],[15.892,13.728,291.6414],[15.894,13.685,298.5142],[15.884,13.66,286.6236],[15.876,13.614,288.2764],[15.892,13.546,288.4692],[15.92,13.499,294.0384],[15.934,13.45,294.13],[15.935,13.339,290.5335],[15.929,13.207,291.7246],[15.91,13.173,285.6227],[15.966,13.122,285.1739],[15.991,13.08,287.7307],[15.998,13.044,288.3004],[16.108,13.036,289.4623],[16.179,13.023,289.3748],[16.215,13.04,290.783],[16.261,13.036,288.6932],[16.361,13.051,290.7913],[16.425,13.044,288.1811],[16.468,13.034,286.8527],[16.493,13.055,287.8038],[16.547,13.07,286.9514],[16.762,13.09,288.1464],[16.787,13.111,288.475],[16.846,13.136,288.6379],[16.9,13.109,289.1455],[16.997,13.137,288.3198],[17.024,13.157,289.636],[17.063,13.137,289.6341],[17.101,13.133,288.6976],[17.161,13.099,288.7693],[17.241,13.21,292.3882],[17.2344,13.4297,301.1006]]]]}
,"properties": {"GID_2": "TCD.1.1_1","GID_0": "TCD","country": "Chad","GID_1": "TCD.1_1","province": "BarhelGhazel","NL_NAME_1": "NA","county": "BarhElGazel","VARNAME_2": "Moussoro","NL_NAME_2": "NA","TYPE_2": "Department","ENGTYPE_2": "Department","CC_2": "NA","HASC_2": "TD.KA.BG","name": "Barh_El_Gazel.county","area_km2": 56516.26,"hist_schema_id": "Elevation0-9000","hist_area_km2": {"250": 185.57,"275": 25586.87,"300": 30025.81,"325": 717.94}}}