{"type": "Feature","bbox": [17.2233,8.5014,17.4066,8.638],"geometry": {"type": "MultiPolygon","coordinates": [[[[17.4066,8.5291,369.8529],[17.4022,8.5361,370.7955],[17.396,8.5416,373.8842],[17.3807,8.5506,368.723],[17.3733,8.5583,368.5887],[17.358,8.567,369.6203],[17.3377,8.5823,370.01],[17.2687,8.6215,435.5167],[17.2657,8.6276,440.2229],[17.2541,8.638,414.4606],[17.251,8.634,411.9891],[17.2357,8.5987,415.3305],[17.2278,8.5848,410.2157],[17.2246,8.5751,413.1912],[17.2234,8.5565,414.7315],[17.2245,8.5426,414.1439],[17.2233,8.537,416.3555],[17.2393,8.5386,422.0428],[17.256,8.5321,420.3017],[17.3256,8.5215,375.2425],[17.3506,8.5129,375.4719],[17.3648,8.5118,373.5603],[17.3732,8.5063,370.412],[17.3881,8.5014,369.9806],[17.4019,8.5246,371.0307],[17.4066,8.5291,369.8529]]]]}
,"properties": {"GID_3": "TCD.13.2.7_1","GID_0": "TCD","country": "Chad","GID_1": "TCD.13_1","province": "Mandoul","NL_NAME_1": "NA","GID_2": "TCD.13.2_1","county": "MandoulOccidental","NL_NAME_2": "NA","city": "Yomi","VARNAME_3": "NA","NL_NAME_3": "NA","TYPE_3": "Sub-prefecture","ENGTYPE_3": "Sub-prefecture","CC_3": "NA","HASC_3": "NA","name": "Yomi.city","area_km2": 147.3699,"hist_schema_id": "Elevation0-9000","hist_area_km2": {"375": 81.896,"400": 30.7355,"425": 34.2563,"450": 0.4821}}}