{"type": "Feature","bbox": [21.092,14.111,21.508,14.834],"geometry": {"type": "MultiPolygon","coordinates": [[[[21.437,14.126,764.2476],[21.433,14.25,846.8389],[21.444,14.33,894.6216],[21.478,14.44,905.164],[21.508,14.555,836.04],[21.502,14.629,659.3231],[21.494,14.672,711.488],[21.469,14.718,658.7634],[21.438,14.74,594.3723],[21.391,14.787,610.7646],[21.322,14.834,611.61],[21.3,14.771,644.1896],[21.265,14.704,756.6737],[21.25,14.65,612.5853],[21.193,14.547,650.3294],[21.146,14.474,613.9011],[21.104,14.379,661.5612],[21.092,14.319,763.5981],[21.241,14.31,833.2869],[21.335,14.247,824.1636],[21.379,14.211,839.2744],[21.382,14.111,780.2016],[21.437,14.126,764.2476]]]]}
,"properties": {"GID_3": "TCD.23.1.1_1","GID_0": "TCD","country": "Chad","GID_1": "TCD.23_1","province": "WadiFira","NL_NAME_1": "NA","GID_2": "TCD.23.1_1","county": "Biltine","NL_NAME_2": "NA","city": "Abou-Charib-I","VARNAME_3": "NA","NL_NAME_3": "NA","TYPE_3": "Sub-prefecture","ENGTYPE_3": "Sub-prefecture","CC_3": "NA","HASC_3": "NA","name": "Abou-Charib-I.city","area_km2": 1841.535,"hist_schema_id": "Elevation0-9000","hist_area_km2": {"550": 16.428,"575": 83.302,"600": 151.802,"625": 149.695,"650": 116.665,"675": 96.18,"700": 90.536,"725": 94.938,"750": 102.848,"775": 131.838,"800": 133.301,"825": 146.261,"850": 173.109,"875": 153.689,"900": 106.892,"925": 67.849,"950": 21.008,"975": 4.641,"1000": 0.349,"1025": 0.164,"1075": 0.041}}}