{"type":"Feature","properties":{"GID_3":"TCD.20.2.10_1","GID_0":"TCD","country":"Chad","GID_1":"TCD.20_1","province":"Tandjilé","NL_NAME_1":"NA","GID_2":"TCD.20.2_1","county":"TandjiléEst","NL_NAME_2":"NA","city":"Lai","VARNAME_3":"NA","NL_NAME_3":"NA","TYPE_3":"Sub-prefecture","ENGTYPE_3":"Sub-prefecture","CC_3":"NA","HASC_3":"NA","name":"Lai.city"},
"geometry":{"type": "MultiPolygon","coordinates": [[[[16.2773,9.3795,355.244],[16.2826,9.3619,354.22],[16.2922,9.3507,356.6719],[16.314,9.317,357.1415],[16.3172,9.3458,358.4222],[16.3222,9.3689,358.8047],[16.3322,9.3883,358.3994],[16.349,9.4047,358.0305],[16.3621,9.4143,357.2358],[16.356,9.4248,357.1794],[16.3375,9.4451,356.7244],[16.3223,9.4654,356.2726],[16.3135,9.4821,355.6527],[16.2961,9.5002,354.197],[16.2927,9.5075,353.0961],[16.2777,9.5278,351.4909],[16.2625,9.5029,352.495],[16.2521,9.492,353.3022],[16.2371,9.4909,352.2605],[16.2391,9.4678,349.0],[16.2482,9.4481,353.4825],[16.2585,9.4321,353.8648],[16.2718,9.4052,351.9496],[16.2773,9.3795,355.244]]]]}}