{"type":"Feature","properties":{"GID_3":"TCD.13.3.7_1","GID_0":"TCD","country":"Chad","GID_1":"TCD.13_1","province":"Mandoul","NL_NAME_1":"NA","GID_2":"TCD.13.3_1","county":"MandoulOriental","NL_NAME_2":"NA","city":"Matekaga","VARNAME_3":"NA","NL_NAME_3":"NA","TYPE_3":"Sub-prefecture","ENGTYPE_3":"Sub-prefecture","CC_3":"NA","HASC_3":"NA","name":"Matekaga.city"},
"geometry":{"type": "MultiPolygon","coordinates": [[[[17.6294,9.0776,580.9036],[17.5801,9.1132,466.6901],[17.5757,9.1189,453.8578],[17.5636,9.1293,419.1102],[17.5602,9.1344,410.8063],[17.546,9.128,418.4913],[17.5111,9.1205,415.1846],[17.463,9.1165,388.9528],[17.4343,9.1174,386.9189],[17.4056,9.1135,391.1179],[17.3719,9.1134,387.7398],[17.3651,9.1096,389.3083],[17.3511,9.1051,384.6553],[17.326,9.1032,382.9932],[17.3225,9.0959,380.0322],[17.321,9.0575,376.363],[17.327,9.0453,381.5962],[17.3313,9.0424,377.4709],[17.3384,9.0176,376.1129],[17.3392,9.0011,372.577],[17.3472,8.9909,371.0305],[17.3871,9.0023,375.0994],[17.4333,9.0187,390.2563],[17.5171,9.0278,523.6257],[17.5733,9.0456,580.4152],[17.5902,9.0486,589.1779],[17.6122,9.0555,608.7987],[17.6189,9.0533,604.8784],[17.6291,9.0658,598.1638],[17.6294,9.0776,580.9036]]]]}}