{"type": "Feature","bbox": [15.7623,9.8193,15.859,9.9917],"geometry": {"type": "MultiPolygon","coordinates": [[[[15.8156,9.8193,339.6094],[15.8284,9.8329,337.4612],[15.848,9.8622,339.5562],[15.8572,9.8975,339.0689],[15.859,9.9265,338.5101],[15.8509,9.9605,337.6208],[15.8427,9.9791,337.5584],[15.8259,9.9915,337.0689],[15.8043,9.9832,336.6332],[15.7967,9.9828,337.1472],[15.7839,9.9857,336.3511],[15.7779,9.9917,335.9695],[15.7664,9.9433,336.6715],[15.7623,9.936,337.4273],[15.7692,9.9242,337.7097],[15.7835,9.8831,337.9178],[15.782,9.8698,338.6414],[15.7922,9.8479,338.7374],[15.791,9.8396,338.515],[15.7938,9.8328,338.61],[15.8,9.8304,338.9848],[15.8156,9.8193,339.6094]]]]}
,"properties": {"GID_3": "TCD.14.2.2_1","GID_0": "TCD","country": "Chad","GID_1": "TCD.14_1","province": "Mayo-KebbiEst","NL_NAME_1": "NA","GID_2": "TCD.14.2_1","county": "Mayo-Boneye","NL_NAME_2": "NA","city": "Djoumane","VARNAME_3": "NA","NL_NAME_3": "NA","TYPE_3": "Sub-prefecture","ENGTYPE_3": "Sub-prefecture","CC_3": "NA","HASC_3": "NA","name": "Djoumane.city","area_km2": 138.6595,"hist_schema_id": "Elevation0-9000","hist_area_km2": {"325": 43.6254,"350": 95.0341}}}