{"type": "Feature","bbox": [18.874,9.0953,22.465,12.123],"geometry": {"type": "MultiPolygon","coordinates": [[[[20.7932,9.4417,398.6165],[20.7982,9.4434,399.6906],[20.804,9.443,398.6329],[20.8174,9.428,403.9758],[20.8273,9.4304,399.2944],[20.8277,9.4405,399.388],[20.8248,9.4511,404.3549],[20.8269,9.4628,402.9975],[20.8395,9.48,403.7048],[20.8447,9.4844,403.6924],[20.8496,9.4856,405.7405],[20.8554,9.4824,406.7764],[20.8626,9.4841,406.6653],[20.8664,9.4874,404.3364],[20.864,9.4989,405.0672],[20.8687,9.5072,406.9542],[20.8745,9.5114,405.981],[20.8765,9.5151,405.9843],[20.8737,9.5201,407.1131],[20.8746,9.5233,407.6527],[20.8773,9.5252,407.2085],[20.8949,9.5261,406.9101],[20.8993,9.528,405.45],[20.9065,9.5283,407.6486],[20.9153,9.5254,408.7141],[20.9194,9.5285,409.5737],[20.9219,9.5333,405.6798],[20.919,9.5406,406.692],[20.9195,9.545,408.4652],[20.9244,9.5538,409.147],[20.9243,9.5641,407.4922],[20.9275,9.5711,406.4735],[20.9312,9.5723,407.2369],[20.9367,9.5707,407.3964],[20.9442,9.5635,406.539],[20.9516,9.5679,410.4591],[20.9543,9.576,409.417],[20.9553,9.5868,409.2939],[20.9501,9.6138,407.0569],[20.9515,9.6164,408.9192],[20.9545,9.6187,410.0683],[20.9609,9.6192,410.407],[20.9783,9.6171,410.3376],[20.988,9.6207,410.824],[20.9907,9.6267,413.0219],[20.9874,9.6343,413.8691],[20.9719,9.6357,409.2457],[20.9686,9.6386,409.9556],[20.9671,9.6425,411.5663],[20.9703,9.6472,412.585],[20.9752,9.6479,412.648],[20.9824,9.6445,412.4333],[20.9889,9.6439,412.8168],[20.9937,9.6456,411.9466],[20.9962,9.6502,412.2915],[20.9936,9.6548,410.5894],[20.986,9.6574,413.0873],[20.9811,9.6611,409.6349],[20.9815,9.6654,410.533],[20.995,9.6789,411.7512],[20.9986,9.6849,413.2935],[20.9939,9.6906,411.3408],[20.9876,9.694,411.9393],[20.9742,9.6955,410.7631],[20.9697,9.6977,411.3552],[20.9678,9.7023,410.2891],[20.9694,9.7057,404.186],[20.9722,9.706,410.4489],[20.9808,9.7013,410.637],[21.0019,9.702,411.965],[21.0044,9.7057,414.5312],[21.0008,9.7158,407.6433],[20.993,9.7272,407.8684],[20.9915,9.7349,406.4047],[20.995,9.747,409.1437],[21.0103,9.7322,410.8534],[21.021,9.7286,407.0813],[21.0305,9.7285,408.3659],[21.0363,9.732,413.5465],[21.0385,9.7376,410.0574],[21.0383,9.741,406.7758],[21.0249,9.7585,407.6744],[21.0238,9.765,409.376],[21.0254,9.7693,410.3629],[21.0305,9.774,409.5881],[21.0392,9.7766,409.8833],[21.0492,9.7728,407.0772],[21.0581,9.7665,406.4107],[21.0632,9.7654,406.5802],[21.0742,9.7786,416.0946],[21.0791,9.7789,409.6015],[21.0851,9.7764,412.792],[21.0925,9.7768,413.8734],[21.1077,9.7852,415.9163],[21.1153,9.7919,414.0259],[21.1181,9.8013,410.8459],[21.1164,9.8118,409.8772],[21.1174,9.8187,411.88],[21.1223,9.8321,410.9825],[21.1331,9.8479,413.4933],[21.1522,9.8663,411.5323],[21.1772,9.8841,412.3232],[21.1838,9.8918,411.3308],[21.1901,9.89,411.6389],[21.199,9.8953,416.1117],[21.2031,9.9014,416.3817],[21.2044,9.9087,412.2406],[21.2007,9.9264,412.3682],[21.2028,9.9308,411.9757],[21.2118,9.9357,412.9059],[21.2133,9.9408,412.2358],[21.2125,9.9477,411.452],[21.2148,9.9514,412.737],[21.234,9.9578,413.4692],[21.2425,9.9654,414.1082],[21.2429,9.9694,414.5809],[21.2494,9.9749,413.0363],[21.2513,9.9864,413.3007],[21.254,9.9904,413.7414],[21.2628,9.9937,416.8154],[21.2826,9.9856,415.826],[21.2878,9.9772,416.5935],[21.2927,9.9754,415.6014],[21.2944,9.9713,414.9005],[21.2979,9.9681,416.6129],[21.3018,9.9693,414.7574],[21.3048,9.9734,415.528],[21.3095,9.99,421.8577],[21.317,9.9853,415.0596],[21.3208,9.9722,416.2201],[21.3243,9.9709,417.0046],[21.3301,9.9719,416.0883],[21.3364,9.9653,416.6043],[21.3406,9.9637,417.4186],[21.3475,9.9656,416.8275],[21.3547,9.9703,416.4903],[21.3594,9.985,416.8995],[21.3624,9.989,415.4951],[21.3691,9.9844,417.0981],[21.3733,9.9838,418.8583],[21.3773,9.9852,422.4028],[21.3938,10.0012,418.0717],[21.396,10.013,417.8941],[21.4022,10.0167,416.9761],[21.4045,10.0213,418.1307],[21.4037,10.0344,419.2958],[21.4078,10.0411,417.3805],[21.416,10.0483,420.4916],[21.4204,10.0502,420.0037],[21.4297,10.0473,418.5563],[21.432,10.0487,418.8265],[21.4331,10.0543,419.012],[21.4375,10.0594,418.7081],[21.4378,10.0732,419.3158],[21.4414,10.0808,419.1118],[21.4451,10.083,420.0078],[21.4534,10.0831,423.3604],[21.455,10.087,419.4717],[21.4525,10.0998,419.5648],[21.4548,10.1068,418.8277],[21.4483,10.1186,421.808],[21.4501,10.1237,421.8033],[21.4554,10.127,425.1166],[21.4621,10.1285,421.7857],[21.469,10.1361,426.0923],[21.4717,10.1438,420.2174],[21.4711,10.1486,420.3866],[21.4681,10.1522,421.0428],[21.4812,10.1634,421.6952],[21.4876,10.1646,422.7122],[21.491,10.1709,420.6734],[21.4938,10.187,422.0753],[21.5045,10.1871,422.7073],[21.5101,10.1899,423.7675],[21.5229,10.2155,422.7236],[21.5368,10.2269,421.6614],[21.5439,10.2279,425.0793],[21.5477,10.2252,423.2401],[21.5538,10.2142,427.6073],[21.5613,10.2104,429.0535],[21.5791,10.2152,422.626],[21.5847,10.2148,424.8924],[21.5887,10.2113,424.2512],[21.6109,10.2182,424.1578],[21.6224,10.2314,424.5189],[21.6279,10.231,426.7031],[21.6328,10.2274,426.2486],[21.6368,10.2267,428.7441],[21.641,10.2272,428.9601],[21.6495,10.234,426.3808],[21.6683,10.2318,430.6603],[21.6727,10.2337,429.0802],[21.6757,10.2376,430.128],[21.6686,10.2482,425.3433],[21.663,10.2495,427.6396],[21.6607,10.2531,428.4578],[21.6637,10.2571,425.9941],[21.6753,10.259,427.6767],[21.6826,10.2644,426.2168],[21.6756,10.2712,426.3001],[21.6747,10.2744,427.7075],[21.6765,10.2781,426.9888],[21.6823,10.2788,426.356],[21.6939,10.276,426.519],[21.7055,10.2763,428.4136],[21.7097,10.2789,432.2801],[21.7195,10.2957,434.2194],[21.7246,10.2978,432.8518],[21.7283,10.3018,434.0299],[21.7303,10.3085,431.0073],[21.7344,10.3126,435.5803],[21.7374,10.3202,431.7213],[21.7296,10.3301,428.8948],[21.7235,10.3427,429.7897],[21.7231,10.3471,429.1997],[21.728,10.3567,431.4815],[21.7408,10.3543,431.7902],[21.7404,10.3672,429.4047],[21.7429,10.3817,430.5677],[21.7666,10.404,431.119],[21.771,10.4117,431.9422],[21.7705,10.4179,432.2432],[21.7581,10.4203,432.1697],[21.7541,10.4269,432.14],[21.7584,10.4389,432.2849],[21.7585,10.4439,432.3584],[21.7514,10.4526,433.7039],[21.7526,10.4584,432.9993],[21.7509,10.4639,433.9218],[21.7327,10.4779,435.0828],[21.7197,10.5012,434.2968],[21.7175,10.5079,434.2733],[21.7213,10.5288,435.5516],[21.7298,10.5392,436.9954],[21.7329,10.5542,438.7542],[21.7331,10.5613,440.2458],[21.729,10.5765,436.5135],[21.7269,10.5971,438.9273],[21.7333,10.6117,437.6452],[21.732,10.6291,437.8146],[21.7336,10.654,438.4593],[21.7362,10.6561,437.9529],[21.7406,10.6559,438.6834],[21.7488,10.6456,438.3319],[21.753,10.6426,440.6417],[21.7586,10.6422,438.7367],[21.7646,10.6467,442.7939],[21.7704,10.6538,441.4673],[21.7808,10.6592,442.2698],[21.7824,10.6645,440.6691],[21.7886,10.6694,439.8037],[21.7871,10.6777,439.8279],[21.7888,10.6947,441.9087],[21.7832,10.7034,442.1059],[21.7834,10.7061,440.879],[21.7869,10.7082,440.6266],[21.7879,10.7133,441.0727],[21.7863,10.7222,441.3461],[21.7897,10.7319,442.6999],[21.7843,10.752,443.1213],[21.7859,10.7629,442.928],[21.7908,10.7767,443.1565],[21.7881,10.7875,442.4238],[21.7885,10.7946,442.7556],[21.7912,10.7981,442.2324],[21.8026,10.8021,443.9877],[21.8099,10.8091,444.3996],[21.8141,10.8103,443.7442],[21.8193,10.8244,444.2748],[21.8326,10.8395,445.7711],[21.8417,10.8377,445.8852],[21.8444,10.8475,446.2604],[21.8566,10.8447,447.7115],[21.8652,10.8466,446.0597],[21.8808,10.8699,449.3452],[21.8873,10.8702,448.2982],[21.8992,10.8627,448.7305],[21.9043,10.8632,449.4533],[21.9085,10.866,449.1613],[21.9126,10.8725,449.744],[21.921,10.8719,449.3456],[21.9274,10.8602,448.605],[21.934,10.8534,451.1947],[21.94,10.8523,451.0256],[21.943,10.8557,451.5666],[21.9415,10.8693,450.4768],[21.9445,10.8691,450.5316],[21.949,10.8602,450.28],[21.9528,10.8572,450.7855],[21.9602,10.8582,453.3427],[21.9635,10.8603,451.6162],[21.9622,10.8713,455.0536],[21.9708,10.8684,453.4188],[21.9783,10.8631,453.7793],[21.9825,10.8636,452.2999],[21.9894,10.8738,454.0085],[22.0018,10.8734,453.3483],[22.0165,10.8851,453.7855],[22.0293,10.8856,455.1551],[22.0361,10.8831,455.0029],[22.0417,10.8843,455.1115],[22.0486,10.8892,456.7266],[22.06,10.8886,459.9301],[22.0742,10.8958,459.5366],[22.0816,10.895,456.9725],[22.0987,10.8829,458.2419],[22.105,10.8807,458.5793],[22.112,10.8805,457.5565],[22.1168,10.8831,458.8199],[22.1518,10.876,461.6819],[22.1587,10.8807,462.0732],[22.1747,10.8838,462.6736],[22.1828,10.9001,463.3495],[22.1955,10.9086,464.7236],[22.2224,10.9128,466.309],[22.2363,10.9176,466.7923],[22.2453,10.9255,465.7035],[22.2513,10.9262,466.4196],[22.2656,10.923,468.0549],[22.2822,10.9306,468.4126],[22.2898,10.9314,468.6702],[22.2982,10.9358,469.0786],[22.313,10.9442,470.7499],[22.3237,10.9544,472.1685],[22.3269,10.9558,472.6139],[22.356,10.9564,472.9421],[22.3702,10.9584,474.2619],[22.3766,10.9694,474.8918],[22.3843,10.9619,475.3578],[22.4024,10.9708,477.3496],[22.4136,10.9717,474.6933],[22.4243,10.9707,477.0366],[22.4308,10.9744,477.6395],[22.4333,10.9813,477.4353],[22.4428,10.9885,477.675],[22.4566,10.9879,475.3889],[22.465,10.9951,481.4527],[22.163,11.634,553.8942],[22.02,11.658,528.8553],[21.949,11.704,514.0073],[21.561,11.627,487.4825],[21.1671,11.56,478.2081],[21.096,11.546,475.1965],[21.099,11.64,480.9221],[21.056,11.664,479.5275],[20.974,11.715,486.5415],[20.303,12.035,449.437],[20.266,12.029,458.5164],[20.237,12.042,450.0596],[20.019,12.027,453.5631],[20.011,11.982,439.2983],[19.97,11.965,441.1681],[19.9211,11.96,452.718],[19.912,12.029,443.866],[19.906,12.04,451.161],[19.751,12.053,467.2791],[19.58,12.083,447.7868],[19.496,12.109,458.2919],[19.465,12.123,465.6407],[19.313,11.982,461.8651],[19.341,11.855,452.2736],[19.256,11.726,465.2962],[19.215,11.638,474.1238],[19.088,11.6,500.8874],[19.055,11.689,509.9269],[18.902,11.692,498.0441],[18.874,11.477,477.4404],[18.883,11.402,471.2256],[18.902,11.331,444.3339],[18.967,11.313,444.1942],[19.001,11.273,439.4542],[19.056,11.245,437.6089],[19.13,11.217,434.831],[19.192,11.187,434.7756],[19.238,11.179,438.206],[19.261,11.154,431.0555],[19.405,11.104,431.26],[19.479,11.048,423.7961],[19.57,11.034,417.7849],[19.657,11.003,417.8885],[19.694,11.001,417.0071],[19.706,10.942,417.922],[19.737,10.911,415.1917],[19.707,10.873,414.8757],[19.726,10.717,411.8536],[19.703,10.588,406.3282],[19.635,10.289,404.1219],[19.692,10.267,400.4955],[19.681,10.213,400.1369],[19.648,10.156,397.7988],[19.654,10.097,398.7444],[19.613,10.067,396.4634],[19.681,9.962,393.9996],[19.923,9.269,387.0109],[19.9854,9.0953,383.4006],[19.9979,9.1164,382.8379],[20.0071,9.1029,382.9816],[20.0091,9.1049,382.9412],[20.0113,9.1116,383.8878],[20.0106,9.1237,384.208],[20.0124,9.1261,384.7889],[20.0182,9.1278,384.743],[20.0298,9.127,383.2985],[20.0358,9.1282,382.4341],[20.0469,9.1404,383.7055],[20.0527,9.1425,384.6539],[20.0578,9.1417,382.0243],[20.0713,9.1324,384.5503],[20.0815,9.1333,384.9348],[20.0881,9.1389,383.9384],[20.0935,9.1498,384.9268],[20.1015,9.1565,385.5255],[20.1049,9.1564,386.2392],[20.1089,9.1532,385.61],[20.1132,9.1457,384.9761],[20.1174,9.1425,386.5077],[20.1306,9.1381,385.4003],[20.1392,9.138,386.0976],[20.1475,9.1407,385.9641],[20.1528,9.139,387.2493],[20.1799,9.1375,384.9537],[20.1912,9.1391,388.0243],[20.2074,9.1506,387.7938],[20.2212,9.1518,386.0856],[20.2294,9.1471,386.6635],[20.2387,9.1459,385.9933],[20.2477,9.1323,384.9852],[20.2624,9.1245,385.6388],[20.2736,9.1221,386.067],[20.3034,9.1215,386.9619],[20.3246,9.1255,389.8868],[20.3319,9.1325,388.7962],[20.3367,9.1333,392.8508],[20.3463,9.1276,389.514],[20.3532,9.1282,388.0324],[20.378,9.14,388.1049],[20.3878,9.1484,388.92],[20.3929,9.1506,393.0439],[20.4104,9.1533,389.9248],[20.4342,9.1539,389.1218],[20.4439,9.1595,390.9788],[20.4559,9.1735,390.0359],[20.4703,9.2212,392.3056],[20.4827,9.2411,392.704],[20.4981,9.2721,392.6706],[20.4977,9.2785,391.3117],[20.4915,9.2922,390.6821],[20.4912,9.2968,393.6346],[20.4962,9.3049,395.0044],[20.4958,9.3071,391.03],[20.5083,9.3033,392.2248],[20.5182,9.3045,395.2751],[20.5239,9.3076,391.8549],[20.5269,9.3134,392.3635],[20.5275,9.3191,392.6581],[20.5248,9.332,393.199],[20.5286,9.3371,390.8011],[20.5346,9.3374,394.1224],[20.5407,9.3333,392.7689],[20.5435,9.3336,392.2405],[20.5485,9.3373,392.4189],[20.5607,9.3297,392.595],[20.5674,9.3302,393.002],[20.5715,9.3335,394.6103],[20.5758,9.3414,392.8425],[20.5809,9.3428,393.6151],[20.5841,9.3403,393.1277],[20.5882,9.3328,392.9601],[20.5942,9.3294,393.2989],[20.5997,9.3198,394.3953],[20.6043,9.3165,394.0652],[20.6379,9.3178,399.6627],[20.6406,9.3231,397.6083],[20.6375,9.3263,397.2563],[20.6285,9.3285,394.8608],[20.6235,9.3346,395.1459],[20.6262,9.339,396.5228],[20.6304,9.3409,395.2183],[20.6413,9.3399,400.4164],[20.6477,9.3423,402.8915],[20.6502,9.3469,400.9903],[20.652,9.3674,396.7796],[20.6628,9.3953,403.9657],[20.6669,9.3983,404.3621],[20.6919,9.3991,395.7481],[20.7054,9.3954,396.5453],[20.7129,9.4024,396.8255],[20.7192,9.402,397.4411],[20.7289,9.3966,397.475],[20.7335,9.3973,397.262],[20.7404,9.4023,397.5111],[20.7451,9.4018,397.9185],[20.7481,9.3994,399.0117],[20.7608,9.4011,397.6661],[20.7681,9.4079,397.5852],[20.7699,9.4146,399.4594],[20.767,9.4246,398.3398],[20.7681,9.4281,398.1882],[20.7804,9.4294,398.2205],[20.7932,9.4417,398.6165]]]]}
,"properties": {"GID_1": "TCD.18_1","GID_0": "TCD","country": "Chad","province": "Salamat","VARNAME_1": "NA","NL_NAME_1": "NA","TYPE_1": "Région","ENGTYPE_1": "Region","CC_1": "NA","HASC_1": "TD.SA","ISO_1": "NA","name": "Salamat.province","area_km2": 68237.28,"hist_schema_id": "Elevation0-9000","hist_area_km2": {"375": 93.05,"400": 15379.9,"425": 21039.03,"450": 18887.38,"475": 8902.35,"500": 2570.75,"525": 916.06,"550": 197.36,"575": 82.18,"600": 52.99,"625": 34.53,"650": 23.49,"675": 19.92,"700": 13.67,"725": 9.04,"750": 6.67,"775": 3.68,"800": 2.31,"825": 1.25,"850": 0.85}}}