{"type":"Feature","properties":{"ISO3166-1-Alpha-3":"TCD","country":"Chad","fill":"#FF0","id":"1489","name":"Salamat"},
"geometry":{"type": "Polygon","coordinates": [[[19.82001,12.08701,435.5265],[19.64204,12.09766,439.2569],[19.43538,12.15187,474.3347],[19.3896,12.15895,481.7468],[19.21922,11.99937,468.6114],[19.28795,11.88832,454.3598],[19.29369,11.87287,453.6705],[19.29121,11.85881,455.7226],[19.28578,11.84496,460.0237],[19.1908,11.67365,494.8636],[19.17561,11.66048,485.3828],[19.16196,11.65169,490.7441],[19.0738,11.61893,487.692],[19.0614,11.61573,481.7065],[19.05256,11.61666,477.5545],[19.04605,11.62591,476.1551],[19.01856,11.69324,483.0012],[19.0122,11.70321,483.4849],[19.0029,11.70688,481.1157],[18.99608,11.70812,481.9911],[18.88653,11.70637,512.701],[18.87304,11.70254,524.7433],[18.86761,11.69236,510.6597],[18.86513,11.6798,502.8343],[18.84632,11.38949,448.0172],[18.84694,11.38039,446.4301],[18.8488,11.37434,447.3739],[18.85438,11.36494,445.4917],[18.85609,11.35879,446.2778],[18.85748,11.35037,445.1689],[18.86043,11.34535,445.3237],[18.86524,11.34246,445.6766],[18.88436,11.33967,442.8219],[18.88963,11.33771,444.7523],[18.89366,11.33471,444.7868],[18.89645,11.33057,443.6924],[18.89862,11.32582,443.84],[18.90125,11.32174,442.5333],[18.90544,11.31921,443.523],[18.91087,11.31807,442.8263],[18.92311,11.31704,441.6684],[18.92828,11.31512,441.8683],[18.93185,11.31197,441.6318],[18.93433,11.30763,441.6286],[18.93851,11.29823,441.8789],[18.94115,11.29404,442.3618],[18.94456,11.29058,442.6265],[18.94921,11.28799,442.791],[18.95417,11.28587,442.6741],[18.96006,11.28448,437.8149],[18.97014,11.28029,445.4869],[18.97448,11.27766,442.2825],[18.98972,11.26474,441.6984],[19.03039,11.24024,441.978],[19.03453,11.23833,443.1254],[19.05303,11.23523,437.1294],[19.0583,11.23337,436.8424],[19.06202,11.23012,437.0338],[19.06466,11.22609,439.0552],[19.06698,11.22154,442.2845],[19.07039,11.21802,443.8304],[19.07504,11.21554,442.7518],[19.09277,11.21141,439.2986],[19.09804,11.20965,438.7145],[19.11153,11.2018,440.0835],[19.13153,11.18666,438.1539],[19.13602,11.18418,438.7144],[19.1416,11.18288,439.6746],[19.15979,11.18226,432.7901],[19.16568,11.18123,433.3696],[19.1708,11.17927,433.8901],[19.17467,11.17611,433.4153],[19.17793,11.1726,434.0171],[19.18165,11.16924,431.8143],[19.19142,11.16469,433.6914],[19.2079,11.15942,435.0947],[19.22062,11.15121,432.1034],[19.22589,11.14919,431.7733],[19.23162,11.14769,431.3138],[19.25023,11.14444,430.5101],[19.2555,11.14258,430.174],[19.26004,11.13994,429.6173],[19.26392,11.13699,430.2854],[19.27353,11.12568,429.504],[19.27741,11.12258,428.7243],[19.31544,11.10361,431.5118],[19.32071,11.10206,430.4121],[19.32645,11.1017,428.2313],[19.34288,11.10496,426.7371],[19.34893,11.10516,426.4865],[19.35482,11.10434,428.0639],[19.36009,11.10258,426.8289],[19.36443,11.09968,428.0826],[19.36784,11.09612,427.9811],[19.37094,11.09204,426.626],[19.38138,11.07436,425.8096],[19.38448,11.07044,426.4142],[19.3882,11.06692,424.8893],[19.3927,11.06423,426.1282],[19.39766,11.06212,424.5385],[19.40929,11.05927,424.0528],[19.422,11.05824,423.5216],[19.42789,11.05896,423.3721],[19.44406,11.06315,423.5009],[19.44965,11.06403,426.3788],[19.45538,11.06403,422.4651],[19.46081,11.06258,422.5118],[19.46546,11.06036,422.0109],[19.46933,11.0571,422.7848],[19.47957,11.04656,422.4258],[19.4836,11.04351,421.8799],[19.48814,11.04088,421.2291],[19.4928,11.03917,420.6623],[19.4976,11.03824,422.5045],[19.50086,11.0385,423.0041],[19.50985,11.04072,421.743],[19.51558,11.04108,422.1253],[19.52132,11.04098,421.0433],[19.52644,11.03917,421.1224],[19.5361,11.03457,420.8663],[19.54137,11.03266,422.1283],[19.5499,11.02713,422.2565],[19.55362,11.02388,420.3999],[19.55765,11.02108,419.6208],[19.56261,11.01876,419.6651],[19.56819,11.01721,419.5063],[19.58044,11.01494,418.5825],[19.58602,11.01333,421.2626],[19.59088,11.01085,418.6008],[19.5947,11.00791,417.9706],[19.60111,11.00052,417.1385],[19.60204,10.99995,418.2914],[19.61134,10.99618,418.2794],[19.62328,10.99364,418.7638],[19.62855,10.99168,418.8786],[19.63304,10.98899,417.6095],[19.63646,10.98538,418.2912],[19.65092,10.96533,416.4548],[19.65728,10.95204,416.9494],[19.66162,10.94481,416.8314],[19.66596,10.93959,417.2645],[19.67092,10.93732,415.9505],[19.67681,10.93597,417.5738],[19.68286,10.93365,416.2758],[19.68829,10.92993,417.5069],[19.69294,10.92269,416.4544],[19.69294,10.91773,415.245],[19.6903,10.91396,415.4105],[19.67433,10.90249,416.7625],[19.66689,10.89603,418.3913],[19.66581,10.8782,416.4906],[19.67712,10.70508,419.9662],[19.65837,10.61847,404.5873],[19.60591,10.35916,401.7437],[19.6163,10.29229,401.8656],[19.6287,10.2786,400.4823],[19.63878,10.25167,398.4416],[19.64142,10.237,401.312],[19.64095,10.22522,403.441],[19.63785,10.21442,400.9142],[19.63522,10.20759,399.5067],[19.63196,10.20237,399.1631],[19.62498,10.19555,399.6155],[19.62204,10.19147,398.7149],[19.61971,10.18615,398.5567],[19.61475,10.17245,398.8098],[19.61429,10.16506,398.6275],[19.61568,10.15576,399.4729],[19.61382,10.14956,397.6763],[19.60964,10.14445,397.5125],[19.60343,10.13799,396.0026],[19.60204,10.13127,399.2593],[19.60297,10.12424,398.4445],[19.60529,10.11489,398.1988],[19.60452,10.10869,396.3722],[19.60157,10.10455,396.4716],[19.584,10.09447,396.5642],[19.58044,10.09122,395.4254],[19.57687,10.08734,398.6768],[19.57424,10.08223,397.0269],[19.57207,10.07561,396.6856],[19.5761,10.06445,396.0854],[19.65103,9.92813,392.055],[19.93199,9.06363,390.04],[19.93209,9.06333,390.04],[19.94341,9.06588,388.025],[19.96904,9.08288,391.156],[19.97649,9.08418,389.595],[19.98548,9.08319,390.0707],[19.99302,9.08459,389.0479],[19.99633,9.09283,389.6875],[19.99716,9.09862,386.0762],[19.99953,9.1043,382.0483],[20.00294,9.10851,383.545],[20.00687,9.11022,382.2156],[20.01442,9.10634,383.1258],[20.01793,9.09105,389.4138],[20.02434,9.08976,390.8165],[20.03033,9.09386,388.8817],[20.02992,9.09898,389.0386],[20.02837,9.10456,389.5245],[20.03116,9.11022,389.755],[20.06051,9.13435,387.258],[20.06868,9.13813,383.8867],[20.07694,9.13673,385.2963],[20.09059,9.13112,391.8301],[20.09937,9.13071,391.722],[20.10051,9.13415,392.7186],[20.09958,9.14117,386.8824],[20.10103,9.14807,385.4471],[20.1096,9.15117,384.066],[20.11715,9.14575,386.8053],[20.12573,9.13378,385.3737],[20.13761,9.12182,393.2816],[20.15456,9.11642,390.7202],[20.16955,9.12089,393.7576],[20.19797,9.1405,392.2505],[20.21265,9.14497,393.6869],[20.22298,9.14195,393.1494],[20.23445,9.13456,393.8272],[20.25699,9.11642,395.8888],[20.27683,9.12074,394.499],[20.35941,9.11642,396.6536],[20.37832,9.12006,395.4445],[20.38442,9.12358,397.5093],[20.40292,9.13699,389.2893],[20.41243,9.14205,388.5621],[20.42307,9.14324,389.0276],[20.43517,9.13813,396.962],[20.45542,9.15931,397.1874],[20.46762,9.18414,392.297],[20.48178,9.20466,391.7583],[20.5072,9.21326,393.8029],[20.51299,9.22388,389.0345],[20.50266,9.24742,390.7766],[20.49614,9.27088,395.3136],[20.51423,9.2815,399.0613],[20.52643,9.28362,398.5449],[20.53366,9.28964,399.7974],[20.53728,9.2992,399.4829],[20.53821,9.31194,397.9077],[20.54183,9.32163,393.2205],[20.55092,9.32026,397.8663],[20.57231,9.30822,398.5437],[20.57356,9.30915,398.135],[20.59226,9.30806,399.9366],[20.59288,9.30822,400.2879],[20.60973,9.30279,401.5659],[20.61665,9.30202,402.1514],[20.66792,9.30202,402.075],[20.65489,9.34297,396.4596],[20.69582,9.36346,404.6502],[20.74088,9.37713,404.4628],[20.7505,9.38454,404.9986],[20.75794,9.37713,404.8554],[20.76662,9.38656,405.0063],[20.77106,9.39806,399.1723],[20.77654,9.4078,397.1671],[20.78832,9.41188,402.2192],[20.79235,9.414,403.1175],[20.79824,9.42338,405.8246],[20.80196,9.42555,407.1697],[20.80672,9.42333,406.4449],[20.81323,9.41912,406.4062],[20.81388,9.41885,406.4062],[20.82026,9.41622,407.2719],[20.82615,9.41808,400.1318],[20.83266,9.43725,399.8201],[20.83431,9.46247,401.9744],[20.84145,9.48441,406.1847],[20.86377,9.49379,404.3426],[20.87421,9.5025,406.2408],[20.91266,9.54433,405.1446],[20.92123,9.55898,408.6367],[20.92506,9.5696,407.3701],[20.93426,9.57707,409.4182],[20.95596,9.58942,408.0117],[20.96051,9.59812,407.1344],[20.96227,9.60693,410.493],[20.96764,9.6106,411.7809],[20.98314,9.60368,410.3319],[20.9818,9.61678,410.6824],[20.98015,9.61993,411.2602],[20.9758,9.62417,410.6282],[20.9758,9.63096,410.0656],[20.98996,9.63561,407.7707],[20.99606,9.6483,410.6052],[20.99689,9.68217,411.7278],[21.00009,9.69739,411.5183],[21.01425,9.72447,413.5829],[21.01735,9.74359,413.702],[21.01994,9.74793,413.2209],[21.02562,9.75326,413.512],[21.03234,9.75801,408.3166],[21.03782,9.76067,409.778],[21.03906,9.76217,409.865],[21.04009,9.76475,410.6014],[21.04267,9.76708,409.9911],[21.04836,9.76816,411.0562],[21.05291,9.76589,412.2647],[21.06221,9.7562,412.9263],[21.06582,9.7545,412.9299],[21.07316,9.75765,412.8117],[21.08029,9.76261,413.4051],[21.09311,9.77434,415.9661],[21.09704,9.77537,416.6704],[21.10158,9.77424,416.9021],[21.1052,9.77403,416.58],[21.10675,9.77806,416.6274],[21.10593,9.79188,409.8838],[21.10675,9.79545,416.1745],[21.12174,9.83191,410.1389],[21.13197,9.84943,411.6643],[21.18726,9.88513,410.7578],[21.19543,9.8873,415.6791],[21.19843,9.90299,413.4366],[21.20566,9.91684,413.1237],[21.25692,9.97575,415.534],[21.27129,9.98725,414.6103],[21.28514,9.97859,415.6202],[21.32607,9.96275,419.8351],[21.3395,9.95991,420.1724],[21.37433,9.97311,421.0141],[21.40689,10.00557,420.513],[21.43335,10.04605,420.4584],[21.48544,10.16432,421.7145],[21.51324,10.20052,424.791],[21.54497,10.22,422.7514],[21.55448,10.21865,423.1725],[21.56667,10.21449,422.9921],[21.57928,10.21227,422.6017],[21.58972,10.21661,426.9708],[21.59344,10.21455,424.8234],[21.62527,10.22449,426.2364],[21.63065,10.22744,428.5507],[21.65628,10.23367,426.3782],[21.66889,10.24919,425.4107],[21.67695,10.26917,426.512],[21.68894,10.28891,427.3112],[21.69741,10.29242,426.9661],[21.70889,10.29353,427.5273],[21.71881,10.29663,434.2194],[21.72305,10.30599,429.0174],[21.72212,10.31418,428.574],[21.71777,10.32898,430.8684],[21.71684,10.33981,432.4992],[21.72046,10.36082,433.324],[21.75105,10.41182,435.1371],[21.74361,10.41898,435.3025],[21.74279,10.42577,432.8522],[21.74444,10.43244,433.755],[21.74423,10.43911,435.2745],[21.73803,10.44802,438.9572],[21.72046,10.46802,436.5258],[21.71684,10.47732,437.771],[21.71467,10.4937,434.1455],[21.70548,10.53202,434.2332],[21.70331,10.55241,439.3395],[21.70548,10.57181,440.265],[21.71467,10.6014,439.5172],[21.71684,10.62101,439.1448],[21.72263,10.63672,443.0959],[21.73648,10.64617,437.6484],[21.75343,10.65072,438.9966],[21.76842,10.65199,442.051],[21.77421,10.65516,442.6509],[21.77875,10.66227,439.9672],[21.78485,10.66932,439.975],[21.79539,10.67248,439.9645],[21.80356,10.67366,442.9534],[21.82257,10.67875,444.2323],[21.83291,10.67994,444.5536],[21.85275,10.67015,441.7172],[21.86361,10.66793,443.1874],[21.86836,10.67622,440.8171],[21.87208,10.67759,443.2377],[21.89502,10.69919,444.002],[21.92562,10.72012,447.1265],[21.94308,10.72826,446.132],[22.00386,10.74327,449.8546],[22.0146,10.75456,451.0855],[22.00489,10.77552,451.6881],[22.0114,10.78929,452.7364],[22.01832,10.80988,454.3102],[22.02949,10.82875,455.111],[22.04861,10.83699,455.2277],[22.13243,10.82854,460.0675],[22.14824,10.83076,459.5623],[22.17635,10.81621,460.7839],[22.18979,10.8373,461.4689],[22.20064,10.86867,463.7964],[22.22937,10.89197,465.5317],[22.24012,10.9059,466.4468],[22.25304,10.9153,465.6146],[22.26844,10.909,467.8895],[22.2765,10.90853,467.7266],[22.28725,10.91595,469.7746],[22.30596,10.93256,469.4965],[22.31877,10.93936,469.4446],[22.33944,10.94773,470.2144],[22.36115,10.95365,474.4949],[22.36469,10.95421,473.9973],[22.36456,10.95447,474.1398],[22.36425,10.95509,474.1398],[22.08261,11.59485,531.1321],[22.06804,11.61014,540.9389],[22.04613,11.62513,547.595],[21.89286,11.6704,512.4474],[21.85358,11.69303,522.3665],[21.8387,11.69841,521.1577],[21.82113,11.6981,504.7328],[21.26143,11.59641,481.5605],[21.02914,11.64963,477.8514],[20.5211,11.89943,469.1435],[20.27254,12.06474,447.1251],[20.25047,12.07244,449.0852],[20.22179,12.07833,449.297],[19.96016,12.07006,434.7107],[19.94992,12.06779,437.3444],[19.94605,12.06262,436.8204],[19.9445,12.05642,436.3969],[19.9445,12.0434,436.7059],[19.95442,11.98697,436.5877],[19.95396,11.98118,439.2376],[19.95179,11.97679,444.8113],[19.94698,11.97467,449.6531],[19.94,11.97395,450.5221],[19.89391,11.9755,433.9443],[19.8675,11.97395,432.0354],[19.85851,11.97493,428.9948],[19.85262,11.97684,430.3291],[19.84766,11.98376,431.8642],[19.84425,11.99441,433.2289],[19.83805,12.04836,434.3848],[19.83417,12.06231,433.3594],[19.82001,12.08701,435.5265]]]}}