{"type":"Feature","properties":{"GID_3":"TCD.23.3.2_1","GID_0":"TCD","country":"Chad","GID_1":"TCD.23_1","province":"WadiFira","NL_NAME_1":"NA","GID_2":"TCD.23.3_1","county":"Kobé","NL_NAME_2":"NA","city":"Gourouf","VARNAME_3":"NA","NL_NAME_3":"NA","TYPE_3":"Sub-prefecture","ENGTYPE_3":"Sub-prefecture","CC_3":"NA","HASC_3":"NA","name":"Gourouf.city"},
"geometry":{"type": "MultiPolygon","coordinates": [[[[21.006,14.917,484.9277],[21.082,14.915,504.8307],[21.157,14.889,602.5052],[21.241,14.876,552.3905],[21.322,14.834,611.61],[21.377,15.077,614.0126],[21.389,15.171,602.582],[21.387,15.196,605.1336],[21.368,15.219,590.9688],[21.321,15.189,584.4537],[21.252,15.177,523.7397],[21.188,15.176,518.2006],[21.104,15.114,507.1852],[21.026,15.039,556.4601],[21.009,14.974,491.4232],[21.006,14.917,484.9277]]]]}}