{"type": "Feature","bbox": [18.1231,8.0194,19.0778,8.8816],"geometry": {"type": "MultiPolygon","coordinates": [[[[19.0778,8.6408,373.1341],[19.0506,8.6735,376.4898],[19.0081,8.6805,379.9306],[18.9713,8.6723,381.8526],[18.9453,8.6585,385.7737],[18.9043,8.6682,384.3231],[18.8867,8.6525,382.4363],[18.8525,8.661,384.4139],[18.8196,8.6538,383.6719],[18.7725,8.6692,379.6565],[18.7649,8.6851,385.1175],[18.7432,8.6992,385.3008],[18.7166,8.7003,383.3098],[18.7039,8.6913,382.9333],[18.6861,8.6898,382.5535],[18.6761,8.7013,382.7094],[18.6702,8.7209,380.6779],[18.6583,8.7324,380.0771],[18.6365,8.7307,379.3419],[18.6126,8.7403,381.244],[18.6165,8.7648,379.4133],[18.6122,8.7844,378.1141],[18.6033,8.7994,377.5817],[18.5747,8.8149,374.6293],[18.5683,8.8437,372.7925],[18.5659,8.8649,371.5611],[18.5557,8.8755,370.7337],[18.5366,8.8816,370.6335],[18.5087,8.8678,371.5984],[18.4924,8.8568,371.7028],[18.4835,8.8576,370.4669],[18.4664,8.8416,372.062],[18.4613,8.824,372.6133],[18.4528,8.7688,375.4546],[18.4476,8.7458,376.9115],[18.4345,8.7301,382.574],[18.4029,8.7001,386.2666],[18.3904,8.6787,370.7526],[18.3844,8.6552,382.327],[18.3641,8.6464,379.8506],[18.3453,8.618,383.3934],[18.3193,8.5843,408.9498],[18.2836,8.5679,399.3318],[18.2494,8.5624,387.178],[18.2224,8.5542,385.3632],[18.202,8.5458,381.5576],[18.1782,8.5421,377.5167],[18.1345,8.5397,377.818],[18.1231,8.5301,377.5259],[18.1265,8.513,383.3508],[18.1279,8.4688,387.2654],[18.1443,8.4162,385.745],[18.1551,8.3945,386.1852],[18.1678,8.3778,383.2018],[18.1779,8.3398,391.7805],[18.1775,8.2972,398.2232],[18.1663,8.2526,396.5403],[18.1698,8.2083,397.144],[18.1909,8.1097,404.2099],[18.1952,8.0781,404.8486],[18.2038,8.0576,406.2324],[18.214,8.0194,410.2974],[18.2536,8.0223,406.8834],[18.2704,8.0211,407.9204],[18.2743,8.024,409.5813],[18.3304,8.0286,407.9144],[18.4016,8.0335,403.5795],[18.4132,8.0327,402.3107],[18.4242,8.0355,407.8185],[18.454,8.0362,410.2377],[18.4568,8.0378,409.5541],[18.4819,8.0384,388.1553],[18.502,8.0411,406.1466],[18.6016,8.0467,402.8074],[18.618,8.0525,401.8856],[18.6246,8.0597,400.2264],[18.6233,8.0641,398.15],[18.6243,8.0735,396.582],[18.6279,8.0783,395.2867],[18.6351,8.0832,394.8825],[18.6371,8.091,397.1489],[18.6286,8.1311,397.4916],[18.6281,8.1412,396.7066],[18.63,8.1464,397.0761],[18.6413,8.1637,391.757],[18.6528,8.1769,392.6684],[18.6578,8.1855,391.0493],[18.6577,8.195,395.9394],[18.6736,8.2122,390.959],[18.681,8.2139,389.1902],[18.6897,8.2223,386.2727],[18.7106,8.2316,387.7675],[18.7349,8.2372,384.5941],[18.7402,8.2399,383.2733],[18.7481,8.2398,384.7817],[18.7805,8.2494,388.1535],[18.7859,8.2546,383.4546],[18.797,8.2597,385.5922],[18.8044,8.2607,387.6259],[18.8239,8.2811,384.295],[18.8372,8.289,388.0149],[18.8401,8.2963,390.5941],[18.8509,8.3054,389.0153],[18.8571,8.3239,386.0905],[18.8538,8.3419,378.6758],[18.8505,8.3473,377.9144],[18.8572,8.3473,377.1414],[18.8684,8.342,378.9094],[18.8762,8.3412,387.7459],[18.8734,8.3483,381.1579],[18.8767,8.3543,379.4254],[18.8798,8.3562,378.1129],[18.886,8.355,383.5645],[18.8876,8.357,383.877],[18.8836,8.3642,378.5972],[18.8851,8.3662,378.1569],[18.8996,8.3641,382.2101],[18.9004,8.3707,377.5822],[18.9033,8.3743,377.7649],[18.9102,8.3769,380.0938],[18.9081,8.3841,378.1934],[18.9107,8.387,376.0073],[18.9195,8.3877,376.8394],[18.9239,8.3904,384.4349],[18.9236,8.3961,379.0911],[18.9274,8.3997,379.3712],[18.927,8.4014,380.0394],[18.9198,8.4034,376.217],[18.9174,8.4064,377.8499],[18.9231,8.4129,378.0586],[18.9209,8.4208,376.9644],[18.9217,8.4242,376.7319],[18.9243,8.4267,375.8335],[18.9303,8.4259,379.2589],[18.9317,8.4279,379.7004],[18.9324,8.4366,377.1656],[18.9572,8.4599,378.6311],[18.9704,8.4642,378.9674],[18.9726,8.4679,377.8757],[18.9709,8.4766,374.9554],[18.9729,8.4816,375.8396],[18.9771,8.4832,378.1723],[18.9811,8.4874,374.904],[18.9885,8.4893,378.1032],[18.9973,8.4999,377.5882],[18.989,8.5107,376.1216],[18.9896,8.513,375.1784],[18.9917,8.5148,376.2611],[19.0,8.5158,375.3121],[19.0082,8.524,380.1637],[19.014,8.5232,376.4777],[19.016,8.5276,380.0878],[19.0227,8.5273,376.5962],[19.0291,8.5325,377.4405],[19.0317,8.5376,377.7636],[19.0331,8.5491,377.4133],[19.0423,8.5543,373.2558],[19.0421,8.5619,370.7229],[19.0465,8.5755,366.9854],[19.0461,8.5971,378.9327],[19.0494,8.6029,390.7653],[19.0634,8.6174,375.1591],[19.0658,8.6374,383.0423],[19.0703,8.6401,377.0574],[19.0778,8.6408,373.1341]]]]}
,"properties": {"GID_3": "TCD.16.2.1_1","GID_0": "TCD","country": "Chad","GID_1": "TCD.16_1","province": "Moyen-Chari","NL_NAME_1": "NA","GID_2": "TCD.16.2_1","county": "GrandeSido","NL_NAME_2": "NA","city": "Maro","VARNAME_3": "NA","NL_NAME_3": "NA","TYPE_3": "Sub-prefecture","ENGTYPE_3": "Sub-prefecture","CC_3": "NA","HASC_3": "NA","name": "Maro.city","area_km2": 5528.199,"hist_schema_id": "Elevation0-9000","hist_area_km2": {"375": 1521.875,"400": 3914.135,"425": 92.189}}}