{"type": "Feature","bbox": [21.309,12.724,21.681,13.209],"geometry": {"type": "MultiPolygon","coordinates": [[[[21.632,13.209,687.6026],[21.57,13.184,648.2061],[21.524,13.162,641.376],[21.446,13.146,579.2441],[21.408,13.145,572.3458],[21.407,13.128,563.9719],[21.371,13.089,543.7952],[21.356,13.076,545.38],[21.351,13.022,550.8735],[21.309,12.976,532.2416],[21.325,12.918,530.0457],[21.34,12.854,519.9404],[21.344,12.775,522.8786],[21.384,12.724,547.9587],[21.44,12.734,568.9501],[21.484,12.778,562.1451],[21.539,12.808,587.5849],[21.598,12.827,604.7829],[21.645,12.845,634.4429],[21.681,12.861,649.6697],[21.657,12.886,634.8359],[21.625,12.979,590.882],[21.63,13.059,608.6333],[21.622,13.094,614.1605],[21.632,13.209,687.6026]]]]}
,"properties": {"GID_3": "TCD.17.2.3_1","GID_0": "TCD","country": "Chad","GID_1": "TCD.17_1","province": "Ouaddaï","NL_NAME_1": "NA","GID_2": "TCD.17.2_1","county": "DjourfAlAhmar","NL_NAME_2": "NA","city": "Korio","VARNAME_3": "NA","NL_NAME_3": "NA","TYPE_3": "Sub-prefecture","ENGTYPE_3": "Sub-prefecture","CC_3": "NA","HASC_3": "NA","name": "Korio.city","area_km2": 1341.831,"hist_schema_id": "Elevation0-9000","hist_area_km2": {"500": 0.041,"525": 203.29,"550": 375.459,"575": 389.492,"600": 232.841,"625": 91.258,"650": 35.554,"675": 10.736,"700": 2.416,"725": 0.702,"750": 0.041}}}