{"type": "Feature","bbox": [14.0467,9.5026,14.1551,9.6409],"geometry": {"type": "MultiPolygon","coordinates": [[[[14.1456,9.5036,349.3361],[14.1528,9.5189,339.2266],[14.1551,9.5351,321.1265],[14.1521,9.5444,316.5112],[14.1477,9.5568,296.4786],[14.1277,9.5849,289.3597],[14.1129,9.6135,236.4168],[14.1011,9.6409,241.2923],[14.0812,9.6241,233.7216],[14.0552,9.6052,244.8541],[14.0467,9.6008,262.9146],[14.0838,9.5564,307.4664],[14.0922,9.5549,322.0513],[14.0997,9.5499,331.4307],[14.1075,9.5369,337.2285],[14.1109,9.5178,338.3059],[14.124,9.5092,345.8152],[14.135,9.5042,347.5876],[14.141,9.5026,348.6848],[14.1456,9.5036,349.3361]]]]}
,"properties": {"GID_3": "TCD.15.1.3_1","GID_0": "TCD","country": "Chad","GID_1": "TCD.15_1","province": "Mayo-KebbiOuest","NL_NAME_1": "NA","GID_2": "TCD.15.1_1","county": "LacLéré","NL_NAME_2": "NA","city": "Guegou","VARNAME_3": "NA","NL_NAME_3": "NA","TYPE_3": "Sub-prefecture","ENGTYPE_3": "Sub-prefecture","CC_3": "NA","HASC_3": "NA","name": "Guegou.city","area_km2": 80.24138,"hist_schema_id": "Elevation0-9000","hist_area_km2": {"225": 12.16629,"250": 11.85335,"275": 10.43215,"300": 13.98685,"325": 11.58311,"350": 17.22959,"375": 2.99005}}}