{"type": "Feature","bbox": [15.049,12.05,15.506,12.363],"geometry": {"type": "MultiPolygon","coordinates": [[[[15.506,12.222,294.2401],[15.435,12.29,294.9079],[15.404,12.322,290.8799],[15.373,12.363,292.2918],[15.335,12.319,293.0239],[15.269,12.279,292.2951],[15.191,12.253,290.8426],[15.096,12.232,292.7736],[15.049,12.225,292.8783],[15.056,12.192,292.3517],[15.09,12.152,294.4509],[15.131,12.098,296.4846],[15.16,12.069,290.8649],[15.192,12.057,293.8967],[15.251,12.05,296.2842],[15.299,12.066,295.63],[15.458,12.176,294.0763],[15.506,12.222,294.2401]]]]}
,"properties": {"GID_3": "TCD.4.3.2_1","GID_0": "TCD","country": "Chad","GID_1": "TCD.4_1","province": "Chari-Baguirmi","NL_NAME_1": "NA","GID_2": "TCD.4.3_1","county": "N'Djamena","NL_NAME_2": "NA","city": "Kadada","VARNAME_3": "NA","NL_NAME_3": "NA","TYPE_3": "Sub-prefecture","ENGTYPE_3": "Sub-prefecture","CC_3": "NA","HASC_3": "NA","name": "Kadada.city","area_km2": 892.9199,"hist_schema_id": "Elevation0-9000","hist_area_km2": {"300": 892.9199}}}