{"type":"Feature","properties":{"GID_3":"TCD.18.3.2_1","GID_0":"TCD","country":"Chad","GID_1":"TCD.18_1","province":"Salamat","NL_NAME_1":"NA","GID_2":"TCD.18.3_1","county":"HarazeMangueigne","NL_NAME_2":"NA","city":"Hemat-Haraze","VARNAME_3":"NA","NL_NAME_3":"NA","TYPE_3":"Sub-prefecture","ENGTYPE_3":"Sub-prefecture","CC_3":"NA","HASC_3":"NA","name":"Hemat-Haraze.city"},
"geometry":{"type": "MultiPolygon","coordinates": [[[[22.1561,10.8789,462.0403],[22.074,10.9343,456.092],[22.0402,10.9495,456.0592],[21.8308,10.9156,449.0778],[21.7682,10.9123,449.0986],[21.714,10.9113,449.7635],[21.6401,10.9146,450.2231],[21.6255,10.9193,450.9136],[21.5573,10.9226,450.84],[21.4969,10.9388,451.7721],[21.4382,10.9408,451.7592],[21.3274,10.9213,448.895],[21.2521,10.885,447.5737],[21.1679,10.8421,444.4278],[21.102,10.8203,442.8553],[21.0385,10.7893,440.1562],[21.0,10.7665,439.118],[20.9732,10.7639,439.8692],[20.9665,10.7378,438.3935],[20.9472,10.6878,435.3753],[20.9416,10.6647,434.6757],[20.9304,10.6441,434.3935],[20.9181,10.6257,432.3643],[20.907,10.6022,430.9635],[20.8991,10.5826,430.0368],[20.8758,10.5101,427.3757],[20.8695,10.4775,426.4127],[20.8539,10.4503,425.2142],[20.88,10.4408,425.5785],[20.9239,10.448,426.1075],[20.9806,10.4493,425.0455],[21.1112,10.43,427.6457],[21.1637,10.4337,430.9944],[21.2399,10.4258,432.481],[21.3305,10.4315,430.7305],[21.3841,10.4043,432.4825],[21.4598,10.4032,433.1192],[21.5361,10.397,434.0034],[21.582,10.3694,433.3239],[21.5997,10.3503,431.6995],[21.6279,10.3159,431.8957],[21.6497,10.2849,430.7123],[21.6637,10.2571,425.9941],[21.6753,10.259,427.6767],[21.6826,10.2644,426.2168],[21.6756,10.2712,426.3001],[21.6747,10.2744,427.7075],[21.6765,10.2781,426.9888],[21.6823,10.2788,426.356],[21.6939,10.276,426.519],[21.7055,10.2763,428.4136],[21.7097,10.2789,432.2801],[21.7195,10.2957,434.2194],[21.7246,10.2978,432.8518],[21.7283,10.3018,434.0299],[21.7303,10.3085,431.0073],[21.7344,10.3126,435.5803],[21.7374,10.3202,431.7213],[21.7296,10.3301,428.8948],[21.7235,10.3427,429.7897],[21.7231,10.3471,429.1997],[21.728,10.3567,431.4815],[21.7408,10.3543,431.7902],[21.7404,10.3672,429.4047],[21.7429,10.3817,430.5677],[21.7666,10.404,431.119],[21.771,10.4117,431.9422],[21.7705,10.4179,432.2432],[21.7581,10.4203,432.1697],[21.7541,10.4269,432.14],[21.7584,10.4389,432.2849],[21.7585,10.4439,432.3584],[21.7514,10.4526,433.7039],[21.7526,10.4584,432.9993],[21.7509,10.4639,433.9218],[21.7327,10.4779,435.0828],[21.7197,10.5012,434.2968],[21.7175,10.5079,434.2733],[21.7213,10.5288,435.5516],[21.7298,10.5392,436.9954],[21.7329,10.5542,438.7542],[21.7331,10.5613,440.2458],[21.729,10.5765,436.5135],[21.7269,10.5971,438.9273],[21.7333,10.6117,437.6452],[21.732,10.6291,437.8146],[21.7336,10.654,438.4593],[21.7362,10.6561,437.9529],[21.7406,10.6559,438.6834],[21.7488,10.6456,438.3319],[21.753,10.6426,440.6417],[21.7586,10.6422,438.7367],[21.7646,10.6467,442.7939],[21.7704,10.6538,441.4673],[21.7808,10.6592,442.2698],[21.7824,10.6645,440.6691],[21.7886,10.6694,439.8037],[21.7871,10.6777,439.8279],[21.7888,10.6947,441.9087],[21.7832,10.7034,442.1059],[21.7834,10.7061,440.879],[21.7869,10.7082,440.6266],[21.7879,10.7133,441.0727],[21.7863,10.7222,441.3461],[21.7897,10.7319,442.6999],[21.7843,10.752,443.1213],[21.7859,10.7629,442.928],[21.7908,10.7767,443.1565],[21.7881,10.7875,442.4238],[21.7885,10.7946,442.7556],[21.7912,10.7981,442.2324],[21.8026,10.8021,443.9877],[21.8099,10.8091,444.3996],[21.8141,10.8103,443.7442],[21.8193,10.8244,444.2748],[21.8326,10.8395,445.7711],[21.8417,10.8377,445.8852],[21.8444,10.8475,446.2604],[21.8566,10.8447,447.7115],[21.8652,10.8466,446.0597],[21.8808,10.8699,449.3452],[21.8873,10.8702,448.2982],[21.8992,10.8627,448.7305],[21.9043,10.8632,449.4533],[21.9085,10.866,449.1613],[21.9126,10.8725,449.744],[21.921,10.8719,449.3456],[21.9274,10.8602,448.605],[21.934,10.8534,451.1947],[21.94,10.8523,451.0256],[21.943,10.8557,451.5666],[21.9415,10.8693,450.4768],[21.9445,10.8691,450.5316],[21.949,10.8602,450.28],[21.9528,10.8572,450.7855],[21.9602,10.8582,453.3427],[21.9635,10.8603,451.6162],[21.9622,10.8713,455.0536],[21.9708,10.8684,453.4188],[21.9783,10.8631,453.7793],[21.9825,10.8636,452.2999],[21.9894,10.8738,454.0085],[22.0018,10.8734,453.3483],[22.0165,10.8851,453.7855],[22.0293,10.8856,455.1551],[22.0361,10.8831,455.0029],[22.0417,10.8843,455.1115],[22.0486,10.8892,456.7266],[22.06,10.8886,459.9301],[22.0742,10.8958,459.5366],[22.0816,10.895,456.9725],[22.0987,10.8829,458.2419],[22.105,10.8807,458.5793],[22.112,10.8805,457.5565],[22.1168,10.8831,458.8199],[22.1518,10.876,461.6819],[22.1561,10.8789,462.0403]]]]}}