{"type": "Feature","bbox": [14.996,14.403,16.687,16.8433],"geometry": {"type": "MultiPolygon","coordinates": [[[[16.687,16.242,255.6402],[15.4532,16.8433,279.9142],[15.3304,16.715,289.9723],[15.3288,16.711,288.7701],[15.26,16.6427,296.6954],[15.2584,16.6393,298.3049],[15.2191,16.5981,303.8257],[15.0,16.3705,324.7219],[14.996,14.611,350.3865],[15.135,14.576,350.1138],[15.203,14.586,351.1453],[15.313,14.534,351.1848],[15.381,14.466,335.4349],[15.478,14.419,347.3959],[15.567,14.403,330.0685],[15.623,14.457,310.7888],[15.725,14.48,327.4613],[15.791,14.454,305.6315],[15.888,14.527,315.4994],[15.938,14.538,317.7545],[16.143,14.545,312.3877],[16.182,14.834,317.221],[16.523,15.974,274.382],[16.687,16.242,255.6402]]]]}
,"properties": {"GID_3": "TCD.9.2.2_1","GID_0": "TCD","country": "Chad","GID_1": "TCD.9_1","province": "Kanem","NL_NAME_1": "NA","GID_2": "TCD.9.2_1","county": "Nokou","NL_NAME_2": "NA","city": "Ntiona","VARNAME_3": "NA","NL_NAME_3": "NA","TYPE_3": "Sub-prefecture","ENGTYPE_3": "Sub-prefecture","CC_3": "NA","HASC_3": "NA","name": "Ntiona.city","area_km2": 34387.18,"hist_schema_id": "Elevation0-9000","hist_area_km2": {"225": 102.72,"250": 2186.58,"275": 8292.54,"300": 6873.86,"325": 10985.32,"350": 5184.19,"375": 757.62,"400": 4.34}}}