{"type": "Feature","bbox": [19.555,12.935,20.369,13.458],"geometry": {"type": "MultiPolygon","coordinates": [[[[20.007,13.458,413.4526],[19.886,13.422,401.2591],[19.835,13.415,400.3138],[19.783,13.383,390.3609],[19.683,13.399,387.136],[19.623,13.428,383.9104],[19.598,13.435,382.3824],[19.605,13.375,384.23],[19.614,13.337,385.801],[19.601,13.281,384.3499],[19.562,13.222,372.6569],[19.555,13.17,374.0272],[19.575,13.152,380.4956],[19.566,13.075,391.4948],[19.555,13.034,378.7584],[19.574,13.01,385.1334],[19.592,12.993,398.6874],[19.601,12.939,401.1452],[19.777,13.031,421.7097],[19.993,12.957,432.989],[20.045,12.935,452.4562],[20.331,13.001,437.0029],[20.357,13.02,428.6777],[20.369,13.331,439.2808],[20.364,13.421,442.8461],[20.233,13.402,431.8982],[20.1,13.358,412.9141],[20.068,13.356,409.2452],[20.019,13.394,418.2177],[20.007,13.458,413.4526]]]]}
,"properties": {"GID_3": "TCD.2.1.3_1","GID_0": "TCD","country": "Chad","GID_1": "TCD.2_1","province": "Batha","NL_NAME_1": "NA","GID_2": "TCD.2.1_1","county": "BathaEst","NL_NAME_2": "NA","city": "Massalat-Oum-Hadjer","VARNAME_3": "NA","NL_NAME_3": "NA","TYPE_3": "Sub-prefecture","ENGTYPE_3": "Sub-prefecture","CC_3": "NA","HASC_3": "NA","name": "Massalat-Oum-Hadjer.city","area_km2": 3999.259,"hist_schema_id": "Elevation0-9000","hist_area_km2": {"375": 365.517,"400": 1615.432,"425": 1762.513,"450": 255.694,"475": 0.103}}}