{"type": "Feature","bbox": [16.2924,9.1506,16.3722,9.2399],"geometry": {"type": "MultiPolygon","coordinates": [[[[16.3566,9.2399,359.165],[16.335,9.225,360.7455],[16.2924,9.1843,363.0822],[16.2992,9.1766,363.3911],[16.3171,9.1613,363.3207],[16.3422,9.1527,363.2208],[16.3571,9.1506,363.0957],[16.3691,9.1688,363.1096],[16.3722,9.1861,362.8902],[16.3712,9.2013,362.4328],[16.3566,9.2399,359.165]]]]}
,"properties": {"GID_3": "TCD.11.3.11_1","GID_0": "TCD","country": "Chad","GID_1": "TCD.11_1","province": "LogoneOccidental","NL_NAME_1": "NA","GID_2": "TCD.11.3_1","county": "Ngourkosso","NL_NAME_2": "NA","city": "Tchaouen/Saoua","VARNAME_3": "NA","NL_NAME_3": "NA","TYPE_3": "Sub-prefecture","ENGTYPE_3": "Sub-prefecture","CC_3": "NA","HASC_3": "NA","name": "Tchaouen_Saoua.city","area_km2": 51.73911,"hist_schema_id": "Elevation0-9000","hist_area_km2": {"350": 34.05235,"375": 17.68676}}}