{"type": "Feature","bbox": [20.652,13.716,21.174,14.129],"geometry": {"type": "MultiPolygon","coordinates": [[[[20.695,13.904,648.8698],[20.69,13.859,660.0438],[20.652,13.736,489.9298],[20.781,13.716,510.0952],[20.911,13.722,539.9374],[20.983,13.876,640.1035],[21.061,13.933,654.5327],[21.109,13.964,690.6141],[21.142,13.993,704.9306],[21.174,14.044,735.5714],[21.142,14.096,732.6277],[21.108,14.129,654.3206],[21.02,14.053,637.5182],[20.853,13.976,563.5139],[20.746,13.934,525.0389],[20.695,13.904,648.8698]]]]}
,"properties": {"GID_3": "TCD.17.3.3_1","GID_0": "TCD","country": "Chad","GID_1": "TCD.17_1","province": "Ouaddaï","NL_NAME_1": "NA","GID_2": "TCD.17.3_1","county": "Ouara","NL_NAME_2": "NA","city": "Kachimel-Abeche","VARNAME_3": "NA","NL_NAME_3": "NA","TYPE_3": "Sub-prefecture","ENGTYPE_3": "Sub-prefecture","CC_3": "NA","HASC_3": "NA","name": "Kachimel-Abeche.city","area_km2": 1148.1343,"hist_schema_id": "Elevation0-9000","hist_area_km2": {"500": 62.0467,"525": 202.7438,"550": 268.517,"575": 174.4342,"600": 123.8071,"625": 57.1047,"650": 42.361,"675": 45.4852,"700": 75.7236,"725": 77.3182,"750": 18.5723,"775": 0.0206}}}