{"type": "Feature","bbox": [14.157,9.698,14.7416,10.0066],"geometry": {"type": "MultiPolygon","coordinates": [[[[14.5297,9.994,385.5705],[14.4661,10.0066,348.7238],[14.2406,10.0041,399.4607],[14.2325,10.0027,407.8371],[14.208,10.0061,396.3919],[14.2082,10.0016,399.0371],[14.1779,9.9134,354.9932],[14.157,9.868,344.8199],[14.2089,9.8596,316.2921],[14.2299,9.8517,322.7083],[14.2848,9.8099,330.9221],[14.3018,9.7903,300.5491],[14.3095,9.7726,320.2082],[14.3243,9.7574,326.4634],[14.3592,9.7592,339.7476],[14.3782,9.7648,337.5797],[14.4082,9.7663,363.3846],[14.4254,9.7626,348.6941],[14.441,9.7513,372.6167],[14.4677,9.7355,338.6442],[14.4889,9.7288,316.1275],[14.5182,9.7056,292.205],[14.5313,9.7023,267.2099],[14.5258,9.698,277.0026],[14.6031,9.7133,323.022],[14.638,9.7382,310.0365],[14.6506,9.7543,315.729],[14.664,9.7625,313.5009],[14.6825,9.7846,313.7681],[14.6938,9.7944,314.3944],[14.7217,9.8126,316.0315],[14.7282,9.8226,315.0141],[14.7212,9.8389,330.3869],[14.7261,9.852,350.6707],[14.7332,9.8593,342.0872],[14.7349,9.8657,338.5095],[14.7322,9.8712,345.6685],[14.7248,9.8746,348.9044],[14.7262,9.8842,359.7389],[14.735,9.8945,362.9116],[14.7396,9.9045,354.8116],[14.7416,9.916,355.0446],[14.7281,9.951,368.4204],[14.7381,9.9503,373.5205],[14.5297,9.994,385.5705]]]]}
,"properties": {"GID_3": "TCD.15.1.1_1","GID_0": "TCD","country": "Chad","GID_1": "TCD.15_1","province": "Mayo-KebbiOuest","NL_NAME_1": "NA","GID_2": "TCD.15.1_1","county": "LacLéré","NL_NAME_2": "NA","city": "Binder","VARNAME_3": "NA","NL_NAME_3": "NA","TYPE_3": "Sub-prefecture","ENGTYPE_3": "Sub-prefecture","CC_3": "NA","HASC_3": "NA","name": "Binder.city","area_km2": 1507.263,"hist_schema_id": "Elevation0-9000","hist_area_km2": {"250": 2.132,"275": 5.183,"300": 67.493,"325": 298.197,"350": 534.661,"375": 443.106,"400": 152.565,"425": 3.927}}}