{"type": "Feature","bbox": [14.961,12.225,15.373,12.474],"geometry": {"type": "MultiPolygon","coordinates": [[[[15.373,12.363,292.2918],[15.326,12.434,291.0319],[15.292,12.474,290.6261],[15.248,12.436,291.3359],[15.221,12.422,289.3275],[15.173,12.387,292.0482],[15.108,12.368,291.047],[15.051,12.364,291.6423],[15.002,12.336,292.1104],[14.987,12.298,291.3294],[14.961,12.244,291.793],[14.991,12.229,290.978],[15.049,12.225,292.8783],[15.096,12.232,292.7736],[15.191,12.253,290.8426],[15.269,12.279,292.2951],[15.335,12.319,293.0239],[15.373,12.363,292.2918]]]]}
,"properties": {"GID_3": "TCD.8.3.1_1","GID_0": "TCD","country": "Chad","GID_1": "TCD.8_1","province": "Hadjer-Lamis","NL_NAME_1": "NA","GID_2": "TCD.8.3_1","county": "HarazeAlBiar","NL_NAME_2": "NA","city": "Afrouk","VARNAME_3": "NA","NL_NAME_3": "NA","TYPE_3": "Sub-prefecture","ENGTYPE_3": "Sub-prefecture","CC_3": "NA","HASC_3": "NA","name": "Afrouk.city","area_km2": 628.8961,"hist_schema_id": "Elevation0-9000","hist_area_km2": {"275": 0.145,"300": 628.7511}}}