{"type":"Feature","properties":{"GID_3":"TCD.13.3.3_1","GID_0":"TCD","country":"Chad","GID_1":"TCD.13_1","province":"Mandoul","NL_NAME_1":"NA","GID_2":"TCD.13.3_1","county":"MandoulOriental","NL_NAME_2":"NA","city":"Dobo","VARNAME_3":"NA","NL_NAME_3":"NA","TYPE_3":"Sub-prefecture","ENGTYPE_3":"Sub-prefecture","CC_3":"NA","HASC_3":"NA","name":"Dobo.city"},
"geometry":{"type": "MultiPolygon","coordinates": [[[[17.8255,9.2953,449.9493],[17.8197,9.3251,503.3396],[17.811,9.347,502.5811],[17.7756,9.417,407.7555],[17.763,9.436,430.4745],[17.7567,9.4391,433.437],[17.7459,9.4403,433.6071],[17.7366,9.4443,427.5028],[17.7238,9.4437,423.0581],[17.6851,9.4486,412.5443],[17.6758,9.4463,412.1399],[17.6658,9.4487,409.2858],[17.6383,9.4304,403.6212],[17.6004,9.4116,386.5617],[17.584,9.3974,375.0791],[17.5804,9.328,390.7162],[17.5696,9.3053,390.2342],[17.5619,9.2798,392.8401],[17.5638,9.2483,392.9618],[17.5617,9.2277,392.7855],[17.5384,9.1935,371.876],[17.5466,9.1781,383.8686],[17.5553,9.1426,391.024],[17.5636,9.1293,419.1102],[17.5757,9.1189,453.8578],[17.5801,9.1132,466.6901],[17.6294,9.0776,580.9036],[17.6336,9.0771,583.8005],[17.6546,9.0823,587.3026],[17.6659,9.0871,568.2494],[17.6723,9.092,568.508],[17.6794,9.1019,542.7514],[17.7156,9.1604,470.6815],[17.7271,9.1846,460.4099],[17.7477,9.2398,421.471],[17.7627,9.2613,449.9608],[17.7796,9.28,469.0547],[17.7988,9.2874,464.9055],[17.8271,9.2931,446.235],[17.8255,9.2953,449.9493]]]]}}