{"type": "Feature","bbox": [20.114,12.492,20.493,12.764],"geometry": {"type": "MultiPolygon","coordinates": [[[[20.154,12.531,450.7625],[20.209,12.549,464.6231],[20.343,12.521,458.0499],[20.399,12.512,455.2961],[20.439,12.494,466.1517],[20.493,12.492,451.7672],[20.489,12.543,446.1188],[20.464,12.588,449.3632],[20.45,12.621,438.5024],[20.462,12.659,450.5276],[20.439,12.673,441.8833],[20.428,12.71,454.4696],[20.402,12.729,448.6381],[20.346,12.752,440.8405],[20.322,12.731,433.6096],[20.288,12.739,449.8344],[20.244,12.764,450.2167],[20.204,12.729,467.9661],[20.174,12.727,472.685],[20.114,12.614,451.0885],[20.154,12.531,450.7625]]]]}
,"properties": {"GID_3": "TCD.19.1.1_1","GID_0": "TCD","country": "Chad","GID_1": "TCD.19_1","province": "Sila","NL_NAME_1": "NA","GID_2": "TCD.19.1_1","county": "DjourfAlAhmar","NL_NAME_2": "NA","city": "Bakhat","VARNAME_3": "NA","NL_NAME_3": "NA","TYPE_3": "Sub-prefecture","ENGTYPE_3": "Sub-prefecture","CC_3": "NA","HASC_3": "NA","name": "Bakhat.city","area_km2": 819.308,"hist_schema_id": "Elevation0-9000","hist_area_km2": {"425": 41.8426,"450": 569.1166,"475": 180.6725,"500": 20.2709,"525": 3.0614,"550": 1.2411,"575": 1.0756,"600": 0.9515,"625": 0.5792,"650": 0.2896,"675": 0.1655,"700": 0.0207,"725": 0.0207}}}