{"type":"Feature","properties":{"GID_3":"TCD.23.2.12_1","GID_0":"TCD","country":"Chad","GID_1":"TCD.23_1","province":"WadiFira","NL_NAME_1":"NA","GID_2":"TCD.23.2_1","county":"DarTama","NL_NAME_2":"NA","city":"Moore","VARNAME_3":"NA","NL_NAME_3":"NA","TYPE_3":"Sub-prefecture","ENGTYPE_3":"Sub-prefecture","CC_3":"NA","HASC_3":"NA","name":"Moore.city"},
"geometry":{"type": "MultiPolygon","coordinates": [[[[22.093,14.639,997.7417],[22.168,14.611,1033.2681],[22.237,14.593,979.2401],[22.311,14.54,965.1932],[22.356,14.479,972.234],[22.4462,14.4514,936.9409],[22.4496,14.4724,937.4321],[22.4476,14.4825,934.6079],[22.4286,14.4968,919.8228],[22.418,14.5006,924.3042],[22.4101,14.5054,925.1917],[22.4007,14.5083,923.6896],[22.3873,14.5045,929.3622],[22.3842,14.5067,929.6164],[22.3974,14.5526,940.5271],[22.4025,14.5625,944.5594],[22.408,14.585,924.0171],[22.348,14.622,933.1236],[22.238,14.698,978.5652],[22.157,14.795,962.8562],[22.079,14.905,976.9131],[22.011,14.784,970.8607],[21.991,14.745,941.9372],[22.043,14.65,969.834],[22.093,14.639,997.7417]]]]}}