{"type": "Feature","bbox": [18.889,11.995,18.997,12.127],"geometry": {"type": "MultiPolygon","coordinates": [[[[18.997,12.08,567.9152],[18.98,12.105,1151.4261],[18.947,12.127,640.6244],[18.92,12.121,1217.8647],[18.889,12.082,571.1159],[18.898,12.055,559.2709],[18.935,11.995,557.7067],[18.97,12.013,773.1215],[18.983,12.038,891.5724],[18.997,12.08,567.9152]]]]}
,"properties": {"GID_3": "TCD.7.1.5_1","GID_0": "TCD","country": "Chad","GID_1": "TCD.7_1","province": "Guéra","NL_NAME_1": "NA","GID_2": "TCD.7.1_1","county": "BarhSignaka","NL_NAME_2": "NA","city": "Yalnass","VARNAME_3": "NA","NL_NAME_3": "NA","TYPE_3": "Sub-prefecture","ENGTYPE_3": "Sub-prefecture","CC_3": "NA","HASC_3": "NA","name": "Yalnass.city","area_km2": 109.47449,"hist_schema_id": "Elevation0-9000","hist_area_km2": {"550": 0.95388,"575": 13.33345,"600": 8.75025,"625": 3.79444,"650": 3.77344,"675": 4.62326,"700": 4.39534,"725": 4.91382,"750": 5.80538,"775": 5.74327,"800": 5.57734,"825": 5.30769,"850": 5.95043,"875": 4.89305,"900": 4.41609,"925": 4.35392,"950": 4.22946,"975": 3.13068,"1000": 3.15146,"1025": 2.52945,"1050": 1.96967,"1075": 1.59646,"1100": 1.20254,"1125": 1.38915,"1150": 1.0367,"1175": 0.72566,"1200": 0.70494,"1225": 0.68419,"1250": 0.22807,"1275": 0.20733,"1300": 0.0622,"1325": 0.04146}}}