{"type":"Feature","properties":{"GID_2":"TCD.14.1_1","GID_0":"TCD","country":"Chad","GID_1":"TCD.14_1","province":"Mayo-KebbiEst","NL_NAME_1":"NA","county":"Kabbia","VARNAME_2":"Gounou-Gaya","NL_NAME_2":"NA","TYPE_2":"Department","ENGTYPE_2":"Department","CC_2":"NA","HASC_2":"TD.ME.KA","name":"Kabbia.county"},
"geometry":{"type": "MultiPolygon","coordinates": [[[[15.521,9.364,382.2798],[15.566,9.419,355.2267],[15.611,9.459,357.2895],[15.665,9.504,360.5041],[15.675,9.525,359.0696],[15.682,9.586,350.418],[15.714,9.602,348.4015],[15.727,9.676,338.456],[15.755,9.708,339.6074],[15.7938,9.7247,340.7392],[15.7844,9.7504,340.2831],[15.7826,9.7626,341.0471],[15.7854,9.797,339.6891],[15.8006,9.8108,339.4628],[15.8156,9.8193,339.6094],[15.8,9.8304,338.9848],[15.7938,9.8328,338.61],[15.791,9.8396,338.515],[15.7761,9.8454,338.5419],[15.7712,9.8501,338.4842],[15.7655,9.8526,338.4025],[15.7537,9.8414,338.4355],[15.7419,9.8355,338.9403],[15.7249,9.816,338.7702],[15.7006,9.8007,338.8094],[15.6838,9.7975,337.9337],[15.655,9.7866,337.1435],[15.6372,9.7881,336.4828],[15.6238,9.7851,336.0833],[15.5807,9.7798,334.359],[15.5653,9.7827,333.9818],[15.5508,9.7818,333.5296],[15.5384,9.788,333.2453],[15.5255,9.7913,333.8113],[15.5147,9.7966,332.8655],[15.4936,9.7905,333.4876],[15.4722,9.776,335.3521],[15.4353,9.7762,333.9669],[15.3986,9.7733,334.4644],[15.3529,9.7655,335.2945],[15.2849,9.7467,339.5845],[15.2582,9.737,340.3015],[15.2197,9.7263,341.4466],[15.1938,9.7277,339.7565],[15.1782,9.7252,339.4519],[15.1623,9.7041,343.2449],[15.1526,9.6835,335.7766],[15.1504,9.6687,359.1029],[15.1501,9.6179,366.6922],[15.1404,9.6108,366.0857],[15.1354,9.599,373.3644],[15.1212,9.5918,390.8176],[15.1031,9.5764,397.4771],[15.0912,9.5749,399.9774],[15.0708,9.5604,373.9364],[15.0742,9.5518,371.6434],[15.0808,9.5418,381.2709],[15.0881,9.5212,395.0623],[15.086,9.4969,405.8676],[15.0886,9.4813,416.0354],[15.0921,9.4774,419.972],[15.0919,9.4683,424.0269],[15.0879,9.4532,426.5518],[15.0893,9.4385,424.4163],[15.0999,9.427,439.1922],[15.1039,9.412,444.422],[15.1115,9.4014,440.8025],[15.1199,9.3951,451.1326],[15.1283,9.3765,454.3438],[15.1345,9.3668,475.9366],[15.1378,9.3574,485.7635],[15.1818,9.3246,511.4901],[15.2445,9.2947,498.9261],[15.27,9.2713,471.4812],[15.3376,9.2415,453.8375],[15.3498,9.2375,452.5661],[15.3553,9.2302,441.9734],[15.3625,9.227,445.902],[15.3761,9.2236,426.4186],[15.3923,9.2141,405.5356],[15.411,9.2075,392.6632],[15.421,9.21,386.6461],[15.445,9.242,391.9383],[15.475,9.289,387.5073],[15.484,9.319,395.1607],[15.521,9.364,382.2798]]]]}}