{"type":"Feature","properties":{"GID_3":"TCD.2.3.1_1","GID_0":"TCD","country":"Chad","GID_1":"TCD.2_1","province":"Batha","NL_NAME_1":"NA","GID_2":"TCD.2.3_1","county":"Fitri","NL_NAME_2":"NA","city":"Djaatne","VARNAME_3":"NA","NL_NAME_3":"NA","TYPE_3":"Sub-prefecture","ENGTYPE_3":"Sub-prefecture","CC_3":"NA","HASC_3":"NA","name":"Djaatne.city"},
"geometry":{"type": "MultiPolygon","coordinates": [[[[18.637,13.358,341.153],[18.634,13.391,341.4145],[18.625,13.444,340.4388],[18.599,13.567,340.3186],[18.512,13.576,335.6347],[18.413,13.574,333.5568],[18.356,13.566,330.8472],[18.324,13.521,331.9037],[18.318,13.483,331.5938],[18.289,13.468,330.4584],[18.34,13.447,332.1059],[18.405,13.45,334.5145],[18.466,13.422,336.9965],[18.566,13.398,337.8111],[18.637,13.358,341.153]]]]}}