{"type": "Feature","bbox": [15.5797,8.281,15.7792,8.6992],"geometry": {"type": "MultiPolygon","coordinates": [[[[15.6699,8.5971,424.0016],[15.6553,8.5302,456.5999],[15.6769,8.5051,451.9366],[15.6775,8.4871,446.9113],[15.662,8.4718,439.3647],[15.63,8.4651,432.6291],[15.6112,8.4508,457.1255],[15.5982,8.4336,459.1729],[15.585,8.4043,477.9656],[15.5797,8.3614,517.3618],[15.5856,8.2964,479.2807],[15.581,8.281,466.2848],[15.607,8.286,466.4526],[15.648,8.311,461.4268],[15.685,8.33,450.4518],[15.7132,8.3326,425.3908],[15.7297,8.3873,432.9901],[15.7522,8.4432,463.1158],[15.772,8.5031,464.3989],[15.7792,8.5333,451.2535],[15.7761,8.5471,431.2167],[15.7651,8.5771,453.515],[15.753,8.5952,465.2756],[15.7408,8.6208,461.907],[15.7366,8.6517,459.05],[15.7316,8.6656,445.0744],[15.7323,8.6735,442.8105],[15.7291,8.6886,452.1965],[15.7292,8.6992,454.3034],[15.7253,8.6933,447.8641],[15.7119,8.6799,439.3129],[15.7021,8.6643,423.9302],[15.679,8.6221,440.028],[15.6745,8.6109,433.4726],[15.6732,8.6024,428.8616],[15.6699,8.5971,424.0016]]]]}
,"properties": {"GID_3": "TCD.11.2.12_1","GID_0": "TCD","country": "Chad","GID_1": "TCD.11_1","province": "LogoneOccidental","NL_NAME_1": "NA","GID_2": "TCD.11.2_1","county": "LacWey","NL_NAME_2": "NA","city": "Ngondong","VARNAME_3": "NA","NL_NAME_3": "NA","TYPE_3": "Sub-prefecture","ENGTYPE_3": "Sub-prefecture","CC_3": "NA","HASC_3": "NA","name": "Ngondong.city","area_km2": 491.1901,"hist_schema_id": "Elevation0-9000","hist_area_km2": {"425": 75.7088,"450": 253.973,"475": 141.6632,"500": 17.034,"525": 2.811}}}