{"type":"Feature","properties":{"GID_3":"TCD.18.3.4_1","GID_0":"TCD","country":"Chad","GID_1":"TCD.18_1","province":"Salamat","NL_NAME_1":"NA","GID_2":"TCD.18.3_1","county":"HarazeMangueigne","NL_NAME_2":"NA","city":"Mangueigne","VARNAME_3":"NA","NL_NAME_3":"NA","TYPE_3":"Sub-prefecture","ENGTYPE_3":"Sub-prefecture","CC_3":"NA","HASC_3":"NA","name":"Mangueigne.city"},
"geometry":{"type": "MultiPolygon","coordinates": [[[[21.6637,10.2571,425.9941],[21.6497,10.2849,430.7123],[21.6279,10.3159,431.8957],[21.5997,10.3503,431.6995],[21.582,10.3694,433.3239],[21.5361,10.397,434.0034],[21.4598,10.4032,433.1192],[21.3841,10.4043,432.4825],[21.3305,10.4315,430.7305],[21.2399,10.4258,432.481],[21.1637,10.4337,430.9944],[21.1112,10.43,427.6457],[20.9806,10.4493,425.0455],[20.9239,10.448,426.1075],[20.88,10.4408,425.5785],[20.8539,10.4503,425.2142],[20.8366,10.4171,423.9173],[20.814,10.3684,421.7377],[20.8067,10.3391,420.7775],[20.789,10.3098,420.5403],[20.7746,10.256,417.9474],[20.7669,10.2101,417.5974],[20.7533,10.1643,418.2363],[20.7491,10.1026,411.1696],[20.7402,10.0347,412.9529],[20.7765,10.0425,414.4424],[20.8797,10.0273,417.969],[20.9668,10.0261,417.1777],[20.9935,10.0399,415.067],[21.0056,10.0664,419.3157],[21.008,10.0984,418.6358],[21.0181,10.1343,419.4013],[21.0821,10.1492,419.7672],[21.1354,10.1547,422.0738],[21.1741,10.1458,423.5081],[21.2246,10.1515,424.3087],[21.2746,10.1506,423.1312],[21.3093,10.1572,423.6455],[21.3416,10.1555,424.4149],[21.3613,10.129,422.7503],[21.3922,10.1073,425.7208],[21.4233,10.096,424.5181],[21.455,10.087,419.4717],[21.4525,10.0998,419.5648],[21.4548,10.1068,418.8277],[21.4483,10.1186,421.808],[21.4501,10.1237,421.8033],[21.4554,10.127,425.1166],[21.4621,10.1285,421.7857],[21.469,10.1361,426.0923],[21.4717,10.1438,420.2174],[21.4711,10.1486,420.3866],[21.4681,10.1522,421.0428],[21.4812,10.1634,421.6952],[21.4876,10.1646,422.7122],[21.491,10.1709,420.6734],[21.4938,10.187,422.0753],[21.5045,10.1871,422.7073],[21.5101,10.1899,423.7675],[21.5229,10.2155,422.7236],[21.5368,10.2269,421.6614],[21.5439,10.2279,425.0793],[21.5477,10.2252,423.2401],[21.5538,10.2142,427.6073],[21.5613,10.2104,429.0535],[21.5791,10.2152,422.626],[21.5847,10.2148,424.8924],[21.5887,10.2113,424.2512],[21.5893,10.2125,424.8951],[21.5975,10.213,424.3126],[21.6109,10.2182,424.1578],[21.6224,10.2314,424.5189],[21.6279,10.231,426.7031],[21.6328,10.2274,426.2486],[21.6368,10.2267,428.7441],[21.641,10.2272,428.9601],[21.6495,10.234,426.3808],[21.6683,10.2318,430.6603],[21.6727,10.2337,429.0802],[21.6757,10.2376,430.128],[21.6686,10.2482,425.3433],[21.663,10.2495,427.6396],[21.6607,10.2531,428.4578],[21.6637,10.2571,425.9941]]]]}}