{"type":"Feature","properties":{"GID_3":"TCD.20.2.8_1","GID_0":"TCD","country":"Chad","GID_1":"TCD.20_1","province":"Tandjilé","NL_NAME_1":"NA","GID_2":"TCD.20.2_1","county":"TandjiléEst","NL_NAME_2":"NA","city":"Kimre","VARNAME_3":"NA","NL_NAME_3":"NA","TYPE_3":"Sub-prefecture","ENGTYPE_3":"Sub-prefecture","CC_3":"NA","HASC_3":"NA","name":"Kimre.city"},
"geometry":{"type": "MultiPolygon","coordinates": [[[[16.7808,9.3811,352.5571],[16.7943,9.3669,354.5509],[16.8057,9.3676,352.675],[16.8229,9.3746,349.5275],[16.8948,9.3732,349.1863],[16.9195,9.3814,346.3348],[16.943,9.3822,349.2389],[16.9568,9.3886,346.1268],[16.9584,9.399,347.4192],[16.9671,9.421,346.3194],[16.9596,9.4437,343.4724],[16.9693,9.4718,346.9378],[16.9715,9.4951,345.3137],[16.9785,9.5084,343.6911],[16.948,9.521,344.3377],[16.9086,9.5336,345.2031],[16.8695,9.541,344.9644],[16.8452,9.5428,345.9309],[16.824,9.5496,346.4327],[16.8063,9.5596,346.4873],[16.7966,9.5696,346.4018],[16.7807,9.559,346.985],[16.7693,9.528,347.7003],[16.7656,9.5096,347.9933],[16.7585,9.4972,348.2534],[16.7792,9.4278,348.8288],[16.7824,9.3923,351.0601],[16.7808,9.3811,352.5571]]]]}}