{"type":"Feature","properties":{"GID_3":"TCD.2.1.1_1","GID_0":"TCD","country":"Chad","GID_1":"TCD.2_1","province":"Batha","NL_NAME_1":"NA","GID_2":"TCD.2.1_1","county":"BathaEst","NL_NAME_2":"NA","city":"Dhok/Dopdop","VARNAME_3":"NA","NL_NAME_3":"NA","TYPE_3":"Sub-prefecture","ENGTYPE_3":"Sub-prefecture","CC_3":"NA","HASC_3":"NA","name":"Dhok_Dopdop.city"},
"geometry":{"type": "MultiPolygon","coordinates": [[[[20.364,13.421,442.8461],[20.314,13.529,441.1026],[20.276,13.586,431.6429],[20.267,13.613,436.5262],[20.276,13.671,428.6974],[20.295,13.755,436.8947],[20.268,13.829,429.9197],[20.056,13.956,413.7078],[20.062,14.082,410.3776],[20.006,13.987,398.3452],[19.969,13.951,404.806],[19.9,13.903,399.7794],[19.818,13.858,390.4183],[19.746,13.831,385.3871],[19.676,13.808,382.1492],[19.625,13.82,378.9474],[19.6,13.81,378.0354],[19.564,13.769,375.7044],[19.585,13.727,376.0692],[19.624,13.717,379.4132],[19.726,13.734,386.208],[19.791,13.734,388.8228],[19.827,13.736,390.999],[19.863,13.732,393.7557],[19.896,13.774,397.4032],[19.934,13.777,401.4608],[19.952,13.795,403.1716],[20.007,13.803,407.0627],[20.09,13.795,414.8716],[20.147,13.774,426.2534],[20.21,13.734,430.8961],[20.202,13.685,424.2203],[20.149,13.624,417.1358],[20.091,13.562,414.012],[20.047,13.489,414.4109],[20.007,13.458,413.4526],[20.019,13.394,418.2177],[20.068,13.356,409.2452],[20.1,13.358,412.9141],[20.233,13.402,431.8982],[20.364,13.421,442.8461]]]]}}