{"type": "Feature","bbox": [13.999,13.996,14.898,14.507],"geometry": {"type": "MultiPolygon","coordinates": [[[[14.898,14.386,343.8632],[14.775,14.457,346.1412],[14.574,14.507,337.9402],[13.999,14.466,304.0053],[14.027,14.42,300.4708],[14.077,14.416,303.9973],[14.144,14.354,302.0349],[14.159,14.285,297.3889],[14.216,14.267,301.0387],[14.25,14.2,295.2995],[14.325,14.183,301.9528],[14.355,14.125,296.6594],[14.489,14.093,308.0615],[14.554,13.996,301.0393],[14.623,14.049,314.2307],[14.741,14.149,330.7694],[14.898,14.386,343.8632]]]]}
,"properties": {"GID_3": "TCD.9.2.3_1","GID_0": "TCD","country": "Chad","GID_1": "TCD.9_1","province": "Kanem","NL_NAME_1": "NA","GID_2": "TCD.9.2_1","county": "Nokou","NL_NAME_2": "NA","city": "Rig-Rig","VARNAME_3": "NA","NL_NAME_3": "NA","TYPE_3": "Sub-prefecture","ENGTYPE_3": "Sub-prefecture","CC_3": "NA","HASC_3": "NA","name": "Rig-Rig.city","area_km2": 2985.442,"hist_schema_id": "Elevation0-9000","hist_area_km2": {"275": 0.473,"300": 993.804,"325": 1570.882,"350": 420.284}}}