{"type": "Feature","bbox": [15.7459,9.2879,15.9396,9.468],"geometry": {"type": "MultiPolygon","coordinates": [[[[15.8287,9.2984,377.1154],[15.8356,9.2936,374.9078],[15.8777,9.2883,372.8974],[15.8859,9.2879,370.9167],[15.894,9.2909,368.3474],[15.8988,9.2908,368.7533],[15.9006,9.3046,365.0866],[15.8992,9.313,369.7193],[15.9021,9.3215,368.4361],[15.9062,9.3458,366.8404],[15.9034,9.355,366.25],[15.9051,9.373,362.0747],[15.9043,9.3803,361.645],[15.9159,9.4047,356.6985],[15.9181,9.4136,360.0022],[15.9304,9.4353,351.9618],[15.9396,9.4666,349.434],[15.9289,9.468,348.375],[15.9175,9.4643,349.936],[15.8913,9.4638,354.1318],[15.8499,9.4557,354.5064],[15.8067,9.4553,356.654],[15.783,9.4477,358.0153],[15.7566,9.4361,358.8218],[15.7483,9.4294,359.516],[15.7459,9.4246,361.2568],[15.7462,9.4169,361.955],[15.7527,9.4016,362.1995],[15.7701,9.381,366.2679],[15.7711,9.3617,365.4711],[15.7975,9.3613,369.5464],[15.8099,9.3647,368.4117],[15.8243,9.3595,368.7418],[15.8261,9.3401,372.5284],[15.8237,9.3235,373.7237],[15.8237,9.3113,373.0739],[15.8287,9.2984,377.1154]]]]}
,"properties": {"GID_3": "TCD.20.3.1_1","GID_0": "TCD","country": "Chad","GID_1": "TCD.20_1","province": "Tandjilé","NL_NAME_1": "NA","GID_2": "TCD.20.3_1","county": "TandjiléOuest","NL_NAME_2": "NA","city": "Bagaye","VARNAME_3": "NA","NL_NAME_3": "NA","TYPE_3": "Sub-prefecture","ENGTYPE_3": "Sub-prefecture","CC_3": "NA","HASC_3": "NA","name": "Bagaye.city","area_km2": 251.7287,"hist_schema_id": "Elevation0-9000","hist_area_km2": {"350": 136.8747,"375": 114.8539}}}