{"type": "Feature","bbox": [19.9716,11.2165,21.4015,12.042],"geometry": {"type": "MultiPolygon","coordinates": [[[[19.996,11.7488,449.0673],[19.974,11.699,446.027],[19.972,11.6779,448.929],[19.9716,11.6483,450.8181],[19.9772,11.6222,443.4659],[19.9889,11.602,465.3884],[20.0086,11.576599999999999,453.1613],[20.0518,11.5371,450.0291],[20.0668,11.5189,444.9986],[20.0872,11.4685,432.3222],[20.1077,11.4431,430.9186],[20.1285,11.3909,431.0343],[20.1183,11.3231,428.0617],[20.1415,11.3412,431.0063],[20.1706,11.3537,431.8293],[20.1997,11.3625,433.3285],[20.2273,11.3675,433.319],[20.2534,11.3662,436.0258],[20.2941,11.3675,438.7341],[20.3293,11.3639,440.3616],[20.3654,11.3646,440.207],[20.4385,11.3611,444.6783],[20.4988,11.3554,445.4716],[20.5453,11.3538,447.7702],[20.5735,11.3484,449.0305],[20.6241,11.3418,454.2998],[20.6711,11.3392,453.792],[20.7005,11.3356,454.6391],[20.794,11.3302,457.8775],[20.8331,11.3215,459.2847],[20.8527,11.3093,458.7204],[20.9587,11.2918,465.5707],[20.9894,11.2851,462.2346],[21.0483,11.2692,462.8475],[21.0705,11.2646,463.2741],[21.0982,11.2618,463.3895],[21.1107,11.2506,462.7782],[21.1534,11.2316,462.0937],[21.1686,11.2165,461.9894],[21.2063,11.2624,464.2861],[21.2538,11.3284,466.1643],[21.2834,11.3561,468.223],[21.3163,11.3938,471.4113],[21.3417,11.4306,475.4543],[21.3653,11.4594,475.9853],[21.3743,11.4746,476.6377],[21.3801,11.5024,478.1026],[21.3903,11.5331,480.7924],[21.4015,11.5999,484.5715],[21.1671,11.56,478.2081],[21.096,11.546,475.1965],[21.099,11.64,480.9221],[21.056,11.664,479.5275],[20.974,11.715,486.5415],[20.303,12.035,449.437],[20.266,12.029,458.5164],[20.237,12.042,450.0596],[20.1481,12.0359,448.9471],[20.1414,11.9995,465.7468],[20.1328,11.9715,477.9044],[20.1191,11.9328,456.1414],[20.1024,11.901,458.523],[20.0772,11.8593,480.3649],[20.038,11.8027,458.6017],[20.027,11.7811,465.8402],[19.996,11.7488,449.0673]]]]}
,"properties": {"GID_3": "TCD.18.2.3_1","GID_0": "TCD","country": "Chad","GID_1": "TCD.18_1","province": "Salamat","NL_NAME_1": "NA","GID_2": "TCD.18.2_1","county": "BarhAzoum","NL_NAME_2": "NA","city": "Dagal","VARNAME_3": "NA","NL_NAME_3": "NA","TYPE_3": "Sub-prefecture","ENGTYPE_3": "Sub-prefecture","CC_3": "NA","HASC_3": "NA","name": "Dagal.city","area_km2": 7828.22,"hist_schema_id": "Elevation0-9000","hist_area_km2": {"425": 554.347,"450": 3681.94,"475": 3199.206,"500": 268.899,"525": 48.189,"550": 23.732,"575": 15.698,"600": 10.963,"625": 7.745,"650": 6.083,"675": 5.149,"700": 3.654,"725": 1.536,"750": 1.038}}}