{"type":"Feature","properties":{"GID_3":"TCD.15.2.12_1","GID_0":"TCD","country":"Chad","GID_1":"TCD.15_1","province":"Mayo-KebbiOuest","NL_NAME_1":"NA","GID_2":"TCD.15.2_1","county":"Mayo-Dallah","NL_NAME_2":"NA","city":"Tagobo-Foulbe","VARNAME_3":"NA","NL_NAME_3":"NA","TYPE_3":"Sub-prefecture","ENGTYPE_3":"Sub-prefecture","CC_3":"NA","HASC_3":"NA","name":"Tagobo-Foulbe.city"},
"geometry":{"type": "MultiPolygon","coordinates": [[[[14.2913,9.3594,455.9139],[14.3114,9.3687,445.0518],[14.3154,9.3648,437.5952],[14.3402,9.3153,382.7968],[14.3475,9.3048,376.5277],[14.3802,9.2921,333.8587],[14.3849,9.267,312.093],[14.3814,9.257,316.9303],[14.3777,9.2504,308.7346],[14.3708,9.2461,301.6073],[14.3681,9.2412,302.7925],[14.3569,9.2293,296.7416],[14.3577,9.2212,293.987],[14.3556,9.2182,294.4284],[14.3508,9.2175,293.2654],[14.3484,9.2129,292.5864],[14.3485,9.2068,292.3727],[14.3515,9.2033,292.8578],[14.3581,9.2025,297.9571],[14.3595,9.2002,291.007],[14.3578,9.1952,290.8508],[14.3642,9.1829,294.5002],[14.3685,9.1813,297.5881],[14.3733,9.182,307.2868],[14.3817,9.1744,303.9518],[14.3894,9.1706,313.5811],[14.3923,9.1651,306.9792],[14.3974,9.1622,319.0648],[14.4038,9.151,316.8926],[14.4262,9.1381,351.6623],[14.4337,9.1295,364.9253],[14.4585,9.1189,359.3417],[14.4495,9.1229,359.0908],[14.4458,9.1264,359.3062],[14.4359,9.1448,342.0924],[14.4303,9.1516,342.0512],[14.4199,9.1601,332.8508],[14.4176,9.165,328.4503],[14.4129,9.167,333.3809],[14.4044,9.1774,325.5015],[14.391,9.1861,311.5022],[14.3808,9.1969,297.6333],[14.3766,9.2072,300.6222],[14.3958,9.2071,296.2832],[14.4099,9.2104,298.7337],[14.4452,9.2271,325.1754],[14.4485,9.234,321.9904],[14.4449,9.254,310.0841],[14.4286,9.2702,339.987],[14.4182,9.2885,337.5712],[14.4131,9.3136,331.8554],[14.4134,9.3276,339.9813],[14.4175,9.3537,342.7377],[14.438,9.4166,376.575],[14.4283,9.4234,385.1148],[14.3973,9.4342,378.688],[14.386,9.4353,384.1842],[14.3516,9.4194,437.1528],[14.3429,9.4113,440.0298],[14.3246,9.4032,419.6516],[14.3103,9.3934,421.5918],[14.2653,9.3833,404.6291],[14.2566,9.38,392.334],[14.2744,9.3584,431.2249],[14.2792,9.3559,449.486],[14.2913,9.3594,455.9139]]]]}}