{"type":"Feature","properties":{"GID_3":"TCD.23.2.14_1","GID_0":"TCD","country":"Chad","GID_1":"TCD.23_1","province":"WadiFira","NL_NAME_1":"NA","GID_2":"TCD.23.2_1","county":"DarTama","NL_NAME_2":"NA","city":"Troa","VARNAME_3":"NA","NL_NAME_3":"NA","TYPE_3":"Sub-prefecture","ENGTYPE_3":"Sub-prefecture","CC_3":"NA","HASC_3":"NA","name":"Troa.city"},
"geometry":{"type": "MultiPolygon","coordinates": [[[[21.991,14.745,941.9372],[22.011,14.784,970.8607],[22.079,14.905,976.9131],[22.022,14.976,963.542],[21.924,14.982,963.4553],[21.777,14.96,930.4042],[21.653,14.88,775.4323],[21.701,14.832,847.0267],[21.774,14.797,905.2703],[21.844,14.775,968.512],[21.923,14.742,948.402],[21.963,14.729,965.4867],[21.991,14.745,941.9372]]]]}}