{"type":"Feature","properties":{"GID_3":"TCD.23.1.7_1","GID_0":"TCD","country":"Chad","GID_1":"TCD.23_1","province":"WadiFira","NL_NAME_1":"NA","GID_2":"TCD.23.1_1","county":"Biltine","NL_NAME_2":"NA","city":"Ouled-Djema","VARNAME_3":"NA","NL_NAME_3":"NA","TYPE_3":"Sub-prefecture","ENGTYPE_3":"Sub-prefecture","CC_3":"NA","HASC_3":"NA","name":"Ouled-Djema.city"},
"geometry":{"type": "MultiPolygon","coordinates": [[[[20.846,14.32,511.6616],[20.927,14.353,539.83],[20.998,14.388,652.4578],[21.104,14.379,661.5612],[21.146,14.474,613.9011],[21.193,14.547,650.3294],[21.118,14.584,550.5341],[20.993,14.582,527.9532],[20.891,14.547,500.1953],[20.767,14.367,483.1189],[20.846,14.32,511.6616]]]]}}