{"type": "Feature","bbox": [15.2458,7.4411,16.3755,8.482],"geometry": {"type": "MultiPolygon","coordinates": [[[[16.0878,7.5892,510.4957],[16.1046,7.5916,501.0223],[16.1313,7.5908,490.9521],[16.1396,7.5949,486.4175],[16.1493,7.5958,486.071],[16.1636,7.5946,485.9493],[16.1728,7.6023,481.5788],[16.1807,7.6119,479.6102],[16.1855,7.6145,478.1865],[16.1964,7.6158,471.6907],[16.2042,7.6151,470.56],[16.2111,7.6114,465.566],[16.2332,7.6083,457.1518],[16.2355,7.6067,464.6093],[16.2511,7.6132,460.7387],[16.2618,7.6235,451.7202],[16.2777,7.6278,453.5432],[16.2865,7.6326,454.5904],[16.2922,7.6369,462.2826],[16.2967,7.6479,456.7013],[16.3015,7.6518,439.7374],[16.3119,7.6511,446.7176],[16.3414,7.662,434.037],[16.3476,7.661,443.6511],[16.3541,7.667,440.4896],[16.3571,7.6674,434.8517],[16.361,7.6644,438.1801],[16.3723,7.6669,435.4667],[16.3755,7.6659,435.6104],[16.3637,7.7016,466.5237],[16.3567,7.7451,459.6431],[16.3501,7.8011,463.1923],[16.3409,7.8476,463.5966],[16.3311,7.9129,447.7731],[16.3135,7.9659,456.1684],[16.307,7.9773,450.053],[16.3039,7.9881,456.287],[16.2932,8.0098,458.3032],[16.2914,8.0203,460.7498],[16.2949,8.0539,469.4948],[16.3001,8.0813,485.2726],[16.3034,8.0915,492.2568],[16.3148,8.1056,510.9387],[16.3248,8.1235,529.2178],[16.3271,8.1337,533.9535],[16.3161,8.1906,463.3073],[16.3066,8.2097,453.4341],[16.3014,8.2277,448.4703],[16.2433,8.25,534.9327],[16.2166,8.2628,523.7855],[16.1797,8.2744,510.2902],[16.1487,8.2814,511.8911],[16.1012,8.2758,520.6023],[16.0747,8.2628,494.4016],[16.0271,8.2599,444.4215],[15.9459,8.2748,424.6478],[15.9207,8.2927,415.8717],[15.8836,8.3233,409.4659],[15.8599,8.3475,406.0774],[15.834,8.403,441.9726],[15.822,8.364,456.2755],[15.803,8.334,421.8107],[15.768,8.337,434.3221],[15.685,8.33,450.4518],[15.648,8.311,461.4268],[15.607,8.286,466.4526],[15.581,8.281,466.2848],[15.553,8.271,438.43],[15.529,8.273,434.1033],[15.537,8.29,437.9861],[15.526,8.304,433.3526],[15.49,8.29,460.4266],[15.488,8.328,451.8398],[15.455,8.352,458.5453],[15.446,8.376,457.8954],[15.417,8.37,477.928],[15.383,8.378,473.123],[15.342,8.403,496.4581],[15.323,8.427,480.2214],[15.295,8.445,505.8051],[15.2805,8.4657,518.2931],[15.2724,8.482,528.7414],[15.2458,8.4702,539.4794],[15.2623,8.4106,544.6965],[15.2794,8.339,556.7823],[15.3967,8.0913,490.6112],[15.3949,8.0556,534.764],[15.3957,8.0444,528.0247],[15.4524,7.8811,601.7222],[15.5047,7.7936,493.155],[15.5886,7.7725,477.9204],[15.5891,7.7654,462.0355],[15.5924,7.7572,458.2682],[15.5866,7.7425,464.9489],[15.5909,7.7382,465.465],[15.5886,7.7263,467.1712],[15.5927,7.7202,471.0181],[15.5901,7.7157,468.4045],[15.5897,7.7072,471.0574],[15.5904,7.6947,475.135],[15.5936,7.6876,483.8378],[15.5922,7.6776,487.3932],[15.5891,7.6728,489.2359],[15.5882,7.6667,493.1238],[15.583,7.6624,492.8241],[15.5816,7.6577,493.877],[15.5769,7.6557,492.9643],[15.5822,7.651,490.8959],[15.5833,7.6398,503.8307],[15.5797,7.6354,504.2038],[15.579,7.626,506.702],[15.5704,7.6142,511.2397],[15.5648,7.6097,512.3954],[15.5647,7.6022,509.8814],[15.5705,7.5947,510.2347],[15.5702,7.5929,508.9589],[15.5634,7.5828,516.8216],[15.558,7.5797,517.4847],[15.5546,7.5722,517.7152],[15.5499,7.569,519.0411],[15.5407,7.5569,516.8845],[15.5277,7.5464,514.2727],[15.5229,7.5448,518.9473],[15.5169,7.5322,530.3182],[15.5075,7.5275,527.1276],[15.5465,7.5112,584.1244],[15.5604,7.5105,567.5298],[15.6221,7.5132,652.4961],[15.6396,7.5167,667.3915],[15.6481,7.5155,682.3015],[15.66,7.5176,660.3298],[15.728,7.5191,561.2725],[15.7299,7.5162,571.5054],[15.7276,7.505,594.7529],[15.7315,7.5006,611.9489],[15.743,7.4785,603.6069],[15.7462,7.4762,605.6964],[15.7554,7.4746,637.8694],[15.7581,7.4709,664.7668],[15.759,7.4638,644.4381],[15.7664,7.4578,657.8611],[15.7691,7.458,664.0076],[15.7735,7.4628,659.1714],[15.7853,7.4619,784.6576],[15.8,7.4549,895.6274],[15.8096,7.4411,911.605],[15.813,7.4417,918.8708],[15.8167,7.4454,904.2252],[15.834,7.4456,960.5433],[15.8402,7.4506,936.9306],[15.8458,7.4522,936.4412],[15.864,7.453,966.0671],[15.8836,7.4603,904.2001],[15.9094,7.4671,822.5062],[15.9186,7.4707,821.5076],[15.931,7.4787,807.096],[15.9511,7.4837,766.7122],[15.9748,7.4833,686.0883],[15.981,7.4893,646.0237],[15.99,7.4904,641.6502],[15.9979,7.4986,628.5394],[16.0103,7.5057,596.7491],[16.0175,7.5199,586.9627],[16.0231,7.5229,581.137],[16.027,7.5299,569.5862],[16.0358,7.5308,561.5076],[16.039,7.5338,563.8173],[16.039,7.5435,571.1703],[16.0432,7.56,569.144],[16.0493,7.5707,549.3575],[16.0567,7.5776,534.8154],[16.0878,7.5892,510.4957]]]]}
,"properties": {"GID_2": "TCD.12.2_1","GID_0": "TCD","country": "Chad","GID_1": "TCD.12_1","province": "LogoneOriental","NL_NAME_1": "NA","county": "MontsdeLam","VARNAME_2": "Baibokoum","NL_NAME_2": "NA","TYPE_2": "Department","ENGTYPE_2": "Department","CC_2": "NA","HASC_2": "TD.LR.ML","name": "Montsde_Lam.county","area_km2": 8346.16,"hist_schema_id": "Elevation0-9000","hist_area_km2": {"400": 57.947,"425": 468.566,"450": 1034.268,"475": 1669.055,"500": 1625.141,"525": 1273.945,"550": 805.126,"575": 469.84,"600": 226.324,"625": 131.303,"650": 100.687,"675": 80.661,"700": 69.081,"725": 59.223,"750": 44.175,"775": 37.072,"800": 36.19,"825": 32.093,"850": 27.302,"875": 18.853,"900": 18.392,"925": 17.762,"950": 20.285,"975": 14.105,"1000": 6.453,"1025": 1.387,"1050": 0.441,"1075": 0.315,"1100": 0.147}}}