{"type": "Feature","bbox": [17.5478,8.1056,17.7287,8.221],"geometry": {"type": "MultiPolygon","coordinates": [[[[17.5819,8.106,398.3035],[17.6035,8.1056,398.4321],[17.6137,8.1104,398.5808],[17.625,8.1239,395.0107],[17.6676,8.1156,394.5014],[17.6931,8.1179,395.2972],[17.7081,8.1169,391.8179],[17.7169,8.1119,378.2007],[17.716,8.1372,388.4464],[17.7287,8.207,380.1213],[17.726,8.2144,383.2912],[17.6528,8.221,390.3192],[17.6157,8.2176,393.6916],[17.5815,8.2094,394.4072],[17.5735,8.2043,392.1966],[17.5584,8.2001,390.3401],[17.5511,8.1961,393.8676],[17.552,8.1906,394.3502],[17.5478,8.1693,394.3336],[17.5588,8.126,397.5675],[17.5661,8.1135,398.046],[17.5819,8.106,398.3035]]]]}
,"properties": {"GID_3": "TCD.13.1.9_1","GID_0": "TCD","country": "Chad","GID_1": "TCD.13_1","province": "Mandoul","NL_NAME_1": "NA","GID_2": "TCD.13.1_1","county": "BarhSara","NL_NAME_2": "NA","city": "Doubadene","VARNAME_3": "NA","NL_NAME_3": "NA","TYPE_3": "Sub-prefecture","ENGTYPE_3": "Sub-prefecture","CC_3": "NA","HASC_3": "NA","name": "Doubadene.city","area_km2": 205.7588,"hist_schema_id": "Elevation0-9000","hist_area_km2": {"375": 10.8081,"400": 194.9507}}}