{"type": "Feature","bbox": [16.858,11.472,17.68,11.934],"geometry": {"type": "MultiPolygon","coordinates": [[[[17.335,11.472,334.7028],[17.378,11.539,336.1009],[17.425,11.586,338.4037],[17.487,11.632,349.4591],[17.545,11.672,357.7475],[17.619,11.679,349.8398],[17.68,11.68,358.85],[17.634,11.796,350.3899],[17.578,11.871,346.9734],[17.545,11.911,336.3253],[17.395,11.906,328.5363],[17.323,11.915,330.9591],[17.172,11.919,319.5214],[16.991,11.926,317.7674],[16.948,11.934,316.5957],[16.913,11.858,322.8936],[16.858,11.676,327.1664],[16.906,11.684,326.8196],[17.019,11.668,327.9125],[17.088,11.627,328.0098],[17.139,11.566,329.0067],[17.335,11.472,334.7028]]]]}
,"properties": {"GID_3": "TCD.8.1.6_1","GID_0": "TCD","country": "Chad","GID_1": "TCD.8_1","province": "Hadjer-Lamis","NL_NAME_1": "NA","GID_2": "TCD.8.1_1","county": "Dababa","NL_NAME_2": "NA","city": "Yessie/Ngama","VARNAME_3": "NA","NL_NAME_3": "NA","TYPE_3": "Sub-prefecture","ENGTYPE_3": "Sub-prefecture","CC_3": "NA","HASC_3": "NA","name": "Yessie_Ngama.city","area_km2": 2781.943,"hist_schema_id": "Elevation0-9000","hist_area_km2": {"300": 0.809,"325": 2197.975,"350": 573.004,"375": 6.791,"400": 0.872,"425": 0.685,"450": 0.312,"475": 0.353,"500": 0.291,"525": 0.228,"550": 0.125,"575": 0.125,"600": 0.125,"625": 0.062,"650": 0.083,"675": 0.104}}}