{"type": "Feature","bbox": [20.2981,10.7639,21.1143,11.2487],"geometry": {"type": "MultiPolygon","coordinates": [[[[20.2981,11.0176,434.0075],[20.351,11.0312,433.8767],[20.3999,11.0278,438.0134],[20.4237,11.0016,437.7183],[20.4396,10.9721,434.5713],[20.4382,10.9459,435.6924],[20.4334,10.9124,433.8264],[20.4131,10.8913,433.7482],[20.4382,10.8765,432.7427],[20.4727,10.8737,432.8464],[20.5042,10.876,433.8602],[20.5809,10.869,435.8357],[20.6172,10.8619,435.6307],[20.651,10.8478,435.6425],[20.6919,10.8344,435.4728],[20.7382,10.8156,435.7299],[20.7773,10.8081,440.0161],[20.8182,10.8049,438.7391],[20.8473,10.8001,437.1718],[20.8948,10.7832,437.4788],[20.9064,10.7829,438.6872],[20.9551,10.7747,439.4955],[20.9732,10.7639,439.8692],[20.9763,10.782,439.6766],[21.003,10.8879,444.0115],[21.0369,10.9507,447.8792],[21.0716,11.032,451.5992],[21.0815,11.0639,453.8193],[21.1143,11.1189,457.5855],[21.1043,11.1497,460.0729],[21.0885,11.1611,459.2047],[21.0566,11.1727,457.8558],[21.0419,11.1833,457.4713],[21.0122,11.2104,459.5114],[20.9947,11.2233,459.1579],[20.972,11.2313,459.215],[20.9424,11.2487,458.9692],[20.8959,11.2478,457.1305],[20.8743,11.2428,457.2814],[20.8442,11.2314,457.4882],[20.8089,11.2096,454.6058],[20.7642,11.1749,451.908],[20.7182,11.1348,448.9218],[20.7142,11.1297,448.5687],[20.6779,11.1006,447.9334],[20.6544,11.0788,445.2283],[20.6355,11.0701,442.9852],[20.5974,11.0647,442.513],[20.5838,11.0752,443.9511],[20.5442,11.0861,443.895],[20.5041,11.0945,441.9504],[20.4682,11.1064,441.412],[20.4209,11.1173,441.2361],[20.4006,11.128,440.4371],[20.3436,11.1311,437.3833],[20.3351,11.1075,434.2915],[20.3179,11.0779,434.9166],[20.3113,11.062,435.2374],[20.2981,11.0176,434.0075]]]]}
,"properties": {"GID_3": "TCD.18.2.2_1","GID_0": "TCD","country": "Chad","GID_1": "TCD.18_1","province": "Salamat","NL_NAME_1": "NA","GID_2": "TCD.18.2_1","county": "BarhAzoum","NL_NAME_2": "NA","city": "Barh-Azoum-Am-Timan","VARNAME_3": "NA","NL_NAME_3": "NA","TYPE_3": "Sub-prefecture","ENGTYPE_3": "Sub-prefecture","CC_3": "NA","HASC_3": "NA","name": "Barh-Azoum-Am-Timan.city","area_km2": 2611.683,"hist_schema_id": "Elevation0-9000","hist_area_km2": {"425": 412.814,"450": 2198.869}}}