{"type":"Feature","properties":{"GID_3":"TCD.12.2.1_1","GID_0":"TCD","country":"Chad","GID_1":"TCD.12_1","province":"LogoneOriental","NL_NAME_1":"NA","GID_2":"TCD.12.2_1","county":"MontsdeLam","NL_NAME_2":"NA","city":"Andoum","VARNAME_3":"NA","NL_NAME_3":"NA","TYPE_3":"Sub-prefecture","ENGTYPE_3":"Sub-prefecture","CC_3":"NA","HASC_3":"NA","name":"Andoum.city"},
"geometry":{"type": "MultiPolygon","coordinates": [[[[15.7132,8.3326,425.3908],[15.685,8.33,450.4518],[15.648,8.311,461.4268],[15.607,8.286,466.4526],[15.6159,8.2605,433.3633],[15.6258,8.2418,433.8499],[15.6484,8.206,446.3096],[15.6566,8.1956,436.856],[15.6678,8.1849,441.6128],[15.6763,8.1605,456.6719],[15.679,8.1329,483.5267],[15.6832,8.1204,499.2009],[15.688,8.0828,525.3541],[15.6947,8.0584,508.8603],[15.702,8.0497,492.1623],[15.7465,8.0194,477.7298],[15.7744,7.9891,447.7982],[15.7865,7.9701,432.0015],[15.7939,7.9845,432.007],[15.8101,7.9977,431.7574],[15.8258,8.0222,451.8225],[15.8401,8.0615,449.0685],[15.8441,8.0801,434.9464],[15.8608,8.2122,414.219],[15.8655,8.2333,414.0],[15.8676,8.262,412.8586],[15.8707,8.2745,410.7051],[15.8682,8.3151,424.3457],[15.8599,8.3475,406.0774],[15.834,8.403,441.9726],[15.822,8.364,456.2755],[15.803,8.334,421.8107],[15.768,8.337,434.3221],[15.7132,8.3326,425.3908]]]]}}