{"type": "Feature","bbox": [17.6175,8.7735,18.0112,9.2959],"geometry": {"type": "MultiPolygon","coordinates": [[[[17.7204,8.7872,364.8126],[17.7238,8.7934,364.7584],[17.7356,8.8016,364.349],[17.7465,8.8021,364.2256],[17.7539,8.8048,364.0621],[17.7849,8.8371,364.2828],[17.7947,8.8506,364.8865],[17.8053,8.8735,367.9095],[17.8014,8.8857,368.4418],[17.8014,8.903,376.0741],[17.8042,8.9077,382.3592],[17.8103,8.9284,416.2727],[17.8263,8.9569,456.4662],[17.8716,8.9997,521.8521],[17.8985,9.0228,519.6993],[17.9302,9.0459,558.6597],[17.9419,9.0569,550.2298],[17.9588,9.0842,557.6687],[17.968,9.1144,542.1292],[17.9858,9.1501,464.6454],[18.0016,9.1777,447.6047],[18.0112,9.1989,475.1106],[18.003,9.2027,488.6562],[17.994,9.2173,462.7167],[17.9834,9.223,429.9676],[17.9439,9.2394,418.9103],[17.9244,9.2509,410.2451],[17.8585,9.2833,455.1408],[17.8425,9.2906,441.5938],[17.8257,9.2959,453.101],[17.8271,9.2931,446.235],[17.7988,9.2874,464.9055],[17.7796,9.28,469.0547],[17.767,9.2665,459.0553],[17.7477,9.2398,421.471],[17.7441,9.2279,425.053],[17.7211,9.171,475.9857],[17.7076,9.1462,464.7767],[17.6794,9.1019,542.7514],[17.6723,9.092,568.508],[17.6659,9.0871,568.2494],[17.6546,9.0823,587.3026],[17.6336,9.0771,583.8005],[17.6294,9.0776,580.9036],[17.6291,9.0658,598.1638],[17.6189,9.0533,604.8784],[17.6235,9.0395,575.4192],[17.6181,9.0197,554.3458],[17.6212,8.9997,525.9825],[17.6262,8.9814,493.5461],[17.635,8.9617,487.4982],[17.642,8.93,498.7284],[17.6423,8.9035,499.0365],[17.6356,8.8853,467.916],[17.6175,8.8494,433.7942],[17.6237,8.8154,385.4877],[17.6259,8.7932,372.9495],[17.6459,8.7852,369.2647],[17.6558,8.7735,366.3313],[17.667,8.7743,365.8099],[17.6886,8.7835,364.7845],[17.7013,8.7844,364.7629],[17.7115,8.7815,365.3936],[17.7204,8.7872,364.8126]]]]}
,"properties": {"GID_3": "TCD.13.3.2_1","GID_0": "TCD","country": "Chad","GID_1": "TCD.13_1","province": "Mandoul","NL_NAME_1": "NA","GID_2": "TCD.13.3_1","county": "MandoulOriental","NL_NAME_2": "NA","city": "Bessada","VARNAME_3": "NA","NL_NAME_3": "NA","TYPE_3": "Sub-prefecture","ENGTYPE_3": "Sub-prefecture","CC_3": "NA","HASC_3": "NA","name": "Bessada.city","area_km2": 1350.044,"hist_schema_id": "Elevation0-9000","hist_area_km2": {"375": 171.769,"400": 69.54,"425": 115.014,"450": 152.094,"475": 166.997,"500": 144.123,"525": 118.581,"550": 105.767,"575": 102.104,"600": 83.156,"625": 67.264,"650": 38.31,"675": 14.968,"700": 0.356}}}