{"type": "Feature","bbox": [20.0931,15.7441,22.6947,21.0436],"geometry": {"type": "MultiPolygon","coordinates": [[[[20.8341,15.7441,467.7765],[20.8681,15.7581,474.9348],[20.9221,15.7921,478.4144],[20.958,15.825,481.2161],[20.982,15.854,484.8575],[21.009,15.876,476.3002],[21.036,15.879,484.8114],[21.081,15.904,490.9867],[21.109,15.926,499.5798],[21.1341,15.9351,505.256],[21.1711,15.9221,509.0063],[21.2111,15.9141,522.9667],[21.2761,15.8741,509.6878],[21.359,15.8581,529.2275],[21.4221,15.8711,547.5993],[21.4931,15.898,618.0677],[21.6721,15.9311,608.6798],[21.746,15.962,580.8164],[21.8971,15.9291,625.6002],[21.9429,15.9223,622.1701],[21.9931,16.0079,637.887],[22.0333,16.0987,672.7195],[22.1537,16.4411,656.5574],[22.4585,17.2167,1177.1423],[22.5047,17.6053,767.9331],[22.5555,18.0871,555.1368],[22.5245,18.3047,571.9067],[22.4781,18.7257,620.6699],[22.4283,19.0465,613.07],[22.4247,19.2535,660.2595],[22.4497,19.4281,717.8033],[22.4711,19.8775,616.973],[22.6671,20.1663,637.9917],[22.6947,20.1823,639.9901],[22.6611,20.1991,626.3618],[22.6489,20.2071,632.2405],[22.623,20.2181,651.8234],[22.5899,20.2374,659.6528],[22.5837,20.2385,643.0955],[22.5179,20.2715,612.5652],[22.4761,20.2963,599.5997],[22.4722,20.2964,593.8652],[22.4487,20.3104,572.48],[22.4388,20.3138,568.1766],[22.3532,20.3577,581.4092],[22.342,20.3656,593.0488],[22.3179,20.3754,592.3661],[22.3052,20.3842,567.8691],[22.3011,20.385,563.3215],[22.2001,20.4379,600.062],[22.1941,20.4397,597.3989],[22.1677,20.4559,549.7719],[22.1608,20.457,547.554],[22.0883,20.4938,538.9442],[21.9588,20.5629,557.5266],[21.9392,20.5716,540.7891],[21.919,20.5845,534.8321],[21.9137,20.5848,535.3665],[21.9081,20.5875,535.3806],[21.8901,20.5989,541.2473],[21.878,20.6033,552.0987],[21.8299,20.6275,573.3369],[21.8245,20.6331,575.7413],[21.8015,20.6419,574.5875],[21.7828,20.654,588.4233],[21.7668,20.6594,590.4966],[21.754,20.6679,587.1985],[21.74,20.6737,582.1904],[21.6809,20.7051,567.6945],[21.6521,20.7169,555.8257],[21.6387,20.7261,546.8469],[21.6233,20.7339,538.5583],[21.5543,20.7683,525.8708],[21.5487,20.7699,526.7697],[21.5049,20.7935,534.6985],[21.4987,20.7943,532.238],[21.4803,20.8067,534.6038],[21.3608,20.865,534.4238],[21.2633,20.9154,543.2302],[21.2214,20.9344,544.9006],[21.2158,20.9389,547.1061],[21.1017,20.9958,555.1932],[21.0821,21.0074,557.0167],[21.0076,21.0436,564.2315],[20.0931,19.1741,443.2781],[20.2071,18.7451,400.5604],[20.5231,17.9341,404.2599],[20.3851,16.7091,421.494],[20.8341,15.7441,467.7765]]]]}
,"properties": {"GID_3": "TCD.6.1.1_1","GID_0": "TCD","country": "Chad","GID_1": "TCD.6_1","province": "EnnediOuest","NL_NAME_1": "NA","GID_2": "TCD.6.1_1","county": "EnnediOuest","NL_NAME_2": "NA","city": "EnnediOuest","VARNAME_3": "NA","NL_NAME_3": "NA","TYPE_3": "Sub-prefecture","ENGTYPE_3": "Sub-prefecture","CC_3": "NA","HASC_3": "NA","name": "Ennedi_Ouest.city","area_km2": 111398.78,"hist_schema_id": "Elevation0-9000","hist_area_km2": {"325": 49.75,"350": 284.59,"375": 678.43,"400": 3687.7,"425": 6499.22,"450": 8678.89,"475": 11745.45,"500": 15995.38,"525": 15927.22,"550": 12431.71,"575": 7897.88,"600": 6268.34,"625": 4926.33,"650": 2970.47,"675": 2559.07,"700": 1519.15,"725": 1265.83,"750": 1095.34,"775": 876.96,"800": 663.78,"825": 502.5,"850": 520.34,"875": 454.55,"900": 445.91,"925": 413.05,"950": 296.59,"975": 232.61,"1000": 246.26,"1025": 232.85,"1050": 256.62,"1075": 325.29,"1100": 402.87,"1125": 516.93,"1150": 322.72,"1175": 145.06,"1200": 46.99,"1225": 13.57,"1250": 1.99}}}