{"type":"Feature","properties":{"GID_3":"TCD.23.2.7_1","GID_0":"TCD","country":"Chad","GID_1":"TCD.23_1","province":"WadiFira","NL_NAME_1":"NA","GID_2":"TCD.23.2_1","county":"DarTama","NL_NAME_2":"NA","city":"Kassine","VARNAME_3":"NA","NL_NAME_3":"NA","TYPE_3":"Sub-prefecture","ENGTYPE_3":"Sub-prefecture","CC_3":"NA","HASC_3":"NA","name":"Kassine.city"},
"geometry":{"type": "MultiPolygon","coordinates": [[[[21.585,14.099,868.1184],[21.558,14.171,837.8599],[21.578,14.22,831.0787],[21.6,14.247,834.5936],[21.644,14.283,855.8878],[21.661,14.355,967.9164],[21.69,14.434,947.579],[21.674,14.444,930.5175],[21.604,14.474,916.4507],[21.536,14.474,878.997],[21.478,14.44,905.164],[21.444,14.33,894.6216],[21.433,14.25,846.8389],[21.437,14.126,764.2476],[21.504,14.115,827.9267],[21.555,14.101,855.3551],[21.585,14.099,868.1184]]]]}}