{"type": "Feature","bbox": [18.4674,9.2009,18.5912,9.3444],"geometry": {"type": "MultiPolygon","coordinates": [[[[18.5912,9.211,368.352],[18.5764,9.223,368.2677],[18.5724,9.2346,367.9513],[18.579,9.27,368.9883],[18.5788,9.2961,366.3118],[18.556,9.3195,364.7486],[18.5376,9.3297,367.946],[18.5202,9.3444,362.9292],[18.5033,9.3315,365.2678],[18.4871,9.3158,365.8484],[18.4768,9.3116,365.9117],[18.4674,9.3022,369.1414],[18.4744,9.2873,367.4339],[18.4878,9.2711,366.4372],[18.4897,9.2558,370.3101],[18.4971,9.2354,367.811],[18.5036,9.2245,367.0811],[18.5108,9.2183,366.4628],[18.5171,9.2077,365.9731],[18.5417,9.2009,367.1624],[18.5601,9.2045,367.3114],[18.5765,9.2022,362.751],[18.5912,9.211,368.352]]]]}
,"properties": {"GID_3": "TCD.16.3.8_1","GID_0": "TCD","country": "Chad","GID_1": "TCD.16_1","province": "Moyen-Chari","NL_NAME_1": "NA","GID_2": "TCD.16.3_1","county": "LacIro","NL_NAME_2": "NA","city": "Kotongoro","VARNAME_3": "NA","NL_NAME_3": "NA","TYPE_3": "Sub-prefecture","ENGTYPE_3": "Sub-prefecture","CC_3": "NA","HASC_3": "NA","name": "Kotongoro.city","area_km2": 131.0972,"hist_schema_id": "Elevation0-9000","hist_area_km2": {"350": 0.2093,"375": 130.8879}}}