{"type": "Feature","bbox": [16.3367,8.4862,16.5077,8.7013],"geometry": {"type": "MultiPolygon","coordinates": [[[[16.3397,8.6557,385.8063],[16.3367,8.6222,403.5432],[16.3379,8.6106,414.0118],[16.3418,8.6017,421.2333],[16.3609,8.58,442.2592],[16.3639,8.5741,445.7682],[16.4007,8.5423,450.0475],[16.4119,8.5309,453.5097],[16.4208,8.5245,453.1288],[16.4312,8.5132,451.7172],[16.438,8.494,450.931],[16.4431,8.4862,447.8845],[16.4786,8.5262,426.0373],[16.5021,8.5583,424.8345],[16.5077,8.5707,417.3263],[16.5017,8.5743,414.801],[16.4898,8.5874,407.2902],[16.4649,8.6049,396.3986],[16.4463,8.6264,392.8044],[16.4381,8.6327,388.323],[16.4223,8.6514,381.673],[16.4005,8.6838,381.5092],[16.3858,8.7013,396.5157],[16.369,8.685,381.7602],[16.351,8.655,383.8521],[16.3397,8.6557,385.8063]]]]}
,"properties": {"GID_3": "TCD.12.1.5_1","GID_0": "TCD","country": "Chad","GID_1": "TCD.12_1","province": "LogoneOriental","NL_NAME_1": "NA","GID_2": "TCD.12.1_1","county": "Lanya","NL_NAME_2": "NA","city": "Mbikou","VARNAME_3": "NA","NL_NAME_3": "NA","TYPE_3": "Sub-prefecture","ENGTYPE_3": "Sub-prefecture","CC_3": "NA","HASC_3": "NA","name": "Mbikou.city","area_km2": 209.5995,"hist_schema_id": "Elevation0-9000","hist_area_km2": {"375": 45.1913,"400": 57.7537,"425": 73.9036,"450": 32.751}}}