{"type":"Feature","properties":{"GID_2":"TCD.12.1_1","GID_0":"TCD","country":"Chad","GID_1":"TCD.12_1","province":"LogoneOriental","NL_NAME_1":"NA","county":"Lanya","VARNAME_2":"Bebedjia","NL_NAME_2":"NA","TYPE_2":"Department","ENGTYPE_2":"Department","CC_2":"NA","HASC_2":"TD.LR.BE","name":"Lanya.county"},
"geometry":{"type": "MultiPolygon","coordinates": [[[[16.8311,8.4543,397.1906],[16.8366,8.4656,397.9724],[16.8443,8.4741,395.7713],[16.8429,8.48,396.6338],[16.8442,8.4896,394.3351],[16.8379,8.4972,391.9347],[16.8332,8.5078,391.0737],[16.8307,8.5185,393.5113],[16.8292,8.5424,394.0028],[16.8317,8.5501,389.8405],[16.8493,8.5751,383.6793],[16.8401,8.579,381.1992],[16.8325,8.5919,386.5879],[16.8006,8.6062,387.1796],[16.8013,8.6386,384.5244],[16.8078,8.6645,382.7249],[16.8066,8.6682,382.9855],[16.7966,8.6761,380.2494],[16.7902,8.6775,382.986],[16.7743,8.7004,381.819],[16.7712,8.7113,381.7946],[16.7677,8.7162,382.1716],[16.7553,8.7248,380.5445],[16.7486,8.7321,380.0404],[16.7509,8.7384,380.1562],[16.7593,8.7477,380.8815],[16.771,8.7689,379.7255],[16.7663,8.787,373.9391],[16.7607,8.7905,379.24],[16.7527,8.8059,377.9349],[16.7461,8.8122,379.0804],[16.7342,8.8312,378.2449],[16.7209,8.8741,377.5614],[16.715,8.9237,372.7098],[16.6826,8.946,369.4465],[16.65,8.971,372.4828],[16.6447,8.9789,365.5045],[16.6333,8.9881,369.7918],[16.6206,8.9957,368.1494],[16.6052,9.01,368.5528],[16.589,9.0345,364.9904],[16.5806,9.0424,365.6999],[16.5715,9.0479,366.5574],[16.5099,9.0679,364.7192],[16.4486,9.0831,364.3308],[16.486,9.028,368.0943],[16.504,8.995,372.7166],[16.533,8.989,367.8985],[16.538,8.966,373.2346],[16.545,8.951,376.6483],[16.567,8.959,369.246],[16.574,8.937,369.7752],[16.587,8.925,370.539],[16.594,8.899,371.2922],[16.574,8.874,397.8556],[16.558,8.83,413.9657],[16.521,8.777,401.6826],[16.493,8.746,403.6899],[16.45,8.727,413.3294],[16.406,8.717,405.4222],[16.379,8.696,384.0733],[16.369,8.685,381.7602],[16.351,8.655,383.8521],[16.3397,8.6557,385.8063],[16.3367,8.6222,403.5432],[16.3379,8.6106,414.0118],[16.3418,8.6017,421.2333],[16.3609,8.58,442.2592],[16.3639,8.5741,445.7682],[16.4007,8.5423,450.0475],[16.4119,8.5309,453.5097],[16.4208,8.5245,453.1288],[16.4312,8.5132,451.7172],[16.438,8.494,450.931],[16.4431,8.4862,447.8845],[16.4438,8.4807,448.2968],[16.4489,8.4751,445.004],[16.454,8.4557,442.5551],[16.4758,8.4279,427.6505],[16.4784,8.415,422.5359],[16.4893,8.4045,406.7559],[16.5172,8.3449,426.736],[16.5315,8.3225,415.2215],[16.5506,8.2988,422.8434],[16.5697,8.2634,422.6509],[16.5887,8.2359,423.7034],[16.6077,8.2119,418.5999],[16.6222,8.1854,423.642],[16.6287,8.1674,408.8895],[16.6291,8.1451,419.5356],[16.6223,8.0877,408.8943],[16.6146,8.0498,420.4038],[16.6233,8.044,415.5588],[16.629,8.0361,418.1854],[16.6511,8.0244,405.46],[16.6593,8.0168,409.1925],[16.6565,8.0338,405.2311],[16.6616,8.0705,407.9653],[16.6771,8.151,400.5586],[16.6905,8.1977,406.457],[16.6983,8.2367,395.6263],[16.7097,8.2755,404.5844],[16.7228,8.3019,400.2075],[16.7431,8.3342,402.4829],[16.7821,8.3837,394.502],[16.8012,8.4004,395.5036],[16.813,8.414,395.7145],[16.8208,8.4357,396.7302],[16.8311,8.4543,397.1906]]]]}}