{"type": "Feature","bbox": [15.365,8.704,15.7817,9.061],"geometry": {"type": "MultiPolygon","coordinates": [[[[15.4619,8.9008,419.5381],[15.4786,8.8934,414.4665],[15.5453,8.8906,389.9871],[15.5582,8.8852,393.1877],[15.5617,8.8751,398.4947],[15.5755,8.8583,417.5612],[15.5838,8.8445,450.2998],[15.61,8.8207,437.2592],[15.6406,8.8041,409.3174],[15.6608,8.7892,414.4721],[15.6977,8.7485,407.7565],[15.709,8.7385,410.9628],[15.7323,8.7092,445.6631],[15.7332,8.704,449.2393],[15.7441,8.7115,437.9657],[15.7697,8.7437,443.1909],[15.7817,8.7804,411.1766],[15.7788,8.7963,400.447],[15.7708,8.8203,391.0459],[15.753,8.8487,389.2476],[15.7349,8.8512,392.2323],[15.7111,8.8692,390.7148],[15.6998,8.8881,387.1127],[15.6705,8.9229,393.8196],[15.6081,8.9766,409.7332],[15.5945,8.994,426.2534],[15.5833,9.0132,422.518],[15.573,9.023,437.222],[15.441,9.061,430.1317],[15.387,9.033,457.7555],[15.394,8.988,428.5629],[15.365,8.937,435.7984],[15.4006,8.9194,430.1962],[15.4291,8.91,429.1479],[15.4582,8.9048,416.7186],[15.4619,8.9008,419.5381]]]]}
,"properties": {"GID_3": "TCD.11.1.3_1","GID_0": "TCD","country": "Chad","GID_1": "TCD.11_1","province": "LogoneOccidental","NL_NAME_1": "NA","GID_2": "TCD.11.1_1","county": "Dodjé","NL_NAME_2": "NA","city": "Lao-Kassi","VARNAME_3": "NA","NL_NAME_3": "NA","TYPE_3": "Sub-prefecture","ENGTYPE_3": "Sub-prefecture","CC_3": "NA","HASC_3": "NA","name": "Lao-Kassi.city","area_km2": 681.8057,"hist_schema_id": "Elevation0-9000","hist_area_km2": {"375": 16.1293,"400": 173.2035,"425": 275.7236,"450": 183.1802,"475": 33.5692}}}