{"type": "Feature","bbox": [16.044,9.079,16.279,9.3069],"geometry": {"type": "MultiPolygon","coordinates": [[[[16.1067,9.0941,391.8587],[16.133,9.083,390.2533],[16.157,9.079,399.7266],[16.187,9.098,400.7762],[16.202,9.122,391.6862],[16.214,9.154,374.6972],[16.239,9.165,368.3464],[16.279,9.175,365.2005],[16.2647,9.1976,372.2412],[16.2488,9.2095,365.1448],[16.2225,9.2188,373.4841],[16.2106,9.2244,375.2036],[16.2074,9.2279,375.4281],[16.1902,9.253,370.8926],[16.184,9.2664,369.0771],[16.1815,9.3069,365.8397],[16.1562,9.2928,368.5887],[16.1414,9.279,367.8348],[16.1165,9.2659,360.6621],[16.0899,9.2543,362.3356],[16.0707,9.2516,371.9528],[16.0563,9.2428,373.0018],[16.0573,9.232,372.1867],[16.0557,9.2096,371.8473],[16.0443,9.144,368.4973],[16.044,9.128,382.7423],[16.088,9.102,393.6171],[16.1067,9.0941,391.8587]]]]}
,"properties": {"GID_3": "TCD.20.1.2_1","GID_0": "TCD","country": "Chad","GID_1": "TCD.20_1","province": "Tandjilé","NL_NAME_1": "NA","GID_2": "TCD.20.1_1","county": "Béré","NL_NAME_2": "NA","city": "Delbian","VARNAME_3": "NA","NL_NAME_3": "NA","TYPE_3": "Sub-prefecture","ENGTYPE_3": "Sub-prefecture","CC_3": "NA","HASC_3": "NA","name": "Delbian.city","area_km2": 360.7161,"hist_schema_id": "Elevation0-9000","hist_area_km2": {"350": 19.5462,"375": 267.7769,"400": 73.393}}}