{"type":"Feature","properties":{"GID_3":"TCD.13.1.16_1","GID_0":"TCD","country":"Chad","GID_1":"TCD.13_1","province":"Mandoul","NL_NAME_1":"NA","GID_2":"TCD.13.1_1","county":"BarhSara","NL_NAME_2":"NA","city":"Takoua","VARNAME_3":"NA","NL_NAME_3":"NA","TYPE_3":"Sub-prefecture","ENGTYPE_3":"Sub-prefecture","CC_3":"NA","HASC_3":"NA","name":"Takoua.city"},
"geometry":{"type": "MultiPolygon","coordinates": [[[[17.3783,8.303,374.089],[17.3968,8.3005,380.7881],[17.4193,8.3029,386.9394],[17.4615,8.328,393.0504],[17.4776,8.3336,387.9086],[17.502,8.3376,388.7576],[17.5113,8.337,390.5479],[17.5191,8.3307,387.2372],[17.5256,8.3278,388.075],[17.5676,8.317,386.7632],[17.5765,8.311,388.8683],[17.6337,8.3082,391.4028],[17.6254,8.3436,388.2192],[17.6222,8.3654,386.6236],[17.619,8.401,386.1528],[17.6208,8.4223,384.578],[17.6028,8.4161,384.5438],[17.5929,8.4152,384.0626],[17.571,8.4164,382.6897],[17.5641,8.4142,382.2018],[17.5541,8.4151,376.8392],[17.4822,8.4433,382.0807],[17.4715,8.4388,380.3037],[17.4688,8.4254,380.3354],[17.4639,8.4144,380.4961],[17.4615,8.4008,380.6264],[17.4545,8.3885,384.1138],[17.4108,8.3549,380.5126],[17.4042,8.3527,377.1172],[17.3929,8.3426,381.0884],[17.3841,8.3281,375.2596],[17.3783,8.303,374.089]]]]}}