{"type":"Feature","properties":{"GID_3":"TCD.20.3.4_1","GID_0":"TCD","country":"Chad","GID_1":"TCD.20_1","province":"Tandjilé","NL_NAME_1":"NA","GID_2":"TCD.20.3_1","county":"TandjiléOuest","NL_NAME_2":"NA","city":"Lele","VARNAME_3":"NA","NL_NAME_3":"NA","TYPE_3":"Sub-prefecture","ENGTYPE_3":"Sub-prefecture","CC_3":"NA","HASC_3":"NA","name":"Lele.city"},
"geometry":{"type": "MultiPolygon","coordinates": [[[[15.573,9.023,437.222],[15.602,9.033,420.9954],[15.652,9.061,437.2389],[15.713,9.051,389.4253],[15.778,9.051,396.6694],[15.819,9.039,428.053],[15.859,9.053,399.7435],[15.893,9.052,382.0798],[15.929,9.061,398.0057],[15.959,9.113,387.1385],[15.962,9.1477,370.3616],[15.9654,9.1622,371.1071],[15.9644,9.1782,390.0706],[15.9588,9.1913,395.8719],[15.9489,9.2068,389.0992],[15.9379,9.2112,389.3251],[15.9355,9.2203,388.3259],[15.9377,9.2289,382.576],[15.938,9.2446,378.9211],[15.9455,9.2707,370.9465],[15.9459,9.28,368.7678],[15.9381,9.2806,369.9842],[15.9041,9.2912,368.6987],[15.894,9.2909,368.3474],[15.8859,9.2879,370.9167],[15.8777,9.2883,372.8974],[15.8356,9.2936,374.9078],[15.8287,9.2984,377.1154],[15.8173,9.292,380.7905],[15.7787,9.2761,392.2572],[15.7618,9.2751,397.762],[15.7537,9.2705,402.587],[15.752,9.2666,407.8579],[15.7434,9.2607,415.1737],[15.73,9.2555,424.4885],[15.7099,9.2554,435.8665],[15.6997,9.2594,437.6743],[15.6788,9.2555,446.6234],[15.6688,9.2503,452.6131],[15.6539,9.2391,452.4036],[15.6507,9.2325,448.2803],[15.6442,9.2253,445.8431],[15.637,9.2203,444.5991],[15.6315,9.2126,444.3956],[15.611,9.1732,458.9622],[15.5969,9.1598,484.7745],[15.5869,9.1472,472.6749],[15.5754,9.1412,465.253],[15.5664,9.1391,460.486],[15.5486,9.1419,441.9272],[15.5357,9.149,431.9801],[15.5056,9.1608,407.3131],[15.4549,9.17,382.6534],[15.432,9.179,390.134],[15.432,9.092,445.8777],[15.441,9.061,430.1317],[15.573,9.023,437.222]]]]}}