{"type":"Feature","properties":{"GID_3":"TCD.18.1.2_1","GID_0":"TCD","country":"Chad","GID_1":"TCD.18_1","province":"Salamat","NL_NAME_1":"NA","GID_2":"TCD.18.1_1","county":"Aboudeïa","NL_NAME_2":"NA","city":"Rachid","VARNAME_3":"NA","NL_NAME_3":"NA","TYPE_3":"Sub-prefecture","ENGTYPE_3":"Sub-prefecture","CC_3":"NA","HASC_3":"NA","name":"Rachid.city"},
"geometry":{"type": "MultiPolygon","coordinates": [[[[19.694,11.001,417.0071],[19.6973,11.0476,420.0211],[19.702,11.074,416.3333],[19.7035,11.1081,416.6111],[19.7072,11.1431,419.8845],[19.7189,11.1632,420.5206],[19.7569,11.2092,429.8474],[19.7822,11.231,430.3795],[19.8193,11.2478,419.4053],[19.9075,11.2793,423.7349],[19.9484,11.2895,423.7387],[19.9932,11.2924,426.1198],[20.0386,11.3068,425.8782],[20.1183,11.3231,428.0617],[20.1285,11.3909,431.0343],[20.1077,11.4431,430.9186],[20.0872,11.4685,432.3222],[20.0668,11.5189,444.9986],[20.0518,11.5371,450.0291],[20.0086,11.576599999999999,453.1613],[19.9889,11.602,465.3884],[19.9772,11.6222,443.4659],[19.9716,11.6483,450.8181],[19.972,11.6779,448.929],[19.974,11.699,446.027],[19.996,11.7488,449.0673],[19.9593,11.7377,445.4996],[19.9225,11.7337,438.039],[19.8839,11.7228,438.0612],[19.8199,11.7351,424.8678],[19.7995,11.7415,432.2752],[19.7495,11.7269,447.8786],[19.7113,11.728,448.5052],[19.6448,11.6943,447.4113],[19.5644,11.6676,457.2065],[19.5214,11.6471,468.7349],[19.4662,11.6074,441.2682],[19.4324,11.5738,447.9622],[19.4101,11.5172,451.9284],[19.3896,11.4827,464.5016],[19.3686,11.4517,459.6936],[19.3517,11.4316,482.6222],[19.3017,11.407,507.6242],[19.2445,11.4281,541.0791],[19.149,11.3534,532.943],[19.13,11.3318,459.1594],[19.1042,11.3078,467.7252],[19.0837,11.2703,453.5228],[19.0722,11.2389,436.1358],[19.13,11.217,434.831],[19.192,11.187,434.7756],[19.238,11.179,438.206],[19.261,11.154,431.0555],[19.405,11.104,431.26],[19.479,11.048,423.7961],[19.57,11.034,417.7849],[19.657,11.003,417.8885],[19.694,11.001,417.0071]]]]}}