{"type":"Feature","properties":{"GID_3":"TCD.2.2.1_1","GID_0":"TCD","country":"Chad","GID_1":"TCD.2_1","province":"Batha","NL_NAME_1":"NA","GID_2":"TCD.2.2_1","county":"BathaOues","NL_NAME_2":"NA","city":"Fitri","VARNAME_3":"NA","NL_NAME_3":"NA","TYPE_3":"Sub-prefecture","ENGTYPE_3":"Sub-prefecture","CC_3":"NA","HASC_3":"NA","name":"Fitri.city"},
"geometry":{"type": "MultiPolygon","coordinates": [[[[17.161,13.099,288.7693],[17.13,13.046,287.5225],[17.077,13.007,287.8844],[16.997,12.937,288.4872],[16.958,12.88,288.6144],[16.974,12.857,288.722],[17.016,12.832,289.6426],[17.054,12.816,289.5462],[17.092,12.783,289.5598],[17.113,12.735,290.3555],[17.15,12.609,295.0515],[17.254,12.501,295.9987],[17.293,12.487,297.0349],[17.295,12.406,299.3244],[17.31,12.346,302.7043],[17.34,12.3,304.9272],[17.388,12.27,306.7254],[17.408,12.229,312.0338],[17.411,12.184,315.6617],[17.446,12.155,317.6791],[17.504,12.158,319.8728],[17.552,12.133,328.4498],[17.598,12.125,335.4867],[17.567,12.199,319.247],[17.608,12.239,327.8034],[17.665,12.256,327.3107],[17.671,12.279,335.0955],[17.882,12.446,358.1155],[18.018,12.452,388.6741],[17.991,12.511,349.4035],[17.967,12.572,332.5819],[17.939,12.671,312.4636],[17.943,12.771,307.4331],[17.966,12.867,309.8369],[18.018,12.955,313.6014],[18.045,13.066,316.7076],[18.041,13.145,314.8847],[18.04,13.213,324.2114],[18.049,13.329,329.6469],[18.037,13.398,324.2354],[18.014,13.477,312.9259],[17.967,13.482,309.6087],[17.757,13.481,304.5004],[17.612,13.456,302.5169],[17.533,13.48,304.2411],[17.45,13.497,305.0779],[17.371,13.473,300.174],[17.234,13.427,300.5247],[17.241,13.21,292.3882],[17.161,13.099,288.7693]]]]}}