{"type": "Feature","bbox": [17.075,8.6122,18.1999,9.641],"geometry": {"type": "MultiPolygon","coordinates": [[[[17.621,8.7061,364.6208],[17.6371,8.7249,364.0713],[17.6526,8.7499,364.2115],[17.6558,8.7735,366.3313],[17.667,8.7743,365.8099],[17.6886,8.7835,364.7845],[17.7013,8.7844,364.7629],[17.7115,8.7815,365.3936],[17.7204,8.7872,364.8126],[17.7238,8.7934,364.7584],[17.7356,8.8016,364.349],[17.7465,8.8021,364.2256],[17.7539,8.8048,364.0621],[17.7849,8.8371,364.2828],[17.7947,8.8506,364.8865],[17.8006,8.8625,364.6326],[17.8179,8.873,364.5213],[17.8247,8.8725,364.4457],[17.8324,8.8754,364.1112],[17.8405,8.8813,364.638],[17.8652,8.8823,371.3265],[17.8651,8.8958,369.9879],[17.8667,8.9046,363.523],[17.8744,8.9089,365.0014],[17.8884,8.9123,363.174],[17.906,8.9099,368.3228],[17.9207,8.9111,368.3295],[17.9249,8.925,364.5008],[17.9507,8.9308,367.2175],[17.9595,8.9366,367.8078],[17.9704,8.9472,366.4111],[17.9852,8.9517,359.7347],[17.9958,8.959,367.0868],[17.9993,8.9676,368.5105],[18.0257,8.9976,365.8775],[18.0674,9.0131,366.8805],[18.1005,9.02,367.7028],[18.109,9.0274,368.6042],[18.1492,9.0789,363.0798],[18.1623,9.1032,365.0865],[18.1918,9.1488,363.5717],[18.1977,9.1623,363.6245],[18.1999,9.1762,356.2724],[18.1444,9.1793,364.4191],[18.1118,9.1861,376.3273],[18.0557,9.1907,404.9777],[18.0362,9.1962,439.3744],[18.0112,9.1989,475.1106],[18.003,9.2027,488.6562],[17.994,9.2173,462.7167],[17.9834,9.223,429.9676],[17.9439,9.2394,418.9103],[17.9244,9.2509,410.2451],[17.8425,9.2906,441.5938],[17.8255,9.2953,449.9493],[17.8197,9.3251,503.3396],[17.811,9.347,502.5811],[17.7756,9.417,407.7555],[17.763,9.436,430.4745],[17.7567,9.4391,433.437],[17.7459,9.4403,433.6071],[17.7366,9.4443,427.5028],[17.7238,9.4437,423.0581],[17.6851,9.4486,412.5443],[17.6758,9.4463,412.1399],[17.6658,9.4487,409.2858],[17.6588,9.4695,393.3145],[17.6444,9.5029,387.7633],[17.6205,9.5428,371.9713],[17.5956,9.5673,366.4301],[17.554,9.597,353.9871],[17.507,9.616,351.873],[17.484,9.641,348.5521],[17.449,9.632,349.2567],[17.427,9.62,354.5831],[17.371,9.612,352.1404],[17.347,9.599,349.9286],[17.317,9.594,346.197],[17.288,9.601,342.7347],[17.251,9.596,343.4028],[17.209,9.576,344.3195],[17.216,9.545,344.8169],[17.257,9.492,346.1147],[17.228,9.47,350.1866],[17.23,9.393,353.8706],[17.228,9.371,359.8567],[17.201,9.355,356.5549],[17.075,9.261,369.5257],[17.222,9.166,385.2345],[17.134,9.078,521.037],[17.15,8.971,395.8194],[17.1511,8.9224,377.2905],[17.1841,8.9222,380.0657],[17.1996,8.9178,380.9294],[17.2137,8.91,382.2429],[17.2453,8.9053,378.7953],[17.2547,8.9062,378.7637],[17.2774,8.9204,377.3029],[17.2849,8.9227,376.5716],[17.3059,8.8936,378.0069],[17.3329,8.873,378.3602],[17.3569,8.8565,378.344],[17.3894,8.8447,379.0005],[17.3776,8.8338,378.5979],[17.3633,8.8133,381.162],[17.3621,8.7937,381.3332],[17.3666,8.782,372.1028],[17.3864,8.7751,378.6511],[17.3985,8.7893,369.8079],[17.4144,8.8328,381.6819],[17.438,8.8195,380.6571],[17.4366,8.8008,380.5331],[17.4583,8.7795,369.8648],[17.4821,8.7713,377.8693],[17.5005,8.7619,388.8502],[17.5196,8.7451,394.5746],[17.4812,8.724,369.055],[17.4654,8.7071,372.7036],[17.4719,8.6889,369.0815],[17.4873,8.6671,366.5157],[17.4956,8.6122,366.4849],[17.5143,8.6174,366.2829],[17.5447,8.6351,366.3029],[17.5654,8.6491,365.0986],[17.5838,8.6656,365.2759],[17.621,8.7061,364.6208]]]]}
,"properties": {"GID_2": "TCD.13.3_1","GID_0": "TCD","country": "Chad","GID_1": "TCD.13_1","province": "Mandoul","NL_NAME_1": "NA","county": "MandoulOriental","VARNAME_2": "Koumra","NL_NAME_2": "NA","TYPE_2": "Department","ENGTYPE_2": "Department","CC_2": "NA","HASC_2": "TD.MA.MR","name": "Mandoul_Oriental.county","area_km2": 7030.71,"hist_schema_id": "Elevation0-9000","hist_area_km2": {"350": 896.979,"375": 2522.456,"400": 1057.222,"425": 610.944,"450": 499.036,"475": 391.106,"500": 296.21,"525": 220.964,"550": 174.987,"575": 144.838,"600": 95.028,"625": 67.306,"650": 38.31,"675": 14.968,"700": 0.356}}}