{"type":"Feature","properties":{"GID_2":"TCD.15.1_1","GID_0":"TCD","country":"Chad","GID_1":"TCD.15_1","province":"Mayo-KebbiOuest","NL_NAME_1":"NA","county":"LacLéré","VARNAME_2":"Lere|Léré","NL_NAME_2":"NA","TYPE_2":"Department","ENGTYPE_2":"Department","CC_2":"NA","HASC_2":"TD.MW.LL","name":"Lac_Léré.county"},
"geometry":{"type": "MultiPolygon","coordinates": [[[[14.243,9.3986,375.1555],[14.2504,9.3909,387.5342],[14.2566,9.38,392.334],[14.2653,9.3833,404.6291],[14.3103,9.3934,421.5918],[14.3246,9.4032,419.6516],[14.3429,9.4113,440.0298],[14.3516,9.4194,437.1528],[14.386,9.4353,384.1842],[14.3973,9.4342,378.688],[14.4283,9.4234,385.1148],[14.438,9.4166,376.575],[14.4556,9.4188,368.1692],[14.5262,9.4022,384.2394],[14.5398,9.3828,398.0405],[14.5533,9.3701,400.8037],[14.5703,9.3626,401.9438],[14.6022,9.3648,380.5489],[14.621,9.3716,382.201],[14.6349,9.3941,378.5829],[14.6432,9.4125,368.4554],[14.6454,9.4497,332.7321],[14.6537,9.4629,306.9356],[14.6599,9.4689,318.145],[14.6742,9.4758,304.1674],[14.6978,9.4777,317.5569],[14.7125,9.4994,350.5116],[14.7168,9.516,333.7632],[14.7363,9.5574,356.3618],[14.7459,9.5684,370.1527],[14.7529,9.5848,394.8788],[14.7527,9.6026,390.7325],[14.7486,9.639,390.3727],[14.749,9.6698,398.1679],[14.7455,9.7017,387.2202],[14.7486,9.7236,368.2724],[14.7382,9.774,346.1921],[14.735,9.8197,316.1326],[14.7282,9.8226,315.0141],[14.7212,9.8389,330.3869],[14.7261,9.852,350.6707],[14.7332,9.8593,342.0872],[14.7349,9.8657,338.5095],[14.7322,9.8712,345.6685],[14.7248,9.8746,348.9044],[14.7262,9.8842,359.7389],[14.735,9.8945,362.9116],[14.7396,9.9045,354.8116],[14.7416,9.916,355.0446],[14.7281,9.951,368.4204],[14.7381,9.9503,373.5205],[14.4661,10.0066,348.7238],[14.2406,10.0041,399.4607],[14.2325,10.0027,407.8371],[14.208,10.0061,396.3919],[14.2082,10.0016,399.0371],[14.1733,9.9012,347.9391],[14.1351,9.8239,333.5571],[14.0839,9.7827,386.9814],[14.0263,9.7316,318.2659],[13.9823,9.6443,226.1052],[13.9825,9.6419,225.1167],[14.0079,9.6227,228.2007],[14.0233,9.6202,228.5179],[14.0349,9.6155,230.4853],[14.0438,9.614,230.7441],[14.0459,9.6119,230.4662],[14.0467,9.6008,262.9146],[14.0743,9.5664,295.744],[14.0789,9.5636,296.4473],[14.0838,9.5564,307.4664],[14.0922,9.5549,322.0513],[14.0997,9.5499,331.4307],[14.1075,9.5369,337.2285],[14.1109,9.5178,338.3059],[14.124,9.5092,345.8152],[14.135,9.5042,347.5876],[14.141,9.5026,348.6848],[14.1483,9.5042,353.3748],[14.153,9.5018,355.4219],[14.1564,9.5022,356.4141],[14.163,9.4905,360.4808],[14.1771,9.4806,367.2617],[14.1832,9.4738,351.0487],[14.1891,9.4598,340.8061],[14.1938,9.4555,342.9447],[14.197,9.4441,328.1254],[14.2013,9.4418,332.3165],[14.2119,9.4455,334.1595],[14.2157,9.4382,338.6035],[14.239,9.4197,358.3732],[14.238,9.407,363.2064],[14.243,9.3986,375.1555]]]]}}