{"type": "Feature","bbox": [15.9735,9.05,17.591,10.265],"geometry": {"type": "MultiPolygon","coordinates": [[[[16.624,9.125,460.9213],[16.654,9.106,494.6443],[16.684,9.113,499.8199],[16.772,9.071,471.314],[16.986,9.05,469.8042],[17.134,9.078,521.037],[17.222,9.166,385.2345],[17.075,9.261,369.5257],[17.201,9.355,356.5549],[17.228,9.371,359.8567],[17.23,9.393,353.8706],[17.228,9.47,350.1866],[17.257,9.492,346.1147],[17.216,9.545,344.8169],[17.209,9.576,344.3195],[17.251,9.596,343.4028],[17.288,9.601,342.7347],[17.317,9.594,346.197],[17.347,9.599,349.9286],[17.371,9.612,352.1404],[17.427,9.62,354.5831],[17.449,9.632,349.2567],[17.484,9.641,348.5521],[17.507,9.616,351.873],[17.554,9.597,353.9871],[17.575,9.624,355.0051],[17.591,9.673,352.9009],[17.521,9.74,358.116],[17.461,9.785,353.3111],[17.381,9.826,347.7145],[17.322,9.827,349.4396],[17.256,9.84,347.0449],[17.218,9.857,344.1806],[17.188,9.871,342.9179],[17.164,9.92,343.3952],[17.098,9.931,339.2692],[17.04,9.945,341.1867],[16.974,9.949,339.481],[16.942,9.945,340.0063],[16.929,9.971,340.1117],[16.897,9.99,340.8295],[16.81,10.014,335.6171],[16.776,10.01,336.5892],[16.768,10.031,335.0215],[16.746,10.034,336.9871],[16.738,10.053,336.2613],[16.713,10.066,335.698],[16.69,10.067,335.1111],[16.662,10.071,331.3207],[16.646,10.095,335.7249],[16.648,10.117,334.3327],[16.639,10.134,335.8983],[16.626,10.146,331.8474],[16.619,10.171,331.1797],[16.617,10.193,330.7089],[16.623,10.234,333.2465],[16.602,10.236,333.7292],[16.584,10.265,333.5002],[16.483,10.2,337.5361],[16.23,10.202,337.0044],[16.1939,10.2092,334.0323],[16.238,10.18,335.2886],[16.243,10.086,337.7897],[16.263,10.031,338.642],[16.2291,9.9835,340.1557],[16.2179,9.9487,340.8017],[16.2017,9.911,341.8141],[16.1853,9.8858,342.2502],[16.1663,9.8641,342.6313],[16.138,9.8104,344.6029],[16.1064,9.7772,345.7029],[16.0945,9.7612,344.8204],[16.0675,9.7405,345.498],[16.0325,9.7019,345.8074],[15.9977,9.6843,345.4254],[15.9735,9.6683,344.9278],[15.9794,9.6635,345.5868],[16.0043,9.6552,345.3101],[16.0161,9.6473,343.6153],[16.0339,9.6224,346.6921],[16.0472,9.6139,347.1993],[16.1348,9.5856,349.3664],[16.1473,9.5855,349.9949],[16.1861,9.5608,350.6876],[16.2002,9.5468,351.37],[16.2065,9.5364,351.1898],[16.2248,9.5183,352.2408],[16.2371,9.4909,352.2605],[16.2391,9.4678,349.0],[16.2482,9.4481,353.4825],[16.2585,9.4321,353.8648],[16.2718,9.4052,351.9496],[16.2811,9.3646,356.0059],[16.2922,9.3507,356.6719],[16.314,9.317,357.1415],[16.3474,9.2836,358.4701],[16.381,9.21,359.8554],[16.411,9.181,360.4333],[16.414,9.15,362.1847],[16.427,9.118,362.8237],[16.467,9.132,371.9079],[16.543,9.153,414.5497],[16.596,9.149,432.51369999999997],[16.624,9.125,460.9213]]]]}
,"properties": {"GID_2": "TCD.20.2_1","GID_0": "TCD","country": "Chad","GID_1": "TCD.20_1","province": "Tandjilé","NL_NAME_1": "NA","county": "TandjiléEst","VARNAME_2": "Lai","NL_NAME_2": "NA","TYPE_2": "Department","ENGTYPE_2": "Department","CC_2": "NA","HASC_2": "TD.TA.TE","name": "Tandjilé_Est.county","area_km2": 12535.453,"hist_schema_id": "Elevation0-9000","hist_area_km2": {"325": 969.166,"350": 9843.961,"375": 972.024,"400": 229.596,"425": 159.048,"450": 141.328,"475": 153.67,"500": 57.846,"525": 8.5,"550": 0.314}}}