{"type": "Feature","bbox": [16.3497,8.685,16.45,8.8112],"geometry": {"type": "MultiPolygon","coordinates": [[[[16.369,8.685,381.7602],[16.379,8.696,384.0733],[16.406,8.717,405.4222],[16.45,8.727,413.3294],[16.4146,8.762,446.737],[16.4027,8.7762,450.9289],[16.3891,8.7976,462.7388],[16.3757,8.8112,477.2092],[16.3685,8.8034,486.148],[16.3561,8.7841,471.2579],[16.3497,8.7685,462.2604],[16.3522,8.7474,446.7303],[16.3569,8.7371,438.3495],[16.3597,8.7236,426.1757],[16.3648,8.7099,407.5217],[16.369,8.685,381.7602]]]]}
,"properties": {"GID_3": "TCD.11.3.2_1","GID_0": "TCD","country": "Chad","GID_1": "TCD.11_1","province": "LogoneOccidental","NL_NAME_1": "NA","GID_2": "TCD.11.3_1","county": "Ngourkosso","NL_NAME_2": "NA","city": "Beladjia","VARNAME_3": "NA","NL_NAME_3": "NA","TYPE_3": "Sub-prefecture","ENGTYPE_3": "Sub-prefecture","CC_3": "NA","HASC_3": "NA","name": "Beladjia.city","area_km2": 71.52127,"hist_schema_id": "Elevation0-9000","hist_area_km2": {"375": 0.73355,"400": 9.24229,"425": 23.05209,"450": 28.07956,"475": 10.41377}}}