{"type":"Feature","properties":{"GID_3":"TCD.20.2.11_1","GID_0":"TCD","country":"Chad","GID_1":"TCD.20_1","province":"Tandjilé","NL_NAME_1":"NA","GID_2":"TCD.20.2_1","county":"TandjiléEst","NL_NAME_2":"NA","city":"Mouroum-Touloum","VARNAME_3":"NA","NL_NAME_3":"NA","TYPE_3":"Sub-prefecture","ENGTYPE_3":"Sub-prefecture","CC_3":"NA","HASC_3":"NA","name":"Mouroum-Touloum.city"},
"geometry":{"type": "MultiPolygon","coordinates": [[[[16.596,9.149,432.51369999999997],[16.5989,9.1551,426.7156],[16.5992,9.162,417.9664],[16.6041,9.1772,408.7872],[16.6091,9.1889,407.1716],[16.6098,9.1951,404.8398],[16.6244,9.2296,388.0206],[16.6373,9.2711,367.4052],[16.6021,9.2956,358.6062],[16.5945,9.305,355.3652],[16.5945,9.3089,355.7097],[16.5676,9.2931,361.8593],[16.5299,9.2744,363.0634],[16.5187,9.2708,361.0859],[16.5058,9.269,362.969],[16.4886,9.2609,363.7097],[16.4946,9.2551,367.2067],[16.5006,9.2439,365.0182],[16.5202,9.2332,371.7516],[16.5281,9.2318,369.9415],[16.5318,9.2295,371.1021],[16.5359,9.2186,376.041],[16.5402,9.1938,384.5345],[16.5573,9.1681,408.085],[16.5606,9.1517,428.3193],[16.596,9.149,432.51369999999997]]]]}}