{"type": "Feature","bbox": [21.056,11.546,21.576,12.028],"geometry": {"type": "MultiPolygon","coordinates": [[[[21.4015,11.5999,484.5715],[21.561,11.627,487.4825],[21.549,11.692,498.9487],[21.534,11.726,491.7045],[21.54,11.768,495.9934],[21.528,11.788,496.6245],[21.529,11.805,499.3672],[21.522,11.895,503.864],[21.522,11.924,505.9193],[21.527,11.959,504.87],[21.546,11.99,506.9514],[21.576,12.028,508.9746],[21.493,12.018,504.6445],[21.445,11.997,499.0943],[21.386,11.963,495.7497],[21.344,11.943,497.7082],[21.265,11.933,522.1638],[21.216,11.942,524.3896],[21.188,11.906,514.4379],[21.136,11.857,498.7985],[21.119,11.793,493.8984],[21.114,11.761,488.1098],[21.065,11.693,479.2683],[21.056,11.664,479.5275],[21.099,11.64,480.9221],[21.096,11.546,475.1965],[21.1671,11.56,478.2081],[21.4015,11.5999,484.5715]]]]}
,"properties": {"GID_3": "TCD.19.2.6_1","GID_0": "TCD","country": "Chad","GID_1": "TCD.19_1","province": "Sila","NL_NAME_1": "NA","GID_2": "TCD.19.2_1","county": "Sila","NL_NAME_2": "NA","city": "Mourro","VARNAME_3": "NA","NL_NAME_3": "NA","TYPE_3": "Sub-prefecture","ENGTYPE_3": "Sub-prefecture","CC_3": "NA","HASC_3": "NA","name": "Mourro.city","area_km2": 1915.347,"hist_schema_id": "Elevation0-9000","hist_area_km2": {"475": 548.86,"500": 1226.057,"525": 115.141,"550": 13.547,"575": 4.896,"600": 2.718,"625": 2.282,"650": 0.913,"675": 0.581,"700": 0.27,"725": 0.041,"750": 0.041}}}