{"type": "Feature","bbox": [21.1091,15.6863,24.0025,20.1823],"geometry": {"type": "MultiPolygon","coordinates": [[[[21.3485,15.8601,527.3609],[21.359,15.8581,529.2275],[21.2761,15.8741,509.6878],[21.2111,15.9141,522.9667],[21.1711,15.9221,509.0063],[21.1341,15.9351,505.256],[21.1091,15.9261,499.5798],[21.134,15.935,504.6588],[21.171,15.922,508.7229],[21.211,15.914,522.9667],[21.276,15.874,509.2696],[21.3485,15.8601,527.3609]]],
[[[23.089,15.755,777.9189],[23.1315,15.7106,769.5574],[23.1535,15.7122,766.0825],[23.1701,15.7051,766.7662],[23.1985,15.7041,765.5981],[23.2147,15.7087,765.1196],[23.2267,15.7009,762.1577],[23.2413,15.7013,761.6593],[23.2737,15.6933,765.4259],[23.3335,15.6863,757.761],[23.3526,15.6863,756.0029],[23.3777,15.6901,754.6693],[23.4165,15.6931,753.6107],[23.4439,15.7024,752.9285],[23.4916,15.7284,750.8775],[23.5148,15.7372,749.5105],[23.5781,15.7538,746.2312],[23.662,15.7577,742.8802],[23.7127,15.7494,740.9587],[23.7253,15.7453,739.6899],[23.7411,15.7439,739.9523],[23.7767,15.7451,737.8441],[23.7907,15.7425,736.5032],[23.8058,15.7427,737.4165],[23.8563,15.7317,735.8525],[23.9033,15.7167,732.1763],[23.9425,15.7101,732.2141],[23.9639,15.7039,732.1863],[23.9891,15.7033,729.1942],[24.0017,15.7049,728.1646],[24.0025,15.8849,867.0588],[24.0001,16.0001,872.11],[24.0001,19.5081,773.8439],[23.9351,19.5377,690.1309],[23.7783,19.6203,695.4807],[23.7575,19.6327,671.3467],[23.4059,19.8131,688.8517],[23.4027,19.8161,688.8593],[23.3129,19.8629,665.6022],[23.3033,19.8665,666.4496],[23.2865,19.8775,664.6266],[23.1515,19.9461,728.1003],[23.1459,19.9471,732.8149],[23.1327,19.9537,740.6359],[23.1273,19.9581,742.2853],[23.0911,19.9773,731.468],[23.0575,19.9931,711.1649],[23.0469,20.0,708.0448],[22.8029,20.1259,579.7946],[22.7953,20.1321,591.3008],[22.7659,20.1445,634.8068],[22.6947,20.1823,639.9901],[22.6671,20.1663,637.9917],[22.4711,19.8775,616.973],[22.4497,19.4281,717.8033],[22.4247,19.2535,660.2595],[22.4283,19.0465,613.07],[22.4781,18.7257,620.6699],[22.5245,18.3047,571.9067],[22.5555,18.0871,555.1368],[22.5047,17.6053,767.9331],[22.4585,17.2167,1177.1423],[22.1537,16.4411,656.5574],[22.0333,16.0987,672.7195],[21.9931,16.0079,637.887],[21.9429,15.9223,622.1701],[21.8971,15.9291,625.6002],[21.7464,15.962,580.8164],[21.897,15.929,625.6002],[21.971,15.918,640.2643],[22.074,15.954,666.6024],[22.125,15.966,656.0295],[22.161,15.955,670.6326],[22.183,15.934,694.7401],[22.213,15.948,671.0042],[22.277,15.903,694.6256],[22.324,15.889,754.8015],[22.37,15.896,740.0962],[22.414,15.919,756.899],[22.524,15.89,847.3704],[22.543,15.872,861.4257],[22.549,15.812,918.0264],[22.602,15.797,893.6592],[22.734,15.818,849.6559],[22.798,15.842,813.5474],[22.823,15.835,812.4279],[22.854,15.806,808.0997],[22.9,15.799,811.1177],[22.96,15.807,794.0925],[22.992,15.821,781.9335],[23.043,15.799,777.6621],[23.089,15.755,777.9189]]]]}
,"properties": {"GID_1": "TCD.5_1","GID_0": "TCD","country": "Chad","province": "EnnediEst","VARNAME_1": "NA","NL_NAME_1": "NA","TYPE_1": "Région","ENGTYPE_1": "Region","CC_1": "NA","HASC_1": "TD.EE","ISO_1": "NA","name": "Ennedi_Est.province","area_km2": 77630.29,"hist_schema_id": "Elevation0-9000","hist_area_km2": {"525": 78.13,"550": 911.69,"575": 1352.53,"600": 2225.9,"625": 3517.33,"650": 3622.41,"675": 4304.67,"700": 4926.18,"725": 3746.5,"750": 5233.42,"775": 5198.16,"800": 6041.14,"825": 4908.54,"850": 4200.93,"875": 3701.14,"900": 3445.63,"925": 2790.22,"950": 2349.9,"975": 2078.57,"1000": 2022.84,"1025": 1745.15,"1050": 1927.4,"1075": 2059.18,"1100": 1924.27,"1125": 1728.07,"1150": 994.42,"1175": 415.73,"1200": 116.19,"1225": 32.57,"1250": 16.69,"1275": 8.87,"1300": 4.56,"1325": 1.24}}}