{"type": "Feature","id": "5579","bbox": [20.00428,15.68132,23.98441,21.02094],"geometry": {"type": "Polygon","coordinates": [[[23.98131,19.49612,773.7317],[23.8578,19.55718,692.0242],[23.73429,19.61813,662.1656],[23.61079,19.67911,737.7742],[23.48728,19.74017,747.4751],[23.36377,19.80117,692.9963],[23.24016,19.8621,681.8216],[23.11676,19.92315,755.2639],[22.99315,19.9841,705.6519],[22.86964,20.04511,754.8508],[22.74614,20.10606,633.5536],[22.62263,20.16709,638.8151],[22.49912,20.22809,612.5095],[22.37562,20.28912,564.452],[22.25211,20.35008,556.9457],[22.1286,20.41105,544.2751],[22.0051,20.47203,622.8701],[21.88149,20.53306,531.4215],[21.75808,20.59399,549.1669],[21.63447,20.65497,537.4619],[21.51097,20.71605,523.6763],[21.38746,20.77703,531.2963],[21.26395,20.83801,538.2478],[21.14034,20.89904,545.4843],[21.01694,20.95996,569.7573],[20.89333,21.02094,578.8118],[20.00428,19.27952,447.1483],[20.15256,18.68637,409.7276],[20.42442,17.96966,420.5918],[20.42442,17.62366,404.5778],[20.39971,17.1788,395.9214],[20.30085,16.75865,408.9513],[20.54799,16.06665,440.2623],[20.63702,15.84372,438.6813],[20.48354,15.7116,421.5039],[20.4916,15.71088,423.4402],[20.49707,15.70912,423.7214],[20.50638,15.70307,422.1489],[20.52436,15.69475,423.1424],[20.54668,15.68726,426.0341],[20.55836,15.68545,429.537],[20.5672,15.68545,430.7378],[20.58735,15.69279,429.4474],[20.59697,15.69723,431.3001],[20.62508,15.7177,435.7991],[20.66027,15.73702,437.4584],[20.83287,15.79945,458.4655],[20.89633,15.83945,460.4565],[20.91043,15.85361,466.2066],[20.92284,15.86952,469.9648],[20.94056,15.90167,470.9402],[20.94351,15.9057,471.3374],[20.95064,15.91278,472.6562],[20.9587,15.91872,474.1319],[20.97684,15.92885,482.0533],[21.03534,15.94502,487.5846],[21.05322,15.955,490.7068],[21.07694,15.9752,489.7147],[21.09151,15.98383,495.2711],[21.09662,15.98517,492.9727],[21.10221,15.98466,493.8952],[21.11156,15.98011,492.8199],[21.1823,15.93598,509.561],[21.29341,15.89009,522.9021],[21.30488,15.88787,520.1097],[21.31263,15.88792,522.4126],[21.3193,15.88895,524.0599],[21.37811,15.92058,536.5773],[21.3888,15.92378,537.528],[21.64331,15.97598,567.6346],[21.69514,15.9921,573.7406],[21.73178,15.99985,576.6887],[21.74186,16.00068,577.7979],[21.75751,15.99944,579.6383],[21.76263,15.99825,580.4438],[21.84459,15.9705,592.2898],[21.89037,15.94941,611.7314],[21.90851,15.94456,607.0333],[21.91595,15.94445,610.0628],[21.922,15.94569,607.7274],[21.96794,15.96481,614.2714],[21.99104,15.97784,619.7605],[22.01822,15.986,631.9547],[22.06091,15.99096,639.5063],[22.09269,15.99045,640.6138],[22.11816,15.986,645.5935],[22.14421,15.97892,651.0827],[22.14964,15.98001,652.0307],[22.15429,15.98228,652.1395],[22.16638,15.99417,653.4059],[22.17325,15.99882,657.519],[22.17713,15.9998,658.5211],[22.17945,15.99975,661.2183],[22.18131,15.9984,660.579],[22.20891,15.97164,669.8782],[22.24927,15.94073,685.8391],[22.25888,15.93588,686.1284],[22.27097,15.93143,703.0747],[22.27965,15.92916,712.3439],[22.2949,15.92699,709.2028],[22.3042,15.92688,711.2233],[22.3118,15.92761,709.7746],[22.31722,15.92895,714.4905],[22.33257,15.93427,718.6974],[22.33722,15.9366,719.3383],[22.34766,15.94363,718.1813],[22.35603,15.94817,725.7377],[22.36301,15.94874,718.636],[22.37091,15.94843,717.4055],[22.37665,15.94699,723.4638],[22.38099,15.94414,727.4338],[22.38812,15.93732,733.8689],[22.39215,15.93422,740.7624],[22.3967,15.93153,744.4026],[22.41856,15.92394,763.6912],[22.43158,15.92203,797.5418],[22.4707,15.9089,833.8762],[22.47504,15.90487,802.2963],[22.47861,15.89805,808.323],[22.48419,15.88208,865.204],[22.48682,15.87795,864.9178],[22.49023,15.87428,875.5585],[22.49396,15.87138,894.282],[22.49783,15.86921,888.5267],[22.50543,15.86673,889.2078],[22.50998,15.86477,899.116],[22.51339,15.86131,893.3301],[22.51556,15.85676,897.9663],[22.51912,15.84678,891.3307],[22.52176,15.84244,893.8201],[22.52579,15.83934,907.833],[22.53044,15.83671,913.5432],[22.53416,15.83335,907.4223],[22.53664,15.8289,916.0369],[22.53835,15.82389,927.7218],[22.54052,15.81929,915.6918],[22.54455,15.81516,908.704],[22.5509,15.81237,922.4512],[22.56082,15.80958,927.036],[22.56754,15.81009,922.4919],[22.57312,15.81175,914.3498],[22.58677,15.81888,921.7986],[22.59204,15.82064,926.2465],[22.60351,15.8226,907.1611],[22.63395,15.82425,897.4072],[22.66914,15.82984,876.3188],[22.69058,15.83025,859.4738],[22.71926,15.82782,843.044],[22.72748,15.82834,843.2562],[22.7466,15.83521,840.4889],[22.75931,15.83841,830.8181],[22.76753,15.83852,829.9849],[22.77404,15.83697,827.1273],[22.77854,15.83418,828.2338],[22.79859,15.81867,816.9891],[22.80355,15.81645,814.2507],[22.80913,15.81464,813.7549],[22.83455,15.81118,819.106],[22.83952,15.80901,815.353],[22.84546,15.80575,816.567],[22.85306,15.8026,810.5485],[22.86654,15.79862,819.4652],[22.87553,15.79749,810.7415],[22.88344,15.79728,810.9562],[22.89491,15.79919,810.8038],[22.91574,15.80606,803.4272],[22.93605,15.81526,796.4559],[22.9438,15.8179,794.5874],[22.95718,15.82095,790.3063],[22.96633,15.82157,791.8123],[22.97424,15.82115,788.2697],[22.99765,15.8165,785.2929],[23.05754,15.79397,782.9252],[23.06219,15.79154,779.9644],[23.06622,15.78844,782.6245],[23.06963,15.78477,787.4213],[23.11805,15.71036,769.883],[23.11914,15.70752,772.7257],[23.11925,15.70722,772.7257],[23.16678,15.71294,765.1516],[23.32057,15.68132,757.6125],[23.39581,15.68835,754.9474],[23.52707,15.73516,748.8502],[23.5927,15.74901,745.2065],[23.70752,15.74886,741.6603],[23.82907,15.73103,735.9988],[23.94555,15.69222,736.1067],[23.97262,15.69108,734.8105],[23.98441,15.72116,734.5744],[23.98441,15.72194,734.5744],[23.98441,15.77966,767.975],[23.9843,16.01194,875.8807],[23.98399,16.24423,779.1212],[23.98379,16.47651,695.8279],[23.98368,16.7088,686.5114],[23.98348,16.94114,701.7257],[23.98327,17.17337,728.5765],[23.98306,17.40566,803.668],[23.98286,17.63794,801.7482],[23.98275,17.87023,795.6238],[23.98244,18.10251,797.5444],[23.98224,18.3348,684.964],[23.98213,18.56703,656.6017],[23.98193,18.79929,811.7143],[23.98172,19.03155,765.3995],[23.98151,19.26384,766.6111],[23.98131,19.49612,773.7317]]]}
,"properties": {"ISO3166-1-Alpha-3": "TCD","country": "Chad","fill": "#F0F","name": "Ennedi","area_km2": 191657.08,"hist_schema_id": "Elevation0-9000","hist_area_km2": {"325": 49.75,"350": 297.23,"375": 828.3,"400": 4980.65,"425": 7472.42,"450": 9827.74,"475": 11709.84,"500": 16256.17,"525": 16329.05,"550": 13814.42,"575": 8926.2,"600": 8372.81,"625": 8270.87,"650": 6476.03,"675": 6684.72,"700": 6159.57,"725": 4828.96,"750": 6173.78,"775": 5894.85,"800": 6566.54,"825": 5355.13,"850": 4698.17,"875": 4129.58,"900": 3885.81,"925": 3201.77,"950": 2646.55,"975": 2311.18,"1000": 2269.1,"1025": 1978.0,"1050": 2184.02,"1075": 2384.47,"1100": 2327.13,"1125": 2245.0,"1150": 1317.14,"1175": 560.79,"1200": 163.18,"1225": 46.14,"1250": 18.68,"1275": 9.46,"1300": 4.56}}}