{"type":"Feature","properties":{"GID_3":"TCD.2.3.2_1","GID_0":"TCD","country":"Chad","GID_1":"TCD.2_1","province":"Batha","NL_NAME_1":"NA","GID_2":"TCD.2.3_1","county":"Fitri","NL_NAME_2":"NA","city":"Khozam","VARNAME_3":"NA","NL_NAME_3":"NA","TYPE_3":"Sub-prefecture","ENGTYPE_3":"Sub-prefecture","CC_3":"NA","HASC_3":"NA","name":"Khozam.city"},
"geometry":{"type": "MultiPolygon","coordinates": [[[[18.289,13.468,330.4584],[18.318,13.483,331.5938],[18.324,13.521,331.9037],[18.356,13.566,330.8472],[18.413,13.574,333.5568],[18.512,13.576,335.6347],[18.599,13.567,340.3186],[18.582,13.625,338.3467],[18.553,13.689,338.9443],[18.482,13.736,335.6646],[18.439,13.762,335.1982],[18.403,13.837,334.6183],[18.314,13.996,331.2711],[18.236,14.067,324.1692],[18.192,14.094,331.5712],[18.126,14.117,326.316],[18.097,14.029,317.0133],[18.051,13.956,309.7944],[18.026,13.835,312.6581],[18.011,13.69,312.5812],[18.014,13.477,312.9259],[18.069,13.525,322.5416],[18.098,13.529,319.3005],[18.116,13.537,328.3568],[18.165,13.552,329.6436],[18.247,13.463,329.2791],[18.289,13.468,330.4584]]]]}}