{"type": "Feature","bbox": [20.1459,9.9792,20.8539,10.4903],"geometry": {"type": "MultiPolygon","coordinates": [[[[20.1459,10.0094,395.0913],[20.1673,10.0133,403.7257],[20.1893,10.0136,403.243],[20.2256,10.0081,400.3068],[20.2943,10.0014,409.338],[20.327,10.0042,406.9348],[20.4107,10.003,410.0977],[20.4541,9.9995,408.9957],[20.4704,9.9939,408.9583],[20.4848,9.9946,408.151],[20.5366,9.9905,409.5794],[20.5481,9.9873,409.1811],[20.6126,9.9792,410.4951],[20.6325,9.9796,410.6039],[20.6547,9.9877,411.0921],[20.6757,9.9889,409.7937],[20.7038,10.0046,412.0244],[20.7234,10.0178,414.0292],[20.7402,10.0347,412.9529],[20.7491,10.1026,411.1696],[20.7533,10.1643,418.2363],[20.7669,10.2101,417.5974],[20.7746,10.256,417.9474],[20.789,10.3098,420.5403],[20.8067,10.3391,420.7775],[20.814,10.3684,421.7377],[20.8366,10.4171,423.9173],[20.8539,10.4503,425.2142],[20.8303,10.4547,427.9239],[20.8174,10.4539,427.3892],[20.7912,10.4561,426.2189],[20.7136,10.4722,423.4008],[20.6845,10.4824,424.2792],[20.6502,10.4837,422.9842],[20.6204,10.4782,424.1183],[20.5973,10.4798,421.7697],[20.5227,10.4903,419.8637],[20.4582,10.4882,420.4081],[20.4193,10.4818,417.4627],[20.3993,10.4714,417.4912],[20.3651,10.4585,417.1917],[20.3239,10.4452,418.4763],[20.2935,10.4379,415.1594],[20.2356,10.4528,414.5919],[20.2311,10.412,413.7117],[20.2146,10.3855,410.8604],[20.1809,10.3081,408.8881],[20.1691,10.2671,407.6776],[20.1612,10.2298,407.4744],[20.1589,10.1503,404.4606],[20.1459,10.0094,395.0913]]]]}
,"properties": {"GID_3": "TCD.18.2.4_1","GID_0": "TCD","country": "Chad","GID_1": "TCD.18_1","province": "Salamat","NL_NAME_1": "NA","GID_2": "TCD.18.2_1","county": "BarhAzoum","NL_NAME_2": "NA","city": "Dar-Salim","VARNAME_3": "NA","NL_NAME_3": "NA","TYPE_3": "Sub-prefecture","ENGTYPE_3": "Sub-prefecture","CC_3": "NA","HASC_3": "NA","name": "Dar-Salim.city","area_km2": 3448.684,"hist_schema_id": "Elevation0-9000","hist_area_km2": {"400": 1471.926,"425": 1976.758}}}