{"type":"Feature","properties":{"GID_3":"TCD.14.1.1_1","GID_0":"TCD","country":"Chad","GID_1":"TCD.14_1","province":"Mayo-KebbiEst","NL_NAME_1":"NA","GID_2":"TCD.14.1_1","county":"Kabbia","NL_NAME_2":"NA","city":"Berem","VARNAME_3":"NA","NL_NAME_3":"NA","TYPE_3":"Sub-prefecture","ENGTYPE_3":"Sub-prefecture","CC_3":"NA","HASC_3":"NA","name":"Berem.city"},
"geometry":{"type": "MultiPolygon","coordinates": [[[[15.494,9.523,357.0409],[15.4631,9.5267,364.0936],[15.4008,9.5447,372.5128],[15.3951,9.5382,370.2486],[15.387,9.5324,367.5259],[15.3768,9.5287,362.1991],[15.3592,9.508,370.537],[15.3482,9.4917,374.0729],[15.3405,9.4841,377.3144],[15.3258,9.4544,389.9292],[15.3209,9.4345,399.9354],[15.3175,9.4044,421.3166],[15.3255,9.3559,456.9072],[15.3309,9.3402,474.7593],[15.3396,9.2892,477.1421],[15.351,9.2528,468.7166],[15.3498,9.2375,452.5661],[15.3553,9.2302,441.9734],[15.3761,9.2236,426.4186],[15.3923,9.2141,405.5356],[15.411,9.2075,392.6632],[15.421,9.21,386.6461],[15.445,9.242,391.9383],[15.475,9.289,387.5073],[15.484,9.319,395.1607],[15.5376,9.3843,373.7596],[15.532,9.4136,371.1324],[15.5218,9.4464,363.9421],[15.5101,9.4802,362.6314],[15.5037,9.4913,360.0744],[15.5024,9.5102,356.5349],[15.494,9.523,357.0409]]]]}}