{"type":"Feature","properties":{"GID_3":"TCD.13.1.3_1","GID_0":"TCD","country":"Chad","GID_1":"TCD.13_1","province":"Mandoul","NL_NAME_1":"NA","GID_2":"TCD.13.1_1","county":"BarhSara","NL_NAME_2":"NA","city":"Bekamba-Moissala","VARNAME_3":"NA","NL_NAME_3":"NA","TYPE_3":"Sub-prefecture","ENGTYPE_3":"Sub-prefecture","CC_3":"NA","HASC_3":"NA","name":"Bekamba-Moissala.city"},
"geometry":{"type": "MultiPolygon","coordinates": [[[[18.0783,8.5655,379.244],[18.0701,8.5813,377.6443],[18.0638,8.5995,374.7173],[18.0573,8.6332,374.3855],[18.0489,8.6605,373.7096],[18.0493,8.7142,371.5462],[18.0525,8.7324,372.1924],[18.0617,8.763,371.0831],[18.0615,8.7851,371.5945],[18.0585,8.7952,370.1831],[18.0518,8.8026,372.9504],[18.0426,8.8094,373.8477],[18.0279,8.8303,372.3184],[18.0265,8.8363,371.8868],[18.0161,8.8301,370.1398],[17.9972,8.8134,368.2682],[17.9938,8.8077,368.1843],[17.9919,8.7951,365.5575],[17.9923,8.7808,372.9802],[17.9866,8.7568,370.308],[17.9745,8.7495,363.4888],[17.9586,8.7349,371.7839],[17.9562,8.7283,372.5276],[17.9546,8.7146,370.677],[17.9555,8.6991,370.5843],[17.9598,8.6758,369.1628],[17.9575,8.664,369.3621],[17.9544,8.6549,369.4931],[17.9367,8.62,371.4534],[17.9154,8.5853,371.8],[17.9101,8.5727,371.0518],[17.8758,8.5111,375.998],[17.8832,8.5136,372.7413],[17.8902,8.5033,376.015],[17.8793,8.4929,371.6198],[17.8554,8.481,376.5855],[17.8142,8.4648,383.0436],[17.8043,8.4419,384.084],[17.7978,8.406,381.1909],[17.8158,8.3949,380.3531],[17.8291,8.3894,378.8988],[17.8587,8.3833,377.6065],[17.8815,8.3728,382.7046],[17.8916,8.3718,387.5728],[17.9089,8.3757,387.3888],[17.9108,8.3821,386.0496],[17.9162,8.3897,375.5837],[17.9252,8.4002,384.7395],[17.9431,8.4158,387.7773],[17.9582,8.4359,380.0055],[17.9577,8.4582,373.7143],[17.9603,8.4673,375.8147],[17.9678,8.4823,374.6601],[17.9876,8.4912,375.5551],[17.9953,8.4965,375.4791],[18.0076,8.5009,379.1859],[18.0177,8.5081,379.4542],[18.0314,8.5116,380.3077],[18.0473,8.52,380.0608],[18.0689,8.5431,384.8686],[18.0699,8.5481,380.7288],[18.0783,8.5655,379.244]]]]}}