{"type":"Feature","properties":{"GID_3":"TCD.18.1.1_1","GID_0":"TCD","country":"Chad","GID_1":"TCD.18_1","province":"Salamat","NL_NAME_1":"NA","GID_2":"TCD.18.1_1","county":"Aboudeïa","NL_NAME_2":"NA","city":"Autochtone","VARNAME_3":"NA","NL_NAME_3":"NA","TYPE_3":"Sub-prefecture","ENGTYPE_3":"Sub-prefecture","CC_3":"NA","HASC_3":"NA","name":"Autochtone.city"},
"geometry":{"type": "MultiPolygon","coordinates": [[[[18.902,11.331,444.3339],[18.967,11.313,444.1942],[19.001,11.273,439.4542],[19.056,11.245,437.6089],[19.0722,11.2389,436.1358],[19.0837,11.2703,453.5228],[19.1042,11.3078,467.7252],[19.13,11.3318,459.1594],[19.149,11.3534,532.943],[19.2445,11.4281,541.0791],[19.2468,11.4593,565.2959],[19.2464,11.4757,544.0717],[19.2511,11.5011,510.5511],[19.2585,11.5278,508.285],[19.2651,11.5437,495.008],[19.2798,11.5617,480.25],[19.325,11.6015,456.3542],[19.3454,11.5957,455.3315],[19.3624,11.5871,455.4492],[19.3768,11.587,458.0198],[19.3889,11.5809,455.4641],[19.4324,11.5738,447.9622],[19.4662,11.6074,441.2682],[19.5214,11.6471,468.7349],[19.5644,11.6676,457.2065],[19.6448,11.6943,447.4113],[19.7113,11.728,448.5052],[19.7495,11.7269,447.8786],[19.7995,11.7415,432.2752],[19.8199,11.7351,424.8678],[19.8839,11.7228,438.0612],[19.9225,11.7337,438.039],[19.9593,11.7377,445.4996],[19.996,11.7488,449.0673],[20.027,11.7811,465.8402],[20.038,11.8027,458.6017],[20.0772,11.8593,480.3649],[20.1024,11.901,458.523],[20.1191,11.9328,456.1414],[20.1328,11.9715,477.9044],[20.1414,11.9995,465.7468],[20.1481,12.0359,448.9471],[20.019,12.027,453.5631],[20.011,11.982,439.2983],[19.97,11.965,441.1681],[19.9211,11.96,452.718],[19.912,12.029,443.866],[19.906,12.04,451.161],[19.751,12.053,467.2791],[19.58,12.083,447.7868],[19.496,12.109,458.2919],[19.465,12.123,465.6407],[19.313,11.982,461.8651],[19.341,11.855,452.2736],[19.256,11.726,465.2962],[19.215,11.638,474.1238],[19.088,11.6,500.8874],[19.055,11.689,509.9269],[18.902,11.692,498.0441],[18.874,11.477,477.4404],[18.883,11.402,471.2256],[18.902,11.331,444.3339]]]]}}