{"type":"Feature","properties":{"GID_3":"TCD.11.3.3_1","GID_0":"TCD","country":"Chad","GID_1":"TCD.11_1","province":"LogoneOccidental","NL_NAME_1":"NA","GID_2":"TCD.11.3_1","county":"Ngourkosso","NL_NAME_2":"NA","city":"Benoye","VARNAME_3":"NA","NL_NAME_3":"NA","TYPE_3":"Sub-prefecture","ENGTYPE_3":"Sub-prefecture","CC_3":"NA","HASC_3":"NA","name":"Benoye.city"},
"geometry":{"type": "MultiPolygon","coordinates": [[[[16.2081,8.8786,517.5581],[16.2832,8.8919,526.6238],[16.3034,8.8718,525.6646],[16.3213,8.8591,522.8636],[16.3437,8.8649,506.2834],[16.3519,8.9258,499.2179],[16.3582,8.9484,479.8188],[16.3877,9.0039,405.9918],[16.4139,9.0293,374.3839],[16.4425,9.0449,366.1585],[16.4639,9.0606,362.8945],[16.4378,9.1005,363.6681],[16.4237,9.0846,366.2],[16.4075,9.0705,366.0927],[16.3885,9.0588,368.5971],[16.3641,9.0505,380.7718],[16.3421,9.0587,390.4625],[16.3262,9.0759,377.0067],[16.3122,9.0832,396.2758],[16.2975,9.0846,411.5445],[16.2732,9.0929,408.79],[16.257,9.0962,400.4186],[16.261,9.0712,385.1838],[16.2713,9.0354,403.0014],[16.2619,9.0043,410.7688],[16.246,8.9766,444.8577],[16.2268,8.9591,484.8116],[16.2057,8.9341,519.0082],[16.209,8.922,534.5343],[16.2105,8.8912,527.04],[16.2081,8.8786,517.5581]]]]}}