{"type":"Feature","properties":{"GID_3":"TCD.7.1.4_1","GID_0":"TCD","country":"Chad","GID_1":"TCD.7_1","province":"Guéra","NL_NAME_1":"NA","GID_2":"TCD.7.1_1","county":"BarhSignaka","NL_NAME_2":"NA","city":"Koffa","VARNAME_3":"NA","NL_NAME_3":"NA","TYPE_3":"Sub-prefecture","ENGTYPE_3":"Sub-prefecture","CC_3":"NA","HASC_3":"NA","name":"Koffa.city"},
"geometry":{"type": "MultiPolygon","coordinates": [[[[18.494,11.723,550.3301],[18.545,11.614,511.4275],[18.591,11.408,470.3335],[18.74,11.38,468.8392],[18.902,11.331,444.3339],[18.883,11.402,471.2256],[18.874,11.477,477.4404],[18.902,11.692,498.0441],[18.825,11.736,516.6088],[18.742,11.743,508.1179],[18.628,11.737,537.3405],[18.494,11.723,550.3301]]]]}}