{"type":"Feature","properties":{"GID_3":"TCD.13.3.9_1","GID_0":"TCD","country":"Chad","GID_1":"TCD.13_1","province":"Mandoul","NL_NAME_1":"NA","GID_2":"TCD.13.3_1","county":"MandoulOriental","NL_NAME_2":"NA","city":"Ngangara","VARNAME_3":"NA","NL_NAME_3":"NA","TYPE_3":"Sub-prefecture","ENGTYPE_3":"Sub-prefecture","CC_3":"NA","HASC_3":"NA","name":"Ngangara.city"},
"geometry":{"type": "MultiPolygon","coordinates": [[[[17.5384,9.1935,371.876],[17.5247,9.2111,373.4356],[17.4836,9.2467,362.8043],[17.4582,9.2548,368.0983],[17.431,9.2572,361.9742],[17.4026,9.2527,367.5554],[17.3685,9.238,368.1662],[17.3693,9.2304,360.375],[17.3669,9.2141,367.0004],[17.3695,9.2007,384.4268],[17.3783,9.1898,384.5923],[17.386,9.1868,383.2774],[17.3922,9.18,385.1884],[17.391,9.1742,389.2323],[17.3799,9.1624,382.7788],[17.3955,9.1286,395.502],[17.3956,9.1214,390.0943],[17.3909,9.1138,391.8489],[17.4056,9.1135,391.1179],[17.4343,9.1174,386.9189],[17.463,9.1165,388.9528],[17.5111,9.1205,415.1846],[17.546,9.128,418.4913],[17.5602,9.1344,410.8063],[17.5553,9.1426,391.024],[17.5466,9.1781,383.8686],[17.5384,9.1935,371.876]]]]}}