{"type": "Feature","bbox": [19.456,12.04,20.082,12.56],"geometry": {"type": "MultiPolygon","coordinates": [[[[19.496,12.109,458.2919],[19.58,12.083,447.7868],[19.751,12.053,467.2791],[19.906,12.04,451.161],[19.889,12.079,445.7538],[19.905,12.118,464.8142],[19.94,12.246,448.3839],[20.001,12.385,466.616],[20.082,12.494,455.7078],[20.045,12.537,449.6351],[19.961,12.56,454.8539],[19.784,12.508,484.2668],[19.691,12.497,472.5173],[19.649,12.515,463.8564],[19.595,12.505,447.2159],[19.553,12.474,432.9182],[19.502,12.407,469.4487],[19.465,12.32,459.1036],[19.456,12.228,462.2914],[19.479,12.198,460.2944],[19.497,12.17,457.8655],[19.493,12.136,466.1024],[19.496,12.109,458.2919]]]]}
,"properties": {"GID_3": "TCD.7.4.4_1","GID_0": "TCD","country": "Chad","GID_1": "TCD.7_1","province": "Guéra","NL_NAME_1": "NA","GID_2": "TCD.7.4_1","county": "Mangalmé","NL_NAME_2": "NA","city": "Moubi-Zarga","VARNAME_3": "NA","NL_NAME_3": "NA","TYPE_3": "Sub-prefecture","ENGTYPE_3": "Sub-prefecture","CC_3": "NA","HASC_3": "NA","name": "Moubi-Zarga.city","area_km2": 2627.125,"hist_schema_id": "Elevation0-9000","hist_area_km2": {"425": 75.223,"450": 1675.678,"475": 693.111,"500": 96.256,"525": 35.455,"550": 21.269,"575": 7.787,"600": 5.737,"625": 4.018,"650": 3.541,"675": 3.065,"700": 2.651,"725": 1.802,"750": 0.766,"775": 0.435,"800": 0.269,"825": 0.041,"850": 0.021}}}