{"type": "Feature","bbox": [20.346,12.659,20.941,12.888],"geometry": {"type": "MultiPolygon","coordinates": [[[[20.764,12.888,497.45],[20.747,12.864,481.2723],[20.707,12.832,465.8365],[20.663,12.816,467.167],[20.626,12.809,464.941],[20.51,12.816,450.7883],[20.478,12.816,453.1013],[20.405,12.802,436.7772],[20.346,12.752,440.8405],[20.402,12.729,448.6381],[20.428,12.71,454.4696],[20.439,12.673,441.8833],[20.462,12.659,450.5276],[20.469,12.685,444.9947],[20.485,12.7,442.7616],[20.537,12.697,443.1288],[20.578,12.71,450.6967],[20.618,12.718,457.3506],[20.745,12.713,469.9461],[20.782,12.683,467.5707],[20.847,12.697,465.5226],[20.932,12.694,471.8859],[20.929,12.752,482.4338],[20.941,12.8,483.9613],[20.915,12.853,510.8358],[20.845,12.866,505.2039],[20.791,12.886,504.9098],[20.764,12.888,497.45]]]]}
,"properties": {"GID_3": "TCD.19.1.4_1","GID_0": "TCD","country": "Chad","GID_1": "TCD.19_1","province": "Sila","NL_NAME_1": "NA","GID_2": "TCD.19.1_1","county": "DjourfAlAhmar","NL_NAME_2": "NA","city": "Dadjo","VARNAME_3": "NA","NL_NAME_3": "NA","TYPE_3": "Sub-prefecture","ENGTYPE_3": "Sub-prefecture","CC_3": "NA","HASC_3": "NA","name": "Dadjo.city","area_km2": 879.1764,"hist_schema_id": "Elevation0-9000","hist_area_km2": {"425": 4.6316,"450": 436.32619999999997,"475": 311.6371,"500": 122.0545,"525": 4.5271}}}