{"type": "Feature","bbox": [16.1762,8.9341,16.2713,9.0962],"geometry": {"type": "MultiPolygon","coordinates": [[[[16.2057,8.9341,519.0082],[16.2268,8.9591,484.8116],[16.246,8.9766,444.8577],[16.2619,9.0043,410.7688],[16.2713,9.0354,403.0014],[16.261,9.0712,385.1838],[16.257,9.0962,400.4186],[16.25,9.0942,401.3558],[16.2329,9.0851,407.7173],[16.2093,9.0622,394.4919],[16.1971,9.0529,404.7049],[16.1853,9.0401,420.9433],[16.1762,9.0174,446.6942],[16.1852,8.9765,496.5606],[16.2057,8.9341,519.0082]]]]}
,"properties": {"GID_3": "TCD.11.3.7_1","GID_0": "TCD","country": "Chad","GID_1": "TCD.11_1","province": "LogoneOccidental","NL_NAME_1": "NA","GID_2": "TCD.11.3_1","county": "Ngourkosso","NL_NAME_2": "NA","city": "Koutoutou","VARNAME_3": "NA","NL_NAME_3": "NA","TYPE_3": "Sub-prefecture","ENGTYPE_3": "Sub-prefecture","CC_3": "NA","HASC_3": "NA","name": "Koutoutou.city","area_km2": 109.7471,"hist_schema_id": "Elevation0-9000","hist_area_km2": {"375": 5.90444,"400": 42.69349,"425": 23.07616,"450": 16.6484,"475": 11.7068,"500": 8.00039,"525": 1.71741}}}