{"type": "Feature","bbox": [18.706,12.687,20.369,15.661],"geometry": {"type": "MultiPolygon","coordinates": [[[[20.358,13.059,423.113],[20.369,13.331,439.2808],[20.364,13.421,442.8461],[20.314,13.529,441.1026],[20.276,13.586,431.6429],[20.267,13.613,436.5262],[20.276,13.671,428.6974],[20.295,13.755,436.8947],[20.268,13.829,429.9197],[20.056,13.956,413.7078],[20.062,14.082,410.3776],[20.044,15.661,395.8506],[20.028,15.572,393.8312],[19.899,15.316,384.1512],[19.804,15.137,378.2955],[19.662,14.929,370.6092],[19.504,14.74,364.6904],[19.372,14.622,360.3961],[18.99,14.215,347.6998],[18.974,14.064,350.9891],[18.943,13.885,348.5945],[18.909,13.674,349.1914],[18.896,13.551,350.7895],[18.846,13.423,349.3728],[18.766,13.331,346.8111],[18.722,13.297,344.9528],[18.714,13.256,343.5564],[18.706,13.229,342.674],[18.736,13.179,344.1618],[18.774,13.163,345.4586],[18.796,13.146,346.895],[18.844,13.115,347.791],[18.868,13.122,349.4478],[18.903,13.114,350.0274],[18.998,13.121,352.0395],[19.031,13.102,359.938],[19.036,13.041,359.363],[19.061,12.996,365.2046],[19.077,12.955,364.6428],[19.088,12.91,361.9207],[19.12,12.881,356.2407],[19.119,12.877,357.3433],[19.121,12.841,367.2593],[19.103,12.694,384.5175],[19.184,12.687,372.9362],[19.2,12.711,381.7095],[19.215,12.713,385.7573],[19.601,12.939,401.1452],[19.777,13.031,421.7097],[19.993,12.957,432.989],[20.045,12.935,452.4562],[20.331,13.001,437.0029],[20.357,13.02,428.6777],[20.358,13.059,423.113]]]]}
,"properties": {"GID_2": "TCD.2.1_1","GID_0": "TCD","country": "Chad","GID_1": "TCD.2_1","province": "Batha","NL_NAME_1": "NA","county": "BathaEst","VARNAME_2": "Oum-Hadjer","NL_NAME_2": "NA","TYPE_2": "Department","ENGTYPE_2": "Department","CC_2": "NA","HASC_2": "TD.BA.BE","name": "Batha_Est.county","area_km2": 28907.07,"hist_schema_id": "Elevation0-9000","hist_area_km2": {"350": 6267.04,"375": 12397.36,"400": 6812.47,"425": 3058.99,"450": 363.38,"475": 2.19,"500": 1.49,"525": 1.63,"550": 1.45,"575": 0.62,"600": 0.33}}}