{"type": "Feature","bbox": [16.5837,7.5298,16.9101,7.8515],"geometry": {"type": "MultiPolygon","coordinates": [[[[16.8223,7.5327,434.2831],[16.8349,7.5328,430.0747],[16.8438,7.5298,441.1007],[16.8508,7.5353,433.9234],[16.8634,7.5363,453.9491],[16.8678,7.5386,455.9801],[16.8699,7.5414,455.2859],[16.8697,7.5515,436.5867],[16.8741,7.5563,426.4317],[16.8836,7.5576,422.5163],[16.8918,7.5509,422.9629],[16.896,7.5502,428.8173],[16.9018,7.5529,432.0869],[16.9101,7.5616,425.6536],[16.9097,7.5662,427.8003],[16.9074,7.5694,420.7764],[16.8991,7.5713,428.9196],[16.8956,7.5745,417.8129],[16.8957,7.5791,431.5609],[16.9045,7.5919,428.9416],[16.9057,7.5972,434.833],[16.8981,7.6103,421.0854],[16.8743,7.6368,429.9877],[16.8661,7.6496,447.3542],[16.8499,7.6806,455.1745],[16.8429,7.6981,459.5135],[16.8324,7.7386,468.0565],[16.8309,7.7574,485.1933],[16.8224,7.7898,503.0507],[16.7936,7.7982,456.8549],[16.7621,7.8023,499.2115],[16.7218,7.8276,490.0837],[16.6901,7.8351,484.3848],[16.6681,7.8304,444.4047],[16.6523,7.835,432.0408],[16.6248,7.8399,432.9276],[16.5868,7.8515,430.1184],[16.5856,7.8378,425.2957],[16.5837,7.8339,414.6983],[16.5913,7.8251,431.0306],[16.5914,7.812,426.9368],[16.5979,7.8049,429.9077],[16.5981,7.7982,429.0693],[16.5953,7.793,430.0415],[16.5968,7.7748,435.1271],[16.5945,7.7689,430.5433],[16.6124,7.7582,432.9352],[16.6177,7.7587,446.4274],[16.6271,7.7628,429.8168],[16.6313,7.7623,433.6475],[16.6384,7.7581,427.707],[16.6497,7.7482,440.2368],[16.668,7.7382,440.3927],[16.6703,7.7297,439.9279],[16.6654,7.7093,457.7252],[16.6667,7.6939,467.8947],[16.6657,7.6756,470.3079],[16.6672,7.6687,467.0976],[16.6725,7.665,469.2183],[16.6792,7.6632999999999996,477.3585],[16.6851,7.6532,475.3532],[16.6902,7.6509,491.1848],[16.7268,7.6502,474.0009],[16.7337,7.6426,476.5468],[16.7357,7.6366,463.599],[16.7387,7.6332,466.3081],[16.7481,7.6285,464.491],[16.7515,7.6223,456.5767],[16.7619,7.6172,453.0625],[16.7747,7.6066,451.71],[16.7939,7.5854,444.5245],[16.7976,7.5773,452.7002],[16.7964,7.5617,441.348],[16.8007,7.5557,431.9906],[16.8097,7.5502,444.9704],[16.8112,7.5407,439.3097],[16.8149,7.5357,424.5129],[16.8223,7.5327,434.2831]]]]}
,"properties": {"GID_3": "TCD.12.3.6_1","GID_0": "TCD","country": "Chad","GID_1": "TCD.12_1","province": "LogoneOriental","NL_NAME_1": "NA","GID_2": "TCD.12.3_1","county": "NyaPendé","NL_NAME_2": "NA","city": "Kaba-Roangar","VARNAME_3": "NA","NL_NAME_3": "NA","TYPE_3": "Sub-prefecture","ENGTYPE_3": "Sub-prefecture","CC_3": "NA","HASC_3": "NA","name": "Kaba-Roangar.city","area_km2": 572.5036,"hist_schema_id": "Elevation0-9000","hist_area_km2": {"400": 0.3573,"425": 71.9699,"450": 202.5315,"475": 180.6914,"500": 82.6058,"525": 33.8016,"550": 0.5462}}}