{"type":"Feature","properties":{"GID_3":"TCD.11.3.6_1","GID_0":"TCD","country":"Chad","GID_1":"TCD.11_1","province":"LogoneOccidental","NL_NAME_1":"NA","GID_2":"TCD.11.3_1","county":"Ngourkosso","NL_NAME_2":"NA","city":"Gore-Loc","VARNAME_3":"NA","NL_NAME_3":"NA","TYPE_3":"Sub-prefecture","ENGTYPE_3":"Sub-prefecture","CC_3":"NA","HASC_3":"NA","name":"Gore-Loc.city"},
"geometry":{"type": "MultiPolygon","coordinates": [[[[16.428,8.8956,471.7104],[16.4428,8.8691,482.7208],[16.4765,8.8314,447.2295],[16.4986,8.8003,420.6812],[16.519,8.8106,418.7348],[16.534,8.8214,421.458],[16.5508,8.8303,418.4378],[16.558,8.83,413.9657],[16.574,8.874,397.8556],[16.594,8.899,371.2922],[16.587,8.925,370.539],[16.574,8.937,369.7752],[16.567,8.959,369.246],[16.545,8.951,376.6483],[16.538,8.966,373.2346],[16.533,8.989,367.8985],[16.504,8.995,372.7166],[16.486,9.028,368.0943],[16.4639,9.0606,362.8945],[16.4425,9.0449,366.1585],[16.4555,8.9888,383.6212],[16.4559,8.9761,395.6511],[16.4506,8.9616,413.0706],[16.4506,8.9539,422.1801],[16.4374,8.9239,451.8876],[16.428,8.8956,471.7104]]]]}}