{"type": "Feature","bbox": [15.4248,9.7798,15.7655,9.9933],"geometry": {"type": "MultiPolygon","coordinates": [[[[15.4248,9.9369,336.1317],[15.435,9.9333,335.146],[15.4879,9.938,334.5981],[15.5218,9.95,334.3944],[15.5102,9.9128,335.2517],[15.4991,9.8897,335.8669],[15.4965,9.864,332.6651],[15.5083,9.8565,333.3912],[15.5248,9.869,335.6758],[15.5376,9.8829,335.5978],[15.555,9.8908,335.9237],[15.5683,9.8901,336.3212],[15.5654,9.8737,336.9689],[15.5476,9.8392,334.0679],[15.5251,9.8054,334.3021],[15.5147,9.7966,332.8655],[15.5255,9.7913,333.8113],[15.5384,9.788,333.2453],[15.5508,9.7818,333.5296],[15.5653,9.7827,333.9818],[15.5807,9.7798,334.359],[15.6238,9.7851,336.0833],[15.6372,9.7881,336.4828],[15.655,9.7866,337.1435],[15.6838,9.7975,337.9337],[15.7006,9.8007,338.8094],[15.7249,9.816,338.7702],[15.7419,9.8355,338.9403],[15.7537,9.8414,338.4355],[15.7655,9.8526,338.4025],[15.7485,9.8688,338.7277],[15.7366,9.8772,337.6997],[15.7163,9.8954,337.0102],[15.6914,9.9293,336.2075],[15.6637,9.9632,334.5179],[15.6581,9.9762,334.4301],[15.6837,9.9851,333.8017],[15.6812,9.9933,334.4968],[15.5278,9.9547,335.1746],[15.4248,9.9369,336.1317]]]]}
,"properties": {"GID_3": "TCD.14.3.2_1","GID_0": "TCD","country": "Chad","GID_1": "TCD.14_1","province": "Mayo-KebbiEst","NL_NAME_1": "NA","GID_2": "TCD.14.3_1","county": "MontIlli","NL_NAME_2": "NA","city": "Gami","VARNAME_3": "NA","NL_NAME_3": "NA","TYPE_3": "Sub-prefecture","ENGTYPE_3": "Sub-prefecture","CC_3": "NA","HASC_3": "NA","name": "Gami.city","area_km2": 431.6067,"hist_schema_id": "Elevation0-9000","hist_area_km2": {"325": 336.3074,"350": 95.2993}}}