{"type":"Feature","properties":{"GID_3":"TCD.7.3.6_1","GID_0":"TCD","country":"Chad","GID_1":"TCD.7_1","province":"Guéra","NL_NAME_1":"NA","GID_2":"TCD.7.3_1","county":"Guéra","NL_NAME_2":"NA","city":"Mousmare","VARNAME_3":"NA","NL_NAME_3":"NA","TYPE_3":"Sub-prefecture","ENGTYPE_3":"Sub-prefecture","CC_3":"NA","HASC_3":"NA","name":"Mousmare.city"},
"geometry":{"type": "MultiPolygon","coordinates": [[[[17.327,10.574,340.9664],[17.383,10.537,341.739],[17.449,10.522,342.6501],[17.543,10.451,350.8359],[17.725,10.477,351.2595],[17.72,10.559,352.884],[17.732,10.576,351.8949],[17.743,10.63,351.9298],[17.764,10.678,351.9246],[17.802,10.721,355.0424],[17.829,10.745,355.6454],[17.852,10.771,363.443],[17.83,10.842,355.1183],[17.815,10.862,355.5068],[17.806,10.881,357.3281],[17.821,10.915,360.6956],[17.8509,11.0695,482.4724],[17.812,11.0724,382.8799],[17.773,11.0883,377.6277],[17.752,11.12,383.8873],[17.758,11.159,383.6016],[17.755,11.194,391.8722],[17.749,11.223,507.9468],[17.719,11.21,376.6706],[17.662,11.194,369.3302],[17.625,11.192,348.2172],[17.59,11.231,348.1677],[17.548,11.26,347.2093],[17.548,11.223,345.2467],[17.56,11.148,340.882],[17.54,11.076,343.2578],[17.499,10.997,341.4781],[17.457,10.932,340.8443],[17.429,10.904,343.6916],[17.406,10.834,342.5201],[17.363,10.795,342.2492],[17.352,10.671,341.8769],[17.327,10.574,340.9664]]]]}}