{"type":"Feature","properties":{"GID_2":"TCD.4.1_1","GID_0":"TCD","country":"Chad","GID_1":"TCD.4_1","province":"Chari-Baguirmi","NL_NAME_1":"NA","county":"Baguirmi","VARNAME_2":"Massenya","NL_NAME_2":"NA","TYPE_2":"Department","ENGTYPE_2":"Department","CC_2":"NA","HASC_2":"TD.CG.BA","name":"Baguirmi.county"},
"geometry":{"type": "MultiPolygon","coordinates": [[[[16.812,11.823,325.9713],[16.797,11.874,325.781],[16.79,11.904,317.8187],[16.744,11.932,318.2285],[16.708,11.995,316.1006],[16.725,12.133,308.4584],[16.695,12.198,303.9737],[16.666,12.229,301.8358],[16.493,12.296,296.2957],[16.45,12.305,295.1011],[16.302,12.354,293.8242],[16.09,12.432,292.7798],[16.048,12.382,293.9361],[15.976,12.338,294.7421],[15.831,12.343,294.2556],[15.684,12.338,293.4362],[15.564,12.273,293.4708],[15.506,12.222,294.2401],[15.458,12.176,294.0763],[15.429,12.119,294.8395],[15.418,12.064,294.059],[15.403,12.006,296.1461],[15.4,11.938,296.3771],[15.443,11.872,296.077],[15.465,11.814,298.5034],[15.449,11.759,299.3731],[15.421,11.727,299.0824],[15.3761,11.731,299.3842],[15.4081,11.6691,300.255],[15.4291,11.6021,302.4788],[15.3821,11.4871,304.4045],[15.3691,11.3991,296.7455],[15.3831,11.3741,301.599],[15.3971,11.3551,296.5],[15.4121,11.3081,300.9598],[15.4231,11.2821,297.0],[15.3901,11.2291,298.0282],[15.408,11.181,298.0],[15.421,11.114,301.1137],[15.438,11.061,306.764],[15.475,11.022,306.9132],[15.505,11.006,314.3303],[15.527,10.981,304.3098],[15.539,10.967,308.5309],[15.544,10.94,306.0294],[15.613,10.902,304.4703],[15.649,10.899,318.3393],[15.673,10.879,310.0078],[15.697,10.867,309.1096],[15.745,10.825,307.319],[15.84,10.795,310.9168],[15.872,10.79,313.5784],[15.907,10.778,313.1072],[15.996,10.779,310.0],[16.048,10.752,315.7698],[16.039,10.833,325.5534],[16.061,10.897,327.458],[16.096,10.914,327.3732],[16.348,10.949,331.3894],[16.459,10.996,330.9681],[16.627,11.032,333.1365],[16.711,11.054,330.3153],[16.856,11.075,334.5632],[16.992,11.101,333.3042],[17.033,11.065,333.6229],[17.1,11.013,331.5404],[17.122,10.977,335.3913],[17.147,10.836,337.9899],[17.134,10.775,337.8233],[17.152,10.721,340.5937],[17.189,10.681,340.6505],[17.214,10.683,339.087],[17.241,10.654,339.6277],[17.254,10.599,338.9249],[17.277,10.587,341.7987],[17.294,10.599,341.9048],[17.327,10.574,340.9664],[17.352,10.671,341.8769],[17.363,10.795,342.2492],[17.36,10.935,337.9415],[17.345,11.029,339.2904],[17.329,11.075,337.7805],[17.305,11.23,336.3217],[17.311,11.304,335.3646],[17.315,11.324,335.8187],[17.335,11.472,334.7028],[17.139,11.566,329.0067],[17.088,11.627,328.0098],[17.019,11.668,327.9125],[16.906,11.684,326.8196],[16.858,11.676,327.1664],[16.826,11.726,327.0421],[16.812,11.823,325.9713]]]]}}