{"type":"Feature","properties":{"GID_3":"TCD.19.1.6_1","GID_0":"TCD","country":"Chad","GID_1":"TCD.19_1","province":"Sila","NL_NAME_1":"NA","GID_2":"TCD.19.1_1","county":"DjourfAlAhmar","NL_NAME_2":"NA","city":"Massalat-Am-Dam","VARNAME_3":"NA","NL_NAME_3":"NA","TYPE_3":"Sub-prefecture","ENGTYPE_3":"Sub-prefecture","CC_3":"NA","HASC_3":"NA","name":"Massalat-Am-Dam.city"},
"geometry":{"type": "MultiPolygon","coordinates": [[[[20.045,12.935,452.4562],[20.117,12.882,448.8032],[20.163,12.838,435.1052],[20.23,12.8,434.8976],[20.244,12.764,450.2167],[20.288,12.739,449.8344],[20.322,12.731,433.6096],[20.405,12.802,436.7772],[20.478,12.816,453.1013],[20.51,12.816,450.7883],[20.626,12.809,464.941],[20.663,12.816,467.167],[20.707,12.832,465.8365],[20.747,12.864,481.2723],[20.764,12.888,497.45],[20.773,12.932,479.8849],[20.763,12.978,485.1526],[20.763,13.017,486.0927],[20.662,13.009,480.5301],[20.613,13.009,463.9875],[20.54,13.012,447.2365],[20.447,13.029,452.5233],[20.358,13.059,423.113],[20.357,13.02,428.6777],[20.331,13.001,437.0029],[20.045,12.935,452.4562]]]]}}