{"type": "Feature","bbox": [19.103,12.687,19.601,13.17],"geometry": {"type": "MultiPolygon","coordinates": [[[[19.119,12.877,357.3433],[19.121,12.841,367.2593],[19.103,12.694,384.5175],[19.184,12.687,372.9362],[19.2,12.711,381.7095],[19.215,12.713,385.7573],[19.601,12.939,401.1452],[19.592,12.993,398.6874],[19.574,13.01,385.1334],[19.555,13.034,378.7584],[19.566,13.075,391.4948],[19.575,13.152,380.4956],[19.555,13.17,374.0272],[19.498,13.147,379.2819],[19.439,13.098,385.1725],[19.352,13.05,373.1964],[19.213,12.932,363.6143],[19.158,12.911,360.2298],[19.119,12.877,357.3433]]]]}
,"properties": {"GID_3": "TCD.2.1.4_1","GID_0": "TCD","country": "Chad","GID_1": "TCD.2_1","province": "Batha","NL_NAME_1": "NA","GID_2": "TCD.2.1_1","county": "BathaEst","NL_NAME_2": "NA","city": "Mesmedje","VARNAME_3": "NA","NL_NAME_3": "NA","TYPE_3": "Sub-prefecture","ENGTYPE_3": "Sub-prefecture","CC_3": "NA","HASC_3": "NA","name": "Mesmedje.city","area_km2": 1351.968,"hist_schema_id": "Elevation0-9000","hist_area_km2": {"350": 64.895,"375": 904.11,"400": 352.046,"425": 19.88,"450": 3.699,"475": 1.819,"500": 1.426,"525": 1.571,"550": 1.447,"575": 0.62,"600": 0.331,"625": 0.062,"650": 0.041,"675": 0.021}}}