{"type":"Feature","properties":{"GID_3":"TCD.7.2.5_1","GID_0":"TCD","country":"Chad","GID_1":"TCD.7_1","province":"Guéra","NL_NAME_1":"NA","GID_2":"TCD.7.2_1","county":"Bitkine","NL_NAME_2":"NA","city":"Sara-Arabe","VARNAME_3":"NA","NL_NAME_3":"NA","TYPE_3":"Sub-prefecture","ENGTYPE_3":"Sub-prefecture","CC_3":"NA","HASC_3":"NA","name":"Sara-Arabe.city"},
"geometry":{"type": "MultiPolygon","coordinates": [[[[18.472,12.188,521.7495],[18.383,12.166,483.5716],[18.369,12.106,447.2509],[18.313,12.075,445.749],[18.294,12.057,460.1146],[18.292,12.016,488.5721],[18.297,11.946,542.4399],[18.28,11.913,520.0594],[18.344,11.906,548.5538],[18.391,11.885,526.0739],[18.444,11.88,518.3581],[18.526,11.911,484.0598],[18.619,11.971,492.056],[18.659,12.064,448.2032],[18.641,12.12,426.6216],[18.583,12.175,401.4771],[18.522,12.178,430.6861],[18.472,12.188,521.7495]]]]}}