{"type": "Feature","bbox": [21.558,14.06,21.878,14.434],"geometry": {"type": "MultiPolygon","coordinates": [[[[21.778,14.06,872.8749],[21.795,14.137,898.5742],[21.815,14.186,889.0724],[21.853,14.241,907.6187],[21.878,14.332,1003.2552],[21.867,14.391,1017.8743],[21.833,14.393,1003.9409],[21.796,14.4,984.2213],[21.739,14.432,963.063],[21.69,14.434,947.579],[21.661,14.355,967.9164],[21.644,14.283,855.8878],[21.6,14.247,834.5936],[21.578,14.22,831.0787],[21.558,14.171,837.8599],[21.585,14.099,868.1184],[21.671,14.092,908.6443],[21.778,14.06,872.8749]]]]}
,"properties": {"GID_3": "TCD.23.2.5_1","GID_0": "TCD","country": "Chad","GID_1": "TCD.23_1","province": "WadiFira","NL_NAME_1": "NA","GID_2": "TCD.23.2_1","county": "DarTama","NL_NAME_2": "NA","city": "Gnere","VARNAME_3": "NA","NL_NAME_3": "NA","TYPE_3": "Sub-prefecture","ENGTYPE_3": "Sub-prefecture","CC_3": "NA","HASC_3": "NA","name": "Gnere.city","area_km2": 890.2776,"hist_schema_id": "Elevation0-9000","hist_area_km2": {"800": 7.2571,"825": 65.4706,"850": 186.1032,"875": 213.8764,"900": 137.8457,"925": 51.3439,"950": 60.4516,"975": 87.5991,"1000": 55.0866,"1025": 17.6638,"1050": 2.9373,"1075": 1.8281,"1100": 1.027,"1125": 0.6162,"1150": 0.3492,"1175": 0.2465,"1200": 0.1438,"1225": 0.226,"1250": 0.1027,"1275": 0.1027}}}