{"type": "Feature","bbox": [16.039,9.826,17.543,11.101],"geometry": {"type": "MultiPolygon","coordinates": [[[[17.449,10.522,342.6501],[17.383,10.537,341.739],[17.327,10.574,340.9664],[17.294,10.599,341.9048],[17.277,10.587,341.7987],[17.254,10.599,338.9249],[17.241,10.654,339.6277],[17.214,10.683,339.087],[17.189,10.681,340.6505],[17.152,10.721,340.5937],[17.134,10.775,337.8233],[17.147,10.836,337.9899],[17.122,10.977,335.3913],[17.1,11.013,331.5404],[17.033,11.065,333.6229],[16.992,11.101,333.3042],[16.856,11.075,334.5632],[16.711,11.054,330.3153],[16.627,11.032,333.1365],[16.459,10.996,330.9681],[16.348,10.949,331.3894],[16.096,10.914,327.3732],[16.061,10.897,327.458],[16.039,10.833,325.5534],[16.048,10.752,315.7698],[16.117,10.767,314.739],[16.14,10.74,327.4049],[16.149,10.707,327.5834],[16.121,10.465,327.9976],[16.123,10.382,330.0661],[16.129,10.314,330.921],[16.152,10.282,331.9988],[16.174,10.265,332.9229],[16.1939,10.2092,334.0323],[16.23,10.202,337.0044],[16.483,10.2,337.5361],[16.584,10.265,333.5002],[16.602,10.236,333.7292],[16.623,10.234,333.2465],[16.617,10.193,330.7089],[16.619,10.171,331.1797],[16.626,10.146,331.8474],[16.639,10.134,335.8983],[16.648,10.117,334.3327],[16.646,10.095,335.7249],[16.662,10.071,331.3207],[16.69,10.067,335.1111],[16.713,10.066,335.698],[16.738,10.053,336.2613],[16.746,10.034,336.9871],[16.768,10.031,335.0215],[16.776,10.01,336.5892],[16.81,10.014,335.6171],[16.897,9.99,340.8295],[16.929,9.971,340.1117],[16.942,9.945,340.0063],[16.974,9.949,339.481],[17.04,9.945,341.1867],[17.098,9.931,339.2692],[17.164,9.92,343.3952],[17.188,9.871,342.9179],[17.256,9.84,347.0449],[17.322,9.827,349.4396],[17.381,9.826,347.7145],[17.489,10.172,345.8617],[17.543,10.451,350.8359],[17.449,10.522,342.6501]]]]}
,"properties": {"GID_2": "TCD.4.2_1","GID_0": "TCD","country": "Chad","GID_1": "TCD.4_1","province": "Chari-Baguirmi","NL_NAME_1": "NA","county": "LougChari","VARNAME_2": "Bousso","NL_NAME_2": "NA","TYPE_2": "Department","ENGTYPE_2": "Department","CC_2": "NA","HASC_2": "TD.CG.LC","name": "Loug_Chari.county","area_km2": 14361.69,"hist_schema_id": "Elevation0-9000","hist_area_km2": {"300": 3.27,"325": 8558.11,"350": 5800.31}}}