{"type": "Feature","bbox": [20.043,14.039,21.672,15.935],"geometry": {"type": "MultiPolygon","coordinates": [[[[21.253,14.039,753.5449],[21.314,14.068,768.5224],[21.382,14.111,780.2016],[21.437,14.126,764.2476],[21.433,14.25,846.8389],[21.444,14.33,894.6216],[21.478,14.44,905.164],[21.508,14.555,836.04],[21.502,14.629,659.3231],[21.494,14.672,711.488],[21.469,14.718,658.7634],[21.438,14.74,594.3723],[21.391,14.787,610.7646],[21.322,14.834,611.61],[21.241,14.876,552.3905],[21.157,14.889,602.5052],[21.082,14.915,504.8307],[21.006,14.917,484.9277],[21.009,14.974,491.4232],[21.026,15.039,556.4601],[21.104,15.114,507.1852],[21.188,15.176,518.2006],[21.252,15.177,523.7397],[21.321,15.189,584.4537],[21.368,15.219,590.9688],[21.402,15.244,581.7827],[21.443,15.294,563.1599],[21.492,15.379,585.0834],[21.532,15.453,581.0582],[21.564,15.537,575.7991],[21.57,15.626,565.2358],[21.593,15.733,573.2524],[21.634,15.819,589.6953],[21.672,15.931,608.6798],[21.4931,15.898,618.0677],[21.4221,15.8711,547.5993],[21.359,15.8581,529.2275],[21.276,15.874,509.2696],[21.211,15.914,522.9667],[21.171,15.922,508.7229],[21.134,15.935,504.6588],[21.109,15.926,499.5798],[21.081,15.904,490.9867],[21.036,15.879,484.8114],[21.009,15.876,476.3002],[20.982,15.854,484.8575],[20.958,15.825,481.2161],[20.9221,15.7921,478.4144],[20.8681,15.7581,474.9348],[20.8341,15.7441,467.7765],[20.7921,15.7381,463.3744],[20.709,15.679,444.9107],[20.658,15.639,430.84],[20.602,15.618,428.2954],[20.549,15.628,426.6444],[20.497,15.655,420.9565],[20.399,15.64,412.6974],[20.319,15.617,409.7734],[20.251,15.63,404.9103],[20.112,15.719,397.2021],[20.043,15.742,393.0444],[20.062,14.082,410.3776],[20.136,14.158,400.1253],[20.21,14.26,403.6921],[20.241,14.299,408.8739],[20.288,14.325,414.4367],[20.357,14.386,425.7029],[20.486,14.376,436.6702],[20.533,14.398,449.0348],[20.606,14.414,458.6089],[20.662,14.395,465.7358],[20.718,14.379,476.427],[20.767,14.367,483.1189],[20.846,14.32,511.6616],[20.923,14.25,558.4091],[20.962,14.197,601.5369],[21.005,14.153,662.5126],[21.032,14.142,695.3797],[21.084,14.139,682.8083],[21.108,14.129,654.3206],[21.142,14.096,732.6277],[21.174,14.044,735.5714],[21.253,14.039,753.5449]]]]}
,"properties": {"GID_2": "TCD.23.1_1","GID_0": "TCD","country": "Chad","GID_1": "TCD.23_1","province": "WadiFira","NL_NAME_1": "NA","county": "Biltine","VARNAME_2": "NA","NL_NAME_2": "NA","TYPE_2": "Department","ENGTYPE_2": "Department","CC_2": "NA","HASC_2": "TD.BI.BL","name": "Biltine.county","area_km2": 24552.84,"hist_schema_id": "Elevation0-9000","hist_area_km2": {"400": 3540.8,"425": 4297.81,"450": 3253.82,"475": 3349.03,"500": 2564.17,"525": 1703.3,"550": 1308.83,"575": 850.68,"600": 524.84,"625": 393.99,"650": 284.59,"675": 253.99,"700": 245.09,"725": 245.38,"750": 279.9,"775": 328.27,"800": 291.42,"825": 257.58,"850": 222.98,"875": 155.23,"900": 107.06,"925": 67.87,"950": 21.03,"975": 4.64,"1000": 0.35}}}