{"type":"Feature","properties":{"GID_2":"TCD.7.1_1","GID_0":"TCD","country":"Chad","GID_1":"TCD.7_1","province":"Guéra","NL_NAME_1":"NA","county":"BarhSignaka","VARNAME_2":"Mongo","NL_NAME_2":"NA","TYPE_2":"Department","ENGTYPE_2":"Department","CC_2":"NA","HASC_2":"TD.GR.BS","name":"Barh_Signaka.county"},
"geometry":{"type": "MultiPolygon","coordinates": [[[[18.883,11.402,471.2256],[18.874,11.477,477.4404],[18.902,11.692,498.0441],[18.915,11.754,522.4895],[18.967,11.852,526.885],[19.061,11.937,500.901],[19.147,12.023,484.4825],[19.181,12.076,474.2282],[19.18,12.164,431.0522],[19.118,12.337,404.9278],[19.101,12.434,393.703],[19.09,12.562,387.7583],[19.103,12.694,384.5175],[18.99,12.689,409.2924],[18.501,12.693,354.9444],[18.475,12.692,350.2663],[18.33,12.618,355.2905],[18.368,12.542,364.8858],[18.442,12.422,370.6194],[18.489,12.278,388.864],[18.472,12.188,521.7495],[18.522,12.178,430.6861],[18.583,12.175,401.4771],[18.641,12.12,426.6216],[18.659,12.064,448.2032],[18.619,11.971,492.056],[18.526,11.911,484.0598],[18.444,11.88,518.3581],[18.473,11.776,553.3361],[18.494,11.723,550.3301],[18.545,11.614,511.4275],[18.591,11.408,470.3335],[18.74,11.38,468.8392],[18.902,11.331,444.3339],[18.883,11.402,471.2256]]]]}}