{"type":"Feature","properties":{"GID_3":"TCD.13.2.5_1","GID_0":"TCD","country":"Chad","GID_1":"TCD.13_1","province":"Mandoul","NL_NAME_1":"NA","GID_2":"TCD.13.2_1","county":"MandoulOccidental","NL_NAME_2":"NA","city":"Nderguigui","VARNAME_3":"NA","NL_NAME_3":"NA","TYPE_3":"Sub-prefecture","ENGTYPE_3":"Sub-prefecture","CC_3":"NA","HASC_3":"NA","name":"Nderguigui.city"},
"geometry":{"type": "MultiPolygon","coordinates": [[[[17.046,8.631,385.2645],[17.1002,8.6509,383.5357],[17.1454,8.6721,377.1091],[17.1711,8.6805,378.9142],[17.1948,8.685,378.3448],[17.2044,8.6906,380.476],[17.2192,8.695,380.285],[17.226,8.7186,382.0195],[17.2286,8.7343,382.1841],[17.2315,8.7811,379.9545],[17.237,8.816,380.756],[17.2384,8.8485,380.1915],[17.241,8.8665,380.9999],[17.2442,8.8792,377.2685],[17.2547,8.9062,378.7637],[17.2349,8.9059,380.4203],[17.2137,8.91,382.2429],[17.1996,8.9178,380.9294],[17.1841,8.9222,380.0657],[17.1511,8.9224,377.2905],[17.152,8.885,378.4353],[17.142,8.762,382.3062],[17.046,8.631,385.2645]]]]}}