{"type": "Feature","bbox": [17.108,7.8035,18.214,8.959],"geometry": {"type": "MultiPolygon","coordinates": [[[[17.7034,7.9695,387.813],[17.7073,7.9702,389.2217],[17.7131,7.9775,379.5706],[17.7163,7.9786,379.5091],[17.7332,7.9784,379.049],[17.7724,7.9735,405.2224],[17.7975,7.9722,409.375],[17.8475,7.9652,401.7767],[17.9216,7.9586,402.8167],[17.9306,7.9594,397.6016],[17.9449,7.9628,405.1563],[17.9956,7.9928,408.5222],[18.0,7.9859,408.0642],[18.032,8.0093,403.3239],[18.0467,8.0112,406.8039],[18.1641,8.0147,411.9457],[18.214,8.0194,410.2974],[18.2038,8.0576,406.2324],[18.1952,8.0781,404.8486],[18.1909,8.1097,404.2099],[18.1698,8.2083,397.144],[18.1663,8.2526,396.5403],[18.1775,8.2972,398.2232],[18.1779,8.3398,391.7805],[18.1678,8.3778,383.2018],[18.1551,8.3945,386.1852],[18.1443,8.4162,385.745],[18.1279,8.4688,387.2654],[18.1265,8.513,383.3508],[18.1231,8.5301,377.5259],[18.1169,8.5459,379.5455],[18.1104,8.5533,380.5299],[18.1025,8.5526,382.355],[18.0944,8.5601,381.172],[18.0783,8.5655,379.244],[18.0701,8.5813,377.6443],[18.0638,8.5995,374.7173],[18.0573,8.6332,374.3855],[18.0489,8.6605,373.7096],[18.0493,8.7142,371.5462],[18.0525,8.7324,372.1924],[18.0617,8.763,371.0831],[18.0615,8.7851,371.5945],[18.0585,8.7952,370.1831],[18.0518,8.8026,372.9504],[18.0426,8.8094,373.8477],[18.0279,8.8303,372.3184],[18.0248,8.8406,371.6107],[18.019,8.844,370.9634],[18.0097,8.8737,370.9355],[18.0087,8.8837,370.0268],[18.0038,8.8931,371.1572],[17.9977,8.9171,366.1687],[17.9958,8.959,367.0868],[17.9852,8.9517,359.7347],[17.9704,8.9472,366.4111],[17.9595,8.9366,367.8078],[17.9507,8.9308,367.2175],[17.9249,8.925,364.5008],[17.9207,8.9111,368.3295],[17.906,8.9099,368.3228],[17.8884,8.9123,363.174],[17.8744,8.9089,365.0014],[17.8667,8.9046,363.523],[17.8651,8.8958,369.9879],[17.8652,8.8823,371.3265],[17.8405,8.8813,364.638],[17.8324,8.8754,364.1112],[17.8247,8.8725,364.4457],[17.8179,8.873,364.5213],[17.8006,8.8625,364.6326],[17.7947,8.8506,364.8865],[17.7849,8.8371,364.2828],[17.7539,8.8048,364.0621],[17.7465,8.8021,364.2256],[17.7356,8.8016,364.349],[17.7238,8.7934,364.7584],[17.7204,8.7872,364.8126],[17.7115,8.7815,365.3936],[17.7013,8.7844,364.7629],[17.6886,8.7835,364.7845],[17.667,8.7743,365.8099],[17.6558,8.7735,366.3313],[17.6526,8.7499,364.2115],[17.6371,8.7249,364.0713],[17.5838,8.6656,365.2759],[17.5654,8.6491,365.0986],[17.5447,8.6351,366.3029],[17.5143,8.6174,366.2829],[17.4956,8.6122,366.4849],[17.4881,8.5955,366.7959],[17.4707,8.5673,368.1105],[17.4597,8.5574,372.8497],[17.4216,8.5394,369.4437],[17.4019,8.5246,371.0307],[17.3881,8.5014,369.9806],[17.3738,8.4648,370.9238],[17.3669,8.4401,371.0521],[17.3542,8.4064,380.5475],[17.3456,8.3911,378.5193],[17.3341,8.3564,375.1342],[17.3283,8.3461,375.9285],[17.318,8.3164,381.6139],[17.3105,8.3129,381.7901],[17.3053,8.3085,380.8216],[17.295,8.296,378.5481],[17.213,8.157,380.1679],[17.156,8.146,388.7861],[17.108,8.131,393.5346],[17.2839,7.8035,402.2545],[17.301,7.8055,399.2929],[17.3042,7.8094,399.1029],[17.3034,7.8174,400.2716],[17.3045,7.8236,400.7129],[17.3087,7.8277,395.1078],[17.3147,7.8284,391.5564],[17.328,7.821,399.6955],[17.3328,7.8205,400.2615],[17.3358,7.8223,401.3826],[17.3412,7.8374,391.3479],[17.3454,7.8411,391.8109],[17.3592,7.8403,399.5441],[17.3652,7.8488,389.9378],[17.3687,7.8496,390.7848],[17.3763,7.8466,391.0416],[17.3936,7.8509,390.2219],[17.3984,7.8437,390.1263],[17.403,7.843,407.0503],[17.4049,7.8474,403.4744],[17.4035,7.8524,400.6407],[17.4044,7.8579,396.0219],[17.4089,7.8662,388.9843],[17.4119,7.8666,388.3701],[17.4153,7.8613,403.8821],[17.4236,7.8585,407.6741],[17.4243,7.8631,398.9565],[17.4193,7.8682,389.2159],[17.4181,7.8714,389.6133],[17.4211,7.8755,388.3406],[17.4331,7.8773,389.1638],[17.4356,7.8756,388.9219],[17.4388,7.8676,396.9483],[17.4411,7.866,399.205],[17.4457,7.8662,402.4138],[17.4494,7.8691,399.8034],[17.4499,7.8719,397.4597],[17.4472,7.8776,392.0238],[17.4491,7.8834,395.9579],[17.4555,7.8822,394.3829],[17.4596,7.8838,395.1679],[17.4678,7.894,388.0129],[17.4728,7.8947,388.2242],[17.4767,7.8928,386.3035],[17.4855,7.8857,390.1483],[17.5056,7.8736,388.2079],[17.5111,7.8676,398.1401],[17.5151,7.8687,402.3603],[17.5235,7.891,385.5671],[17.5269,7.8914,385.6341],[17.5308,7.8868,385.4529],[17.5368,7.8872,388.8151],[17.5387,7.8911,398.8347],[17.5385,7.904,385.3897],[17.5423,7.9147,386.3231],[17.5472,7.9213,390.3916],[17.5513,7.9232,383.8838],[17.5617,7.9226,382.9471],[17.564,7.9196,388.8587],[17.5648,7.913,392.6081],[17.5671,7.9088,397.1017],[17.5694,7.9081,401.1052],[17.5745,7.909,403.2111],[17.5787,7.9124,403.4753],[17.5852,7.9239,391.1338],[17.5965,7.9327,383.1525],[17.6014,7.9327,381.7505],[17.6101,7.926,399.9137],[17.6165,7.9269,402.7111],[17.6332,7.9454,382.7862],[17.6454,7.9435,392.3669],[17.6489,7.9457,389.1316],[17.6589,7.9624,382.2743],[17.6571,7.9695,390.7482],[17.6583,7.9741,388.739],[17.6717,7.9828,386.2894],[17.6832,7.9841,381.6224],[17.694,7.9817,389.3154],[17.6977,7.9787,387.7303],[17.7034,7.9695,387.813]]]]}
,"properties": {"GID_2": "TCD.13.1_1","GID_0": "TCD","country": "Chad","GID_1": "TCD.13_1","province": "Mandoul","NL_NAME_1": "NA","county": "BarhSara","VARNAME_2": "Moïssala|Moissala","NL_NAME_2": "NA","TYPE_2": "Department","ENGTYPE_2": "Department","CC_2": "NA","HASC_2": "TD.MA.BA","name": "Barh_Sara.county","area_km2": 8572.306,"hist_schema_id": "Elevation0-9000","hist_area_km2": {"350": 7.793,"375": 4256.074,"400": 3546.13,"425": 667.895,"450": 94.415}}}