{"type": "Feature","bbox": [15.9684,10.0897,16.242,10.74],"geometry": {"type": "MultiPolygon","coordinates": [[[[16.14,10.74,327.4049],[16.0741,10.6711,327.1125],[16.0553,10.6549,325.9166],[16.0305,10.6303,327.3168],[16.0087,10.6041,327.9379],[15.9971,10.5825,327.8706],[15.9699,10.5168,323.9068],[15.9684,10.5005,327.6565],[15.9726,10.4723,330.7769],[15.9789,10.4483,329.4591],[15.9962,10.4128,329.3437],[16.0015,10.3676,333.042],[15.9943,10.3278,330.5492],[15.981,10.2996,332.4611],[15.9694,10.286,331.6017],[15.9712,10.2601,332.8012],[15.9763,10.2477,332.5208],[15.976,10.2264,332.4574],[15.9815,10.1985,333.9286],[15.9888,10.1726,334.8413],[16.0051,10.127,336.1092],[16.0229,10.1193,335.6063],[16.0458,10.1126,335.0456],[16.0811,10.0955,336.8272],[16.1161,10.0912,339.6927],[16.1518,10.0897,337.7415],[16.2149,10.1054,337.7248],[16.242,10.1102,336.8156],[16.238,10.18,335.2886],[16.1939,10.2092,334.0323],[16.174,10.265,332.9229],[16.152,10.282,331.9988],[16.129,10.314,330.921],[16.123,10.382,330.0661],[16.121,10.465,327.9976],[16.149,10.707,327.5834],[16.14,10.74,327.4049]]]]}
,"properties": {"GID_3": "TCD.14.2.12_1","GID_0": "TCD","country": "Chad","GID_1": "TCD.14_1","province": "Mayo-KebbiEst","NL_NAME_1": "NA","GID_2": "TCD.14.2_1","county": "Mayo-Boneye","NL_NAME_2": "NA","city": "Ngam","VARNAME_3": "NA","NL_NAME_3": "NA","TYPE_3": "Sub-prefecture","ENGTYPE_3": "Sub-prefecture","CC_3": "NA","HASC_3": "NA","name": "Ngam.city","area_km2": 1162.5549,"hist_schema_id": "Elevation0-9000","hist_area_km2": {"325": 1134.4818,"350": 28.0731}}}