{"type":"Feature","properties":{"GID_3":"TCD.16.1.6_1","GID_0":"TCD","country":"Chad","GID_1":"TCD.16_1","province":"Moyen-Chari","NL_NAME_1":"NA","GID_2":"TCD.16.1_1","county":"BarhKöh","NL_NAME_2":"NA","city":"Koumogo","VARNAME_3":"NA","NL_NAME_3":"NA","TYPE_3":"Sub-prefecture","ENGTYPE_3":"Sub-prefecture","CC_3":"NA","HASC_3":"NA","name":"Koumogo.city"},
"geometry":{"type": "MultiPolygon","coordinates": [[[[18.0783,8.5655,379.244],[18.0944,8.5601,381.172],[18.1025,8.5526,382.355],[18.1104,8.5533,380.5299],[18.1169,8.5459,379.5455],[18.1231,8.5301,377.5259],[18.1345,8.5397,377.818],[18.1782,8.5421,377.5167],[18.202,8.5458,381.5576],[18.2224,8.5542,385.3632],[18.2494,8.5624,387.178],[18.2836,8.5679,399.3318],[18.2987,8.5742,405.284],[18.3193,8.5843,408.9498],[18.3453,8.618,383.3934],[18.3641,8.6464,379.8506],[18.3844,8.6552,382.327],[18.3904,8.6787,370.7526],[18.4029,8.7001,386.2666],[18.4345,8.7301,382.574],[18.4476,8.7458,376.9115],[18.4528,8.7688,375.4546],[18.4613,8.824,372.6133],[18.4664,8.8416,372.062],[18.4835,8.8576,370.4669],[18.4924,8.8568,371.7028],[18.5087,8.8678,371.5984],[18.505,8.8784,371.7489],[18.5041,8.9132,369.6882],[18.5077,8.9444,366.1901],[18.4849,8.9431,367.0289],[18.4617,8.9499,366.1341],[18.4394,8.9608,365.4842],[18.4321,8.9691,364.5089],[18.4272,8.9808,364.0077],[18.4249,8.9915,363.7406],[18.4263,9.0148,364.4066],[18.4284,9.024,363.4104],[18.4583,9.0746,363.8419],[18.462,9.0885,363.5655],[18.4623,9.0966,364.8303],[18.4597,9.1021,362.8033],[18.4587,9.1143,362.3968],[18.4459,9.1215,363.0596],[18.4274,9.1102,358.4089],[18.4084,9.1036,365.0317],[18.3937,9.0957,364.0536],[18.3846,9.0825,363.9203],[18.3771,9.059,364.8478],[18.3759,9.0488,364.6764],[18.3771,9.0391,364.8643],[18.3877,9.0264,364.4915],[18.3857,9.0172,365.9857],[18.3494,8.979,362.7306],[18.3426,8.9656,364.0034],[18.3388,8.9317,367.0975],[18.3285,8.9118,367.528],[18.3225,8.9056,367.5792],[18.3131,8.8987,367.3462],[18.2633,8.8832,366.2381],[18.2569,8.8757,365.7823],[18.254,8.8662,368.1843],[18.2453,8.8571,367.2372],[18.2403,8.8544,367.4768],[18.2316,8.8538,366.2885],[18.2179,8.8443,368.3688],[18.2087,8.8442,369.7529],[18.1906,8.8402,370.8685],[18.1713,8.8405,368.6333],[18.16,8.8355,368.5994],[18.142,8.8232,370.5325],[18.134,8.8165,369.5964],[18.121,8.8013,370.9984],[18.1199,8.7864,370.3528],[18.1213,8.7743,370.1204],[18.121,8.7481,370.8075],[18.1182,8.7231,372.0813],[18.1152,8.7129,368.404],[18.0975,8.6974,370.4138],[18.0879,8.6984,372.1612],[18.0653,8.7094,370.8491],[18.053,8.707,375.3812],[18.0492,8.7092,376.2886],[18.0489,8.6605,373.7096],[18.0573,8.6332,374.3855],[18.0638,8.5995,374.7173],[18.0701,8.5813,377.6443],[18.0783,8.5655,379.244]]]]}}