{"type":"Feature","properties":{"GID_3":"TCD.9.1.2_1","GID_0":"TCD","country":"Chad","GID_1":"TCD.9_1","province":"Kanem","NL_NAME_1":"NA","GID_2":"TCD.9.1_1","county":"Kanem","NL_NAME_2":"NA","city":"Dokora","VARNAME_3":"NA","NL_NAME_3":"NA","TYPE_3":"Sub-prefecture","ENGTYPE_3":"Sub-prefecture","CC_3":"NA","HASC_3":"NA","name":"Dokora.city"},
"geometry":{"type": "MultiPolygon","coordinates": [[[[15.92,13.499,294.0384],[15.872,13.51,295.3517],[15.823,13.503,291.2926],[15.792,13.503,289.4685],[15.763,13.476,291.8921],[15.751,13.436,298.0326],[15.737,13.425,298.9387],[15.781,13.4,293.8043],[15.828,13.377,290.5972],[15.854,13.356,294.8979],[15.935,13.339,290.5335],[15.934,13.45,294.13],[15.92,13.499,294.0384]]]]}}