{"type": "Feature","bbox": [15.2664,8.271,15.6775,8.6548],"geometry": {"type": "MultiPolygon","coordinates": [[[[15.2664,8.542,531.0745],[15.2707,8.5179,531.1376],[15.2691,8.5002,547.1566],[15.2724,8.482,528.7414],[15.2805,8.4657,518.2931],[15.295,8.445,505.8051],[15.323,8.427,480.2214],[15.342,8.403,496.4581],[15.383,8.378,473.123],[15.417,8.37,477.928],[15.446,8.376,457.8954],[15.455,8.352,458.5453],[15.488,8.328,451.8398],[15.49,8.29,460.4266],[15.526,8.304,433.3526],[15.537,8.29,437.9861],[15.529,8.273,434.1033],[15.553,8.271,438.43],[15.581,8.281,466.2848],[15.5856,8.2964,479.2807],[15.5797,8.3614,517.3618],[15.585,8.4043,477.9656],[15.5982,8.4336,459.1729],[15.6112,8.4508,457.1255],[15.63,8.4651,432.6291],[15.662,8.4718,439.3647],[15.6775,8.4871,446.9113],[15.6769,8.5051,451.9366],[15.6553,8.5302,456.5999],[15.6699,8.5971,424.0016],[15.6454,8.6052,415.6531],[15.6204,8.6188,424.0642],[15.5897,8.632,424.5171],[15.5458,8.6548,414.0708],[15.5404,8.6492,419.9803],[15.4316,8.6057,504.2833],[15.41,8.5939,489.4266],[15.3508,8.5756,463.0634],[15.3264,8.5614,474.0898],[15.3004,8.5495,480.9841],[15.2664,8.542,531.0745]]]]}
,"properties": {"GID_3": "TCD.11.1.4_1","GID_0": "TCD","country": "Chad","GID_1": "TCD.11_1","province": "LogoneOccidental","NL_NAME_1": "NA","GID_2": "TCD.11.1_1","county": "Dodjé","NL_NAME_2": "NA","city": "Tapol","VARNAME_3": "NA","NL_NAME_3": "NA","TYPE_3": "Sub-prefecture","ENGTYPE_3": "Sub-prefecture","CC_3": "NA","HASC_3": "NA","name": "Tapol.city","area_km2": 1088.2863,"hist_schema_id": "Elevation0-9000","hist_area_km2": {"400": 0.3983,"425": 110.1517,"450": 223.8344,"475": 257.8823,"500": 276.775,"525": 178.2907,"550": 40.9329,"575": 0.021}}}