{"type":"Feature","properties":{"GID_3":"TCD.1.1.1_1","GID_0":"TCD","country":"Chad","GID_1":"TCD.1_1","province":"BarhelGhazel","NL_NAME_1":"NA","GID_2":"TCD.1.1_1","county":"BarhElGazel","NL_NAME_2":"NA","city":"Michemire","VARNAME_3":"NA","NL_NAME_3":"NA","TYPE_3":"Sub-prefecture","ENGTYPE_3":"Sub-prefecture","CC_3":"NA","HASC_3":"NA","name":"Michemire.city"},
"geometry":{"type": "MultiPolygon","coordinates": [[[[15.962,14.315,305.4407],[15.911,14.263,316.0648],[15.804,14.145,315.4813],[15.711,14.066,312.9636],[15.619,14.032,310.8295],[15.607,13.878,296.8043],[15.602,13.749,287.5467],[15.647,13.735,283.7645],[15.762,13.739,290.2839],[15.774,13.758,291.5194],[15.884,13.747,281.6542],[15.892,13.728,291.6414],[15.894,13.685,298.5142],[15.884,13.66,286.6236],[15.876,13.614,288.2764],[15.892,13.546,288.4692],[15.92,13.499,294.0384],[15.934,13.45,294.13],[15.935,13.339,290.5335],[16.012,13.533,289.5294],[16.089,13.659,290.2643],[16.179,13.765,284.6343],[16.248,13.89,289.1855],[16.233,13.967,291.6699],[16.194,14.041,293.0848],[16.118,14.131,308.5736],[16.054,14.198,297.0644],[16.012,14.263,299.9327],[15.962,14.315,305.4407]]]]}}