{"type": "Feature","bbox": [17.7752,9.1762,18.2555,9.4675],"geometry": {"type": "MultiPolygon","coordinates": [[[[18.1999,9.1762,356.2724],[18.234,9.1856,361.3976],[18.2467,9.1942,361.7856],[18.2424,9.1985,361.4891],[18.2438,9.2269,362.757],[18.2449,9.2332,363.0856],[18.2513,9.2428,358.2637],[18.2555,9.2537,357.3329],[18.2538,9.2762,361.5472],[18.2388,9.3311,361.6454],[18.2331,9.3458,361.2333],[18.2271,9.352,360.6987],[18.2163,9.359,361.7709],[18.1935,9.3701,360.8944],[18.17,9.389,357.927],[18.1668,9.4002,358.5639],[18.1594,9.414,364.5126],[18.1431,9.4194,351.6196],[18.1313,9.4296,353.6941],[18.1025,9.4403,356.0626],[18.0867,9.4652,359.411],[18.0669,9.4675,358.224],[18.0502,9.4578,370.0857],[18.0371,9.4541,390.3766],[18.0033,9.4473,420.2545],[17.9867,9.4478,416.0899],[17.9689,9.4459,411.38],[17.9439,9.433,425.3011],[17.8988,9.4208,409.3771],[17.8602,9.413,417.804],[17.8437,9.4133,422.6098],[17.8292,9.416,426.8548],[17.7987,9.4184,416.8469],[17.7895,9.4153,413.7074],[17.7752,9.4171,408.2165],[17.811,9.347,502.5811],[17.8197,9.3251,503.3396],[17.8255,9.2953,449.9493],[17.8425,9.2906,441.5938],[17.9244,9.2509,410.2451],[17.9439,9.2394,418.9103],[17.9834,9.223,429.9676],[17.994,9.2173,462.7167],[18.003,9.2027,488.6562],[18.0112,9.1989,475.1106],[18.0362,9.1962,439.3744],[18.0557,9.1907,404.9777],[18.1118,9.1861,376.3273],[18.1444,9.1793,364.4191],[18.1999,9.1762,356.2724]]]]}
,"properties": {"GID_3": "TCD.16.1.3_1","GID_0": "TCD","country": "Chad","GID_1": "TCD.16_1","province": "Moyen-Chari","NL_NAME_1": "NA","GID_2": "TCD.16.1_1","county": "BarhKöh","NL_NAME_2": "NA","city": "Djoli","VARNAME_3": "NA","NL_NAME_3": "NA","TYPE_3": "Sub-prefecture","ENGTYPE_3": "Sub-prefecture","CC_3": "NA","HASC_3": "NA","name": "Djoli.city","area_km2": 1095.2844,"hist_schema_id": "Elevation0-9000","hist_area_km2": {"350": 210.64,"375": 319.2996,"400": 241.3286,"425": 176.1769,"450": 101.3911,"475": 36.8242,"500": 8.808,"525": 0.8159}}}