{"type": "Feature","bbox": [16.8262,8.765,17.0189,8.925],"geometry": {"type": "MultiPolygon","coordinates": [[[[16.8322,8.9203,376.8109],[16.8368,8.9093,374.3473],[16.8397,8.8851,377.8441],[16.8384,8.8668,378.295],[16.8262,8.8271,383.8222],[16.8293,8.818,383.835],[16.8411,8.8003,382.7361],[16.8754,8.7733,387.9306],[16.8912,8.765,393.6221],[16.9043,8.7687,386.5992],[16.9271,8.771,385.4826],[16.9431,8.7763,384.5051],[16.9572,8.7789,384.5531],[16.9806,8.792,384.3911],[16.9939,8.8021,383.4328],[17.0088,8.8178,383.3191],[17.0125,8.818,382.966],[17.0176,8.8238,385.9587],[17.0189,8.8286,382.8066],[17.0168,8.8378,382.5072],[16.9957,8.8697,382.2692],[16.988,8.8793,381.1987],[16.979,8.8845,381.6782],[16.9555,8.9034,381.1179],[16.9424,8.9094,381.189],[16.932,8.9119,379.4542],[16.8947,8.9197,378.1012],[16.8688,8.9233,378.2413],[16.8423,8.925,379.965],[16.8322,8.9203,376.8109]]]]}
,"properties": {"GID_3": "TCD.12.4.6_1","GID_0": "TCD","country": "Chad","GID_1": "TCD.12_1","province": "LogoneOriental","NL_NAME_1": "NA","GID_2": "TCD.12.4_1","county": "Pendé","NL_NAME_2": "NA","city": "Maibo-Mbaye","VARNAME_3": "NA","NL_NAME_3": "NA","TYPE_3": "Sub-prefecture","ENGTYPE_3": "Sub-prefecture","CC_3": "NA","HASC_3": "NA","name": "Maibo-Mbaye.city","area_km2": 265.8355,"hist_schema_id": "Elevation0-9000","hist_area_km2": {"375": 258.125,"400": 7.7105}}}