{"type": "Feature","bbox": [17.234,13.427,18.651,15.476],"geometry": {"type": "MultiPolygon","coordinates": [[[[17.234,13.427,300.5247],[17.371,13.473,300.174],[17.45,13.497,305.0779],[17.533,13.48,304.2411],[17.612,13.456,302.5169],[17.757,13.481,304.5004],[17.967,13.482,309.6087],[18.014,13.477,312.9259],[18.011,13.69,312.5812],[18.026,13.835,312.6581],[18.051,13.956,309.7944],[18.097,14.029,317.0133],[18.126,14.117,326.316],[18.171,14.192,321.2242],[18.232,14.322,319.8515],[18.29,14.429,313.2871],[18.349,14.587,315.2105],[18.438,14.755,313.1575],[18.519,14.921,320.2179],[18.6,15.066,332.5483],[18.612,15.194,324.1477],[18.651,15.314,332.1689],[18.497,15.309,308.1888],[18.341,15.328,293.9366],[18.238,15.363,279.404],[18.143,15.414,269.2956],[18.051,15.476,254.0689],[17.586,13.76,302.0954],[17.271,13.662,301.1361],[17.234,13.427,300.5247]]]]}
,"properties": {"GID_3": "TCD.2.3.3_1","GID_0": "TCD","country": "Chad","GID_1": "TCD.2_1","province": "Batha","NL_NAME_1": "NA","GID_2": "TCD.2.3_1","county": "Fitri","NL_NAME_2": "NA","city": "Ouled-Himed","VARNAME_3": "NA","NL_NAME_3": "NA","TYPE_3": "Sub-prefecture","ENGTYPE_3": "Sub-prefecture","CC_3": "NA","HASC_3": "NA","name": "Ouled-Himed.city","area_km2": 12688.845,"hist_schema_id": "Elevation0-9000","hist_area_km2": {"250": 3.392,"275": 1439.467,"300": 9956.659,"325": 1289.327}}}