{"type":"Feature","properties":{"GID_3":"TCD.8.1.2_1","GID_0":"TCD","country":"Chad","GID_1":"TCD.8_1","province":"Hadjer-Lamis","NL_NAME_1":"NA","GID_2":"TCD.8.1_1","county":"Dababa","NL_NAME_2":"NA","city":"Bokoro/Tania","VARNAME_3":"NA","NL_NAME_3":"NA","TYPE_3":"Sub-prefecture","ENGTYPE_3":"Sub-prefecture","CC_3":"NA","HASC_3":"NA","name":"Bokoro_Tania.city"},
"geometry":{"type": "MultiPolygon","coordinates": [[[[17.201,12.557,297.3481],[17.151,12.517,296.0894],[17.089,12.49,296.0986],[17.016,12.453,296.2152],[16.977,12.44,297.5242],[16.969,12.423,298.5181],[16.951,12.402,299.3527],[16.932,12.316,302.5661],[16.927,12.278,303.8193],[16.927,12.231,305.1908],[16.938,12.194,306.6367],[16.954,12.157,308.3873],[16.982,12.134,308.8505],[17.042,12.166,308.1572],[17.086,12.172,308.2328],[17.124,12.184,307.508],[17.151,12.236,305.2206],[17.183,12.279,304.0892],[17.31,12.346,302.7043],[17.295,12.406,299.3244],[17.293,12.487,297.0349],[17.254,12.501,295.9987],[17.201,12.557,297.3481]]]]}}