{"type": "Feature","bbox": [20.0465,11.0176,20.3436,11.1948],"geometry": {"type": "MultiPolygon","coordinates": [[[[20.0465,11.119,425.4001],[20.0541,11.1012,426.1597],[20.0652,11.0881,424.4951],[20.0909,11.081,426.0565],[20.1066,11.0669,425.8677],[20.1293,11.0641,427.0938],[20.1699,11.0449,427.0402],[20.2096,11.029,428.1522],[20.2505,11.0176,430.8382],[20.2981,11.0176,434.0075],[20.3113,11.062,435.2374],[20.3179,11.0779,434.9166],[20.3351,11.1075,434.2915],[20.3436,11.1311,437.3833],[20.3096,11.1384,436.2549],[20.2913,11.1494,436.6617],[20.2751,11.1524,434.7894],[20.2497,11.1609,431.4575],[20.2238,11.1756,430.3293],[20.1982,11.1815,431.9382],[20.1647,11.1948,430.4515],[20.1594,11.1786,429.6739],[20.1426,11.1652,431.5939],[20.0897,11.136,427.9138],[20.0661,11.1248,427.1936],[20.0465,11.119,425.4001]]]]}
,"properties": {"GID_3": "TCD.18.2.1_1","GID_0": "TCD","country": "Chad","GID_1": "TCD.18_1","province": "Salamat","NL_NAME_1": "NA","GID_2": "TCD.18.2_1","county": "BarhAzoum","NL_NAME_2": "NA","city": "Am-Timan","VARNAME_3": "NA","NL_NAME_3": "NA","TYPE_3": "Sub-prefecture","ENGTYPE_3": "Sub-prefecture","CC_3": "NA","HASC_3": "NA","name": "Am-Timan.city","area_km2": 368.8385,"hist_schema_id": "Elevation0-9000","hist_area_km2": {"425": 367.7981,"450": 1.0403}}}