{"type": "Feature","bbox": [16.0967,9.5997,16.5128,10.0279],"geometry": {"type": "MultiPolygon","coordinates": [[[[16.0967,9.7642,345.9716],[16.141,9.7399,347.1567],[16.1549,9.7391,346.8075],[16.2208,9.7108,347.8515],[16.2389,9.6969,347.0878],[16.2574,9.6798,350.3276],[16.2694,9.6726,346.6851],[16.2842,9.6611,346.8653],[16.2969,9.6482,347.0226],[16.3105,9.6241,348.4157],[16.3164,9.6073,348.4879],[16.3288,9.6034,348.1763],[16.3762,9.5997,349.9867],[16.3982,9.6035,349.3984],[16.4292,9.6161,348.7048],[16.4476,9.628,348.74],[16.4592,9.6384,348.2595],[16.4724,9.6476,348.0887],[16.4801,9.6615,347.3583],[16.5128,9.6746,346.7479],[16.5016,9.6964,346.4213],[16.4696,9.7423,346.6562],[16.4507,9.776,344.2606],[16.4549,9.8376,343.3309],[16.4667,9.8638,341.4737],[16.4703,9.9033,340.8072],[16.4784,9.9173,340.4288],[16.4639,9.9222,340.2225],[16.424,9.9489,342.0543],[16.4044,9.957,340.0677],[16.3962,9.9637,339.9642],[16.3805,9.9692,340.3744],[16.3608,9.9815,339.8079],[16.348,10.0105,339.3906],[16.3345,10.0279,338.4742],[16.3079,10.0049,339.3029],[16.2834,9.9954,339.3433],[16.2578,9.9964,339.4758],[16.2428,10.0026,339.3091],[16.2291,9.9835,340.1557],[16.2179,9.9487,340.8017],[16.2017,9.911,341.8141],[16.1853,9.8858,342.2502],[16.1663,9.8641,342.6313],[16.138,9.8104,344.6029],[16.1064,9.7772,345.7029],[16.0967,9.7642,345.9716]]]]}
,"properties": {"GID_3": "TCD.20.2.2_1","GID_0": "TCD","country": "Chad","GID_1": "TCD.20_1","province": "Tandjilé","NL_NAME_1": "NA","GID_2": "TCD.20.2_1","county": "TandjiléEst","NL_NAME_2": "NA","city": "Deressia","VARNAME_3": "NA","NL_NAME_3": "NA","TYPE_3": "Sub-prefecture","ENGTYPE_3": "Sub-prefecture","CC_3": "NA","HASC_3": "NA","name": "Deressia.city","area_km2": 1225.1392,"hist_schema_id": "Elevation0-9000","hist_area_km2": {"325": 0.167,"350": 1224.9721}}}