{"type":"Feature","properties":{"GID_1":"TCD.4_1","GID_0":"TCD","country":"Chad","province":"Chari-Baguirmi","VARNAME_1":"NA","NL_NAME_1":"NA","TYPE_1":"Région","ENGTYPE_1":"Region","CC_1":"NA","HASC_1":"TD.CB","ISO_1":"TD-CB","name":"Chari-Baguirmi.province"},
"geometry":{"type": "MultiPolygon","coordinates": [[[[17.489,10.172,345.8617],[17.543,10.451,350.8359],[17.449,10.522,342.6501],[17.383,10.537,341.739],[17.327,10.574,340.9664],[17.352,10.671,341.8769],[17.363,10.795,342.2492],[17.36,10.935,337.9415],[17.345,11.029,339.2904],[17.329,11.075,337.7805],[17.305,11.23,336.3217],[17.311,11.304,335.3646],[17.315,11.324,335.8187],[17.335,11.472,334.7028],[17.139,11.566,329.0067],[17.088,11.627,328.0098],[17.019,11.668,327.9125],[16.906,11.684,326.8196],[16.858,11.676,327.1664],[16.826,11.726,327.0421],[16.812,11.823,325.9713],[16.797,11.874,325.781],[16.79,11.904,317.8187],[16.744,11.932,318.2285],[16.708,11.995,316.1006],[16.725,12.133,308.4584],[16.695,12.198,303.9737],[16.666,12.229,301.8358],[16.493,12.296,296.2957],[16.45,12.305,295.1011],[16.302,12.354,293.8242],[16.09,12.432,292.7798],[16.048,12.382,293.9361],[15.976,12.338,294.7421],[15.831,12.343,294.2556],[15.684,12.338,293.4362],[15.564,12.273,293.4708],[15.506,12.222,294.2401],[15.435,12.29,294.9079],[15.404,12.322,290.8799],[15.373,12.363,292.2918],[15.335,12.319,293.0239],[15.269,12.279,292.2951],[15.191,12.253,290.8426],[15.096,12.232,292.7736],[15.049,12.225,292.8783],[15.056,12.192,292.3517],[15.09,12.152,294.4509],[15.131,12.098,296.4846],[15.16,12.069,290.8649],[15.147,12.044,294.615],[15.138,12.011,294.7869],[15.137,11.983,296.101],[15.1038,11.9887,294.4821],[15.0885,11.9894,294.4312],[15.0864,11.981,294.3359],[15.0754,11.9716,294.4277],[15.0623,11.9773,294.4457],[15.0554,11.9745,295.201],[15.0498,11.9644,295.9635],[15.0488,11.958,293.5935],[15.0574,11.948,292.7471],[15.0646,11.9357,295.5031],[15.0641,11.9284,296.1616],[15.0583,11.9165,295.9205],[15.0453,11.9122,294.5612],[15.0399,11.9051,293.2766],[15.0435,11.8861,293.2939],[15.0493,11.8746,292.1671],[15.0504,11.8693,295.7245],[15.0481,11.861,292.0],[15.0523,11.8502,296.8216],[15.0589,11.8432,297.1951],[15.066,11.8393,295.953],[15.0786,11.8516,297.2651],[15.08,11.8563,295.5598],[15.0816,11.857,296.1305],[15.0867,11.85,297.2117],[15.0955,11.846,293.558],[15.0977,11.8422,296.7466],[15.097,11.8383,293.9456],[15.099,11.8344,296.9386],[15.0979,11.8253,292.5],[15.0994,11.8104,296.2553],[15.1065,11.8045,294.5246],[15.1132,11.7955,297.089],[15.1214,11.7926,293.5441],[15.1247,11.7864,296.5456],[15.1214,11.7798,296.56],[15.1096,11.7731,297.0166],[15.0957,11.7716,296.224],[15.086,11.7658,297.1436],[15.0817,11.7599,295.3737],[15.0854,11.7523,296.7463],[15.0981,11.744,297.6946],[15.1065,11.7243,297.5422],[15.1005,11.7246,297.856],[15.0864,11.7297,297.5717],[15.0785,11.7302,298.0045],[15.0663,11.7143,297.5755],[15.0645,11.7095,295.0093],[15.0664,11.7039,297.6574],[15.072,11.6978,297.8677],[15.0754,11.6888,297.7662],[15.08,11.6865,297.9441],[15.0823,11.6823,298.531],[15.0785,11.6744,298.0125],[15.077,11.6638,298.2315],[15.0851,11.6585,298.5017],[15.0885,11.6488,298.9854],[15.0816,11.6447,298.5703],[15.0798,11.6398,298.03],[15.0889,11.6307,298.6571],[15.0876,11.6198,299.1854],[15.0888,11.6177,298.9167],[15.1002,11.6108,297.4243],[15.1029,11.6066,299.3225],[15.1028,11.5804,300.0809],[15.1068,11.5771,301.0782],[15.1323,11.5684,300.1327],[15.1422,11.5616,297.5932],[15.1465,11.5571,299.5684],[15.1468,11.5543,297.9231],[15.1431,11.5479,298.1144],[15.1432,11.5392,299.5599],[15.1408,11.5273,299.9433],[15.1327,11.5173,297.6191],[15.1349,11.5096,300.0701],[15.1334,11.5064,300.571],[15.1095,11.4964,300.8335],[15.1088,11.4848,302.5213],[15.1054,11.4835,302.8317],[15.1009,11.4848,300.7001],[15.0979,11.4817,300.5915],[15.1017,11.4727,300.9245],[15.0919,11.4652,300.8831],[15.0825,11.447,301.356],[15.0746,11.4436,301.469],[15.0742,11.4416,299.7489],[15.0771,11.4388,299.735],[15.0781,11.4346,301.7665],[15.077,11.4325,301.5681],[15.0716,11.4319,298.0],[15.0715,11.4242,301.5256],[15.069,11.4175,301.6573],[15.062,11.4131,301.6904],[15.0612,11.4076,299.937],[15.063,11.4006,302.2825],[15.0584,11.3953,298.5],[15.0667,11.381,302.3128],[15.0707,11.3651,302.4924],[15.0553,11.3521,302.6312],[15.0506,11.343,302.4642],[15.0642,11.335,300.1125],[15.0759,11.3225,302.9434],[15.074,11.3167,303.286],[15.064,11.3077,303.4214],[15.0624,11.3009,303.4715],[15.0581,11.2966,303.3958],[15.055,11.2831,303.6585],[15.0501,11.2797,303.4686],[15.0503,11.2775,300.8221],[15.0623,11.2653,301.1073],[15.0633,11.2564,302.933],[15.0672,11.2488,302.3254],[15.067,11.238,304.373],[15.0599,11.2306,304.3005],[15.0702,11.1981,303.4929],[15.0778,11.1824,304.2945],[15.0863,11.1717,305.4335],[15.095,11.1686,303.8526],[15.0969,11.166,305.3013],[15.0969,11.1577,304.4445],[15.1007,11.1494,305.6551],[15.0987,11.1308,305.7509],[15.231,11.209,304.2083],[15.397,11.212,299.9601],[15.408,11.181,298.0],[15.421,11.114,301.1137],[15.438,11.061,306.764],[15.475,11.022,306.9132],[15.505,11.006,314.3303],[15.527,10.981,304.3098],[15.539,10.967,308.5309],[15.544,10.94,306.0294],[15.613,10.902,304.4703],[15.649,10.899,318.3393],[15.673,10.879,310.0078],[15.697,10.867,309.1096],[15.745,10.825,307.319],[15.84,10.795,310.9168],[15.872,10.79,313.5784],[15.907,10.778,313.1072],[15.996,10.779,310.0],[16.048,10.752,315.7698],[16.117,10.767,314.739],[16.14,10.74,327.4049],[16.149,10.707,327.5834],[16.121,10.465,327.9976],[16.123,10.382,330.0661],[16.129,10.314,330.921],[16.152,10.282,331.9988],[16.174,10.265,332.9229],[16.1939,10.2092,334.0323],[16.23,10.202,337.0044],[16.483,10.2,337.5361],[16.584,10.265,333.5002],[16.602,10.236,333.7292],[16.623,10.234,333.2465],[16.617,10.193,330.7089],[16.619,10.171,331.1797],[16.626,10.146,331.8474],[16.639,10.134,335.8983],[16.648,10.117,334.3327],[16.646,10.095,335.7249],[16.662,10.071,331.3207],[16.69,10.067,335.1111],[16.713,10.066,335.698],[16.738,10.053,336.2613],[16.746,10.034,336.9871],[16.768,10.031,335.0215],[16.776,10.01,336.5892],[16.81,10.014,335.6171],[16.897,9.99,340.8295],[16.929,9.971,340.1117],[16.942,9.945,340.0063],[16.974,9.949,339.481],[17.04,9.945,341.1867],[17.098,9.931,339.2692],[17.164,9.92,343.3952],[17.188,9.871,342.9179],[17.256,9.84,347.0449],[17.322,9.827,349.4396],[17.381,9.826,347.7145],[17.489,10.172,345.8617]]]]}}