{"type": "Feature","id": "5580","bbox": [14.89483,9.8148,17.53374,12.4633],"geometry": {"type": "Polygon","coordinates": [[[16.83628,11.69743,326.9378],[16.78522,11.73827,328.0076],[16.77501,11.88124,323.0313],[16.72395,11.94251,316.6663],[16.67289,12.00378,316.5349],[16.67289,12.1161,309.8685],[16.64226,12.22843,302.4632],[16.51972,12.2897,296.8999],[16.06019,12.4633,291.9575],[15.9785,12.37139,294.3366],[15.87638,12.34076,294.177],[15.713,12.35097,293.6971],[15.54961,12.31012,292.7213],[15.49855,12.26928,293.1775],[15.40665,12.27949,293.8251],[15.3658,12.33055,291.4053],[15.30453,12.34076,291.578],[15.26368,12.29991,292.0836],[15.16157,12.27949,291.5031],[15.06966,12.25907,292.4089],[14.99818,12.25907,291.1968],[14.90486,12.24866,290.5918],[14.90486,12.2484,290.5918],[14.9031,12.23626,287.5375],[14.89804,12.21946,290.9862],[14.89804,12.20747,292.3923],[14.90093,12.20003,292.7068],[14.90589,12.19564,291.5835],[14.91013,12.19037,286.5],[14.91158,12.18014,293.1856],[14.90744,12.17347,293.2773],[14.8999,12.17176,291.8888],[14.89483,12.16737,291.7429],[14.89804,12.1528,289.2],[14.9031,12.14587,288.8421],[14.92873,12.12861,294.8383],[14.95075,12.10335,287.5],[14.9648,12.09244,294.0242],[14.97679,12.09415,289.1573],[14.99384,12.1067,290.5317],[15.01183,12.10862,293.0529],[15.01349,12.13401,292.2508],[15.0216,12.15508,294.0748],[15.03619,12.17454,293.4917],[15.05001,12.18092,292.8268],[15.07433,12.1793,292.0145],[15.08892,12.16795,292.3941],[15.10746,12.1541,294.5234],[15.11881,12.13464,293.9196],[15.1253,12.11357,294.6944],[15.12253,12.09064,296.2881],[15.10469,12.07119,294.5648],[15.08848,12.06146,293.5758],[15.06902,12.05822,293.5052],[15.04056,12.05565,294.3572],[15.04573,12.04609,294.5999],[15.05307,12.03803,293.401],[15.05369,12.03188,294.5479],[15.0512,12.02423,294.0864],[15.04945,12.01193,293.8266],[15.05968,11.9973,295.2127],[15.07684,11.98284,295.7679],[15.08118,11.97167,294.0675],[15.05255,11.96723,295.2041],[15.04831,11.96279,293.8894],[15.05058,11.95286,294.0038],[15.05555,11.94248,295.9731],[15.05937,11.93679,295.7456],[15.0634,11.92728,295.1676],[15.05658,11.91845,295.4765],[15.04697,11.91018,295.0242],[15.04201,11.90238,295.3897],[15.04418,11.87731,296.0002],[15.051,11.8616,295.4626],[15.06278,11.85349,296.8322],[15.07983,11.85122,297.2651],[15.08634,11.84047,296.5013],[15.11094,11.7829,297.3081],[15.10536,11.77272,295.9885],[15.08914,11.75763,297.4801],[15.08355,11.74817,297.7943],[15.08531,11.74404,297.7246],[15.09596,11.73412,298.3612],[15.0972,11.72766,297.0005],[15.09306,11.7229,297.8617],[15.08634,11.72218,297.6313],[15.07983,11.72259,297.7277],[15.07611,11.72146,297.312],[15.06826,11.70011,298.0791],[15.0665,11.68063,298.0515],[15.06939,11.66079,298.6365],[15.08521,11.61588,299.1551],[15.09575,11.59816,299.2914],[15.12386,11.56317,300.1803],[15.13564,11.53082,297.0],[15.12231,11.50323,300.295],[15.07611,11.45331,301.1702],[15.06702,11.43556,301.6286],[15.06061,11.41613,300.6931],[15.05431,11.36409,302.1258],[15.04945,11.34871,303.2588],[15.04945,11.33727,302.8487],[15.05255,11.3298,302.9815],[15.05782,11.32536,302.9916],[15.06226,11.32003,303.0163],[15.06309,11.30993,301.1471],[15.05637,11.29342,301.6671],[15.03332,11.26027,303.7778],[15.02826,11.24448,303.9218],[15.02123,11.18255,304.6295],[15.02883,11.08022,306.4531],[15.11709,11.1032,306.1352],[15.13678,11.11095,305.8858],[15.15058,11.11793,306.0791],[15.18303,11.14149,305.6079],[15.20458,11.16263,305.2686],[15.21264,11.16826,305.1563],[15.21636,11.17151,305.0201],[15.22293,11.17896,304.7216],[15.22665,11.18216,304.6492],[15.2313,11.18454,304.6453],[15.23688,11.18578,304.6035],[15.24324,11.18604,304.556],[15.29631,11.18133,304.8119],[15.34287,11.17038,306.2018],[15.35279,11.16614,306.6791],[15.37062,11.15591,307.6459],[15.40555,11.13048,303.4761],[15.41315,11.12692,299.7811],[15.42198,11.12397,300.7348],[15.43206,11.11627,305.4971],[15.43206,11.06687,306.9854],[15.43826,11.05028,299.5],[15.45304,11.03519,303.6761],[15.47103,11.023,306.1114],[15.48668,11.01535,308.8569],[15.50337,11.01127,309.8945],[15.51386,11.00997,307.351],[15.51929,11.00357,307.7161],[15.52084,10.98434,301.8548],[15.52446,10.97127,314.8681],[15.53278,10.95303,314.7728],[15.54875,10.92595,307.4182],[15.55965,10.91685,317.0478],[15.57469,10.90807,314.9338],[15.59153,10.9013,317.7424],[15.60771,10.89866,316.9556],[15.63231,10.89877,317.7653],[15.64946,10.89665,318.0772],[15.66538,10.88884,312.7328],[15.68595,10.872,311.2213],[15.74558,10.81123,324.3713],[15.76506,10.80306,309.6064],[15.80294,10.79934,308.7181],[15.8833,10.7797,312.8041],[15.9218,10.77578,308.5],[15.9449,10.77805,309.0],[15.98288,10.78777,311.1287],[16.00123,10.78942,315.9862],[16.05409,10.75449,311.0],[16.06334,10.75123,316.2533],[16.07481,10.7673,326.7632],[16.1007,10.76275,315.8495],[16.13398,10.74648,327.261],[16.13765,10.73883,327.1897],[16.1392,10.73444,326.9034],[16.10845,10.44603,329.2961],[16.12649,10.31503,330.4701],[16.1299,10.30263,331.0099],[16.13517,10.29384,331.0055],[16.14633,10.28418,331.6805],[16.15315,10.27922,331.3792],[16.16866,10.2709,335.4805],[16.173,10.26811,332.942],[16.17739,10.26304,332.959],[16.18158,10.25571,333.2949],[16.18607,10.24087,332.929],[16.18948,10.22356,333.2843],[16.1963,10.21194,333.7496],[16.2194,10.19586,333.3519],[16.44022,10.19287,333.9731],[16.50073,10.20413,334.4275],[16.56222,10.25085,334.7204],[16.56812,10.25167,335.329],[16.57261,10.24981,334.1456],[16.57587,10.24614,333.9251],[16.57866,10.24206,333.7098],[16.58098,10.23751,333.9626],[16.58377,10.23343,334.4138],[16.58703,10.22976,334.0406],[16.59866,10.22046,334.3765],[16.60207,10.21705,334.5783],[16.60501,10.21312,334.4097],[16.60703,10.20821,334.5502],[16.60811,10.20263,334.0513],[16.60889,10.17695,332.9555],[16.60687,10.15122,332.9407],[16.6078,10.14543,334.5375],[16.60997,10.14098,335.7296],[16.62072,10.13075,336.1804],[16.62289,10.1262,335.0814],[16.62785,10.10419,336.6437],[16.63018,10.09964,335.5321],[16.63297,10.09561,335.6685],[16.63623,10.0921,335.3954],[16.64413,10.0859,335.7162],[16.71147,10.05282,336.2275],[16.71767,10.04848,335.8133],[16.72185,10.04383,336.0992],[16.72542,10.03856,336.7591],[16.73038,10.03319,337.0469],[16.73989,10.02647,337.4276],[16.74717,10.02394,338.0487],[16.75369,10.02357,335.7252],[16.76903,10.02497,335.8858],[16.7956,10.02239,337.5048],[16.80428,10.01898,334.7136],[16.82164,10.00766,339.6954],[16.83032,10.0044,339.9087],[16.85006,10.00022,340.0388],[16.87983,10.00011,335.5778],[16.88277,9.99789,339.5688],[16.88541,9.99484,339.0765],[16.89083,9.98688,339.0023],[16.89843,9.98048,338.966],[16.91166,9.97262,339.9059],[16.91538,9.96942,339.2067],[16.92251,9.95081,341.6299],[16.93011,9.94193,340.6827],[16.93693,9.93852,341.1472],[16.94391,9.93717,341.0981],[16.99419,9.94063,341.881],[16.99992,9.94156,341.2024],[17.02897,9.93898,341.6583],[17.0654,9.93149,345.037],[17.08328,9.92596,342.5464],[17.09366,9.92095,339.9379],[17.09599,9.91609,343.0047],[17.10002,9.91412,343.6202],[17.10436,9.91443,343.1809],[17.1163,9.91784,341.9926],[17.12457,9.91852,343.5407],[17.13015,9.91697,342.7177],[17.1348,9.91433,342.689],[17.13806,9.91066,343.0219],[17.15077,9.8826,344.9951],[17.1534,9.87831,343.5775],[17.15619,9.87433,344.9768],[17.16394,9.86808,346.6133],[17.19919,9.85092,344.6371],[17.21826,9.83909,343.7765],[17.22756,9.83185,345.2626],[17.23505,9.82937,345.8546],[17.24156,9.82891,345.7772],[17.25645,9.83072,347.7971],[17.26978,9.82927,348.2522],[17.28389,9.82472,348.1204],[17.29789,9.81826,351.45],[17.30704,9.81573,350.9357],[17.31463,9.8148,352.3128],[17.32952,9.81584,352.1079],[17.53374,10.4637,351.5657],[17.2958,10.58436,341.7036],[17.31622,10.74774,340.4868],[17.2958,10.9724,339.1161],[17.25496,11.2379,334.5465],[17.26517,11.49319,333.663],[17.1222,11.56467,326.6968],[17.06093,11.62594,326.7654],[16.98945,11.68721,326.6764],[16.91797,11.69743,326.9521],[16.83628,11.69743,326.9378]]]}
,"properties": {"ISO3166-1-Alpha-3": "TCD","country": "Chad","fill": "#FF0","name": "Chari-Baguirmi","area_km2": 46263.78,"hist_schema_id": "Elevation0-9000","hist_area_km2": {"275": 2.22,"300": 14328.13,"325": 25858.9,"350": 6074.53}}}