{"type":"Feature","properties":{"GID_3":"TCD.16.1.2_1","GID_0":"TCD","country":"Chad","GID_1":"TCD.16_1","province":"Moyen-Chari","NL_NAME_1":"NA","GID_2":"TCD.16.1_1","county":"BarhKöh","NL_NAME_2":"NA","city":"Banda","VARNAME_3":"NA","NL_NAME_3":"NA","TYPE_3":"Sub-prefecture","ENGTYPE_3":"Sub-prefecture","CC_3":"NA","HASC_3":"NA","name":"Banda.city"},
"geometry":{"type": "MultiPolygon","coordinates": [[[[18.4173,9.1972,359.9315],[18.4202,9.198,363.7371],[18.4364,9.1799,359.8496],[18.4444,9.1681,364.1761],[18.451,9.1349,362.2911],[18.4459,9.1215,363.0596],[18.4587,9.1143,362.3968],[18.4597,9.1021,362.8033],[18.4623,9.0966,364.8303],[18.462,9.0885,363.5655],[18.4583,9.0746,363.8419],[18.4284,9.024,363.4104],[18.4263,9.0148,364.4066],[18.4249,8.9915,363.7406],[18.4272,8.9808,364.0077],[18.4321,8.9691,364.5089],[18.4394,8.9608,365.4842],[18.4503,8.955,364.2113],[18.4617,8.9499,366.1341],[18.4849,8.9431,367.0289],[18.5077,8.9444,366.1901],[18.5164,8.943,366.1209],[18.537,8.9343,366.4747],[18.5545,8.9326,367.7017],[18.5634,8.9344,367.6186],[18.5759,8.9339,367.7799],[18.5848,8.9315,366.2905],[18.5927,8.936,361.8615],[18.595,8.9499,366.8924],[18.593,8.9748,367.5765],[18.5946,8.9893,368.5829],[18.6028,9.0,368.062],[18.6333,9.0108,367.3157],[18.6358,9.024,366.8738],[18.6331,9.0345,367.9331],[18.6159,9.0502,367.4262],[18.6026,9.0702,367.0029],[18.5991,9.0817,368.4792],[18.5991,9.0927,367.9995],[18.6013,9.1007,367.787],[18.6156,9.1189,374.366],[18.6313,9.1467,367.2375],[18.6445,9.1653,367.088],[18.6581,9.2076,366.2466],[18.6405,9.2097,368.4635],[18.5912,9.211,368.352],[18.5765,9.2022,362.751],[18.5601,9.2045,367.3114],[18.5417,9.2009,367.1624],[18.5171,9.2077,365.9731],[18.5108,9.2183,366.4628],[18.5036,9.2245,367.0811],[18.4971,9.2354,367.811],[18.4897,9.2558,370.3101],[18.4878,9.2711,366.4372],[18.4744,9.2873,367.4339],[18.4674,9.3022,369.1414],[18.4593,9.3095,365.9367],[18.4296,9.3284,366.0374],[18.3622,9.3618,362.6743],[18.3566,9.341,364.3271],[18.3544,9.3163,366.5764],[18.355,9.2791,369.3577],[18.3561,9.2686,368.9179],[18.3602,9.254,365.4659],[18.3731,9.234,359.63869999999997],[18.3905,9.2267,361.6682],[18.4173,9.1972,359.9315]]]]}}