{"type":"Feature","properties":{"GID_3":"TCD.19.2.4_1","GID_0":"TCD","country":"Chad","GID_1":"TCD.19_1","province":"Sila","NL_NAME_1":"NA","GID_2":"TCD.19.2_1","county":"Sila","NL_NAME_2":"NA","city":"Kadjeske-Goz-Beida","VARNAME_3":"NA","NL_NAME_3":"NA","TYPE_3":"Sub-prefecture","ENGTYPE_3":"Sub-prefecture","CC_3":"NA","HASC_3":"NA","name":"Kadjeske-Goz-Beida.city"},
"geometry":{"type": "MultiPolygon","coordinates": [[[[21.681,12.861,649.6697],[21.645,12.845,634.4429],[21.598,12.827,604.7829],[21.539,12.808,587.5849],[21.484,12.778,562.1451],[21.44,12.734,568.9501],[21.42,12.721,555.5839],[21.387,12.678,676.6882],[21.358,12.647,591.0487],[21.353,12.556,581.7805],[21.339,12.521,566.1274],[21.31,12.49,570.6098],[21.303,12.443,549.4873],[21.281,12.402,545.6621],[21.229,12.373,549.2668],[21.201,12.265,528.8616],[21.237,12.194,541.0773],[21.331,12.253,600.9778],[21.402,12.289,627.5234],[21.477,12.305,589.3993],[21.522,12.308,560.3281],[21.54,12.316,556.0026],[21.562,12.347,566.2931],[21.596,12.386,595.7319],[21.644,12.484,581.8774],[21.678,12.59,627.3306],[21.684,12.623,630.0797],[21.671,12.694,677.7253],[21.69,12.756,646.1707],[21.718,12.807,689.4677],[21.743,12.826,695.4113],[21.681,12.861,649.6697]]]]}}