{"type": "Feature","bbox": [18.861,11.937,19.181,12.694],"geometry": {"type": "MultiPolygon","coordinates": [[[[18.99,12.689,409.2924],[18.954,12.534,377.4139],[18.934,12.427,385.2875],[18.896,12.347,450.3308],[18.886,12.266,664.8115],[18.866,12.152,593.6987],[18.861,12.074,733.4775],[18.889,12.082,571.1159],[18.92,12.121,1217.8647],[18.947,12.127,640.6244],[18.98,12.105,1151.4261],[18.997,12.08,567.9152],[19.029,12.057,513.185],[19.051,12.032,507.2094],[19.078,11.986,508.8893],[19.059,11.957,509.205],[19.061,11.937,500.901],[19.147,12.023,484.4825],[19.181,12.076,474.2282],[19.18,12.164,431.0522],[19.118,12.337,404.9278],[19.101,12.434,393.703],[19.09,12.562,387.7583],[19.103,12.694,384.5175],[18.99,12.689,409.2924]]]]}
,"properties": {"GID_3": "TCD.7.1.3_1","GID_0": "TCD","country": "Chad","GID_1": "TCD.7_1","province": "Guéra","NL_NAME_1": "NA","GID_2": "TCD.7.1_1","county": "BarhSignaka","NL_NAME_2": "NA","city": "Djonkor-Aboutelfane","VARNAME_3": "NA","NL_NAME_3": "NA","TYPE_3": "Sub-prefecture","ENGTYPE_3": "Sub-prefecture","CC_3": "NA","HASC_3": "NA","name": "Djonkor-Aboutelfane.city","area_km2": 1617.854,"hist_schema_id": "Elevation0-9000","hist_area_km2": {"375": 263.242,"400": 363.341,"425": 227.64,"450": 217.057,"475": 167.665,"500": 135.528,"525": 40.209,"550": 34.589,"575": 48.147,"600": 44.103,"625": 20.414,"650": 10.28,"675": 6.902,"700": 5.285,"725": 4.746,"750": 3.917,"775": 2.819,"800": 2.736,"825": 2.756,"850": 1.803,"875": 1.907,"900": 1.928,"925": 1.679,"950": 2.093,"975": 1.741,"1000": 1.306,"1025": 1.078,"1050": 0.974,"1075": 0.58,"1100": 0.415,"1125": 0.187,"1150": 0.29,"1175": 0.207,"1200": 0.124,"1225": 0.041,"1250": 0.062,"1275": 0.021,"1300": 0.021,"1325": 0.021}}}