{"type":"Feature","properties":{"GID_3":"TCD.11.2.11_1","GID_0":"TCD","country":"Chad","GID_1":"TCD.11_1","province":"LogoneOccidental","NL_NAME_1":"NA","GID_2":"TCD.11.2_1","county":"LacWey","NL_NAME_2":"NA","city":"Moundou/Koutou","VARNAME_3":"NA","NL_NAME_3":"NA","TYPE_3":"Sub-prefecture","ENGTYPE_3":"Sub-prefecture","CC_3":"NA","HASC_3":"NA","name":"Moundou_Koutou.city"},
"geometry":{"type": "MultiPolygon","coordinates": [[[[15.996,8.536,403.8359],[16.043,8.558,395.0],[16.077,8.569,401.4833],[16.0941,8.5857,401.3825],[16.0744,8.6159,415.1031],[16.068,8.6305,432.0934],[16.0639,8.6739,443.9573],[16.0635,8.695,430.0226],[16.0286,8.6967,457.2581],[16.001,8.6937,478.397],[15.9741,8.6977,483.7525],[15.944,8.6928,475.6462],[15.922,8.6943,456.151],[15.9283,8.6819,463.2066],[15.9382,8.6698,473.5016],[15.9485,8.6485,478.932],[15.9597,8.6339,477.7698],[15.977,8.6018,450.5248],[15.9811,8.5855,431.6026],[15.9827,8.5662,426.7488],[15.996,8.536,403.8359]]]]}}