{"type": "Feature","bbox": [18.2953,9.5323,18.8001,9.919],"geometry": {"type": "MultiPolygon","coordinates": [[[[18.632,9.919,371.116],[18.6176,9.9119,372.7489],[18.5879,9.9029,373.0095],[18.5627,9.9011,375.1774],[18.5502,9.9025,375.4698],[18.5326,9.8939,376.8866],[18.5286,9.8787,377.2505],[18.5117,9.8642,375.4083],[18.5019,9.8499,374.1723],[18.4964,9.8342,372.9146],[18.4822,9.8183,371.2056],[18.462,9.8235,369.3203],[18.4434,9.8381,367.1696],[18.4133,9.8116,368.7338],[18.4047,9.8198,370.2719],[18.3783,9.8203,368.0287],[18.3604,9.7762,368.9551],[18.3412,9.7078,372.5966],[18.3299,9.6741,370.6097],[18.3233,9.6363,368.5447],[18.3111,9.5919,365.1766],[18.3076,9.5703,364.4988],[18.2953,9.5358,365.8579],[18.3076,9.5354,364.651],[18.3197,9.5323,365.6078],[18.3336,9.5373,364.774],[18.3884,9.5634,365.8352],[18.4116,9.5662,367.1076],[18.4176,9.5748,368.4544],[18.4246,9.5774,368.6106],[18.4347,9.5848,368.7686],[18.4528,9.5891,370.5521],[18.4936,9.6126,376.33],[18.5156,9.6225,375.0203],[18.5314,9.635,377.6186],[18.5523,9.6476,375.2659],[18.5647,9.6574,373.2004],[18.5822,9.6669,373.5762],[18.6201,9.6821,370.6351],[18.641,9.6885,372.8712],[18.6655,9.6927,373.2383],[18.688,9.6946,373.6263],[18.6996,9.6932,373.1756],[18.7248,9.7009,374.5043],[18.7344,9.7056,374.7466],[18.7471,9.7068,375.0508],[18.7595,9.7122,375.2077],[18.7731,9.7227,375.5075],[18.776,9.7335,375.6737],[18.7944,9.7554,375.9616],[18.8001,9.7759,377.7894],[18.7984,9.8502,381.3087],[18.794,9.879,380.3649],[18.737,9.877,378.223],[18.632,9.919,371.116]]]]}
,"properties": {"GID_3": "TCD.16.3.3_1","GID_0": "TCD","country": "Chad","GID_1": "TCD.16_1","province": "Moyen-Chari","NL_NAME_1": "NA","GID_2": "TCD.16.3_1","county": "LacIro","NL_NAME_2": "NA","city": "Baltoubaye","VARNAME_3": "NA","NL_NAME_3": "NA","TYPE_3": "Sub-prefecture","ENGTYPE_3": "Sub-prefecture","CC_3": "NA","HASC_3": "NA","name": "Baltoubaye.city","area_km2": 1264.0525,"hist_schema_id": "Elevation0-9000","hist_area_km2": {"350": 3.0523,"375": 1261.0002}}}