{"type": "Feature","bbox": [20.314,13.009,21.027,13.736],"geometry": {"type": "MultiPolygon","coordinates": [[[[20.364,13.421,442.8461],[20.369,13.331,439.2808],[20.358,13.059,423.113],[20.447,13.029,452.5233],[20.54,13.012,447.2365],[20.613,13.009,463.9875],[20.616,13.043,473.6292],[20.627,13.091,472.3776],[20.624,13.148,467.5203],[20.615,13.2,511.4965],[20.633,13.267,464.5878],[20.64,13.351,514.5645],[20.677,13.434,553.9393],[20.753,13.495,500.9803],[20.794,13.518,515.6245],[20.839,13.522,528.4035],[20.907,13.49,560.9125],[20.956,13.437,576.6384],[20.997,13.423,582.6417],[21.024,13.421,597.2231],[20.988,13.516,543.7473],[21.027,13.549,563.775],[21.005,13.603,604.2072],[21.009,13.658,607.48],[20.973,13.686,592.4985],[20.911,13.722,539.9374],[20.781,13.716,510.0952],[20.652,13.736,489.9298],[20.638,13.689,499.1134],[20.587,13.622,485.0267],[20.524,13.572,461.4972],[20.448,13.543,454.91],[20.314,13.529,441.1026],[20.364,13.421,442.8461]]]]}
,"properties": {"GID_3": "TCD.17.3.6_1","GID_0": "TCD","country": "Chad","GID_1": "TCD.17_1","province": "Ouaddaï","NL_NAME_1": "NA","GID_2": "TCD.17.3_1","county": "Ouara","NL_NAME_2": "NA","city": "Ouadi-Chok-Abougouda","VARNAME_3": "NA","NL_NAME_3": "NA","TYPE_3": "Sub-prefecture","ENGTYPE_3": "Sub-prefecture","CC_3": "NA","HASC_3": "NA","name": "Ouadi-Chok-Abougouda.city","area_km2": 2897.943,"hist_schema_id": "Elevation0-9000","hist_area_km2": {"425": 208.546,"450": 1029.389,"475": 561.534,"500": 384.665,"525": 270.644,"550": 176.076,"575": 148.86,"600": 75.746,"625": 15.215,"650": 7.92,"675": 6.971,"700": 5.465,"725": 2.702,"750": 2.166,"775": 1.155,"800": 0.392,"825": 0.247,"875": 0.062,"900": 0.124,"950": 0.041}}}