{"type": "Feature","bbox": [15.501,13.362,15.763,13.568],"geometry": {"type": "MultiPolygon","coordinates": [[[[15.737,13.425,298.9387],[15.751,13.436,298.0326],[15.763,13.476,291.8921],[15.748,13.506,289.1467],[15.702,13.512,289.3572],[15.659,13.527,287.8511],[15.602,13.568,300.8354],[15.551,13.534,296.7263],[15.501,13.457,291.3837],[15.553,13.362,297.5637],[15.619,13.375,294.6496],[15.684,13.396,301.5285],[15.737,13.425,298.9387]]]]}
,"properties": {"GID_3": "TCD.9.1.4_1","GID_0": "TCD","country": "Chad","GID_1": "TCD.9_1","province": "Kanem","NL_NAME_1": "NA","GID_2": "TCD.9.1_1","county": "Kanem","NL_NAME_2": "NA","city": "Moal","VARNAME_3": "NA","NL_NAME_3": "NA","TYPE_3": "Sub-prefecture","ENGTYPE_3": "Sub-prefecture","CC_3": "NA","HASC_3": "NA","name": "Moal.city","area_km2": 400.0659,"hist_schema_id": "Elevation0-9000","hist_area_km2": {"275": 17.8559,"300": 382.21}}}