{"type": "Feature","bbox": [21.522,11.627,22.303,12.189],"geometry": {"type": "MultiPolygon","coordinates": [[[[22.163,11.634,553.8942],[22.185,11.705,696.0752],[22.252,11.77,774.8395],[22.303,11.829,700.7863],[22.289,11.855,611.545],[22.278,11.871,599.4816],[22.267,11.905,581.9553],[22.26,11.957,555.1495],[22.264,11.988,545.2479],[22.283,12.086,610.4684],[22.252,12.106,608.6572],[22.214,12.137,569.8818],[22.041,12.171,599.2425],[21.976,12.189,665.6116],[21.936,12.189,656.981],[21.923,12.183,728.808],[21.842,12.186,584.6165],[21.737,12.144,549.093],[21.686,12.117,525.0575],[21.576,12.028,508.9746],[21.546,11.99,506.9514],[21.527,11.959,504.87],[21.522,11.924,505.9193],[21.522,11.895,503.864],[21.529,11.805,499.3672],[21.528,11.788,496.6245],[21.54,11.768,495.9934],[21.534,11.726,491.7045],[21.549,11.692,498.9487],[21.561,11.627,487.4825],[21.949,11.704,514.0073],[22.02,11.658,528.8553],[22.163,11.634,553.8942]]]]}
,"properties": {"GID_3": "TCD.19.2.1_1","GID_0": "TCD","country": "Chad","GID_1": "TCD.19_1","province": "Sila","NL_NAME_1": "NA","GID_2": "TCD.19.2_1","county": "Sila","NL_NAME_2": "NA","city": "Barh-Azoum-Goz-Beida","VARNAME_3": "NA","NL_NAME_3": "NA","TYPE_3": "Sub-prefecture","ENGTYPE_3": "Sub-prefecture","CC_3": "NA","HASC_3": "NA","name": "Barh-Azoum-Goz-Beida.city","area_km2": 4171.304,"hist_schema_id": "Elevation0-9000","hist_area_km2": {"475": 17.256,"500": 723.949,"525": 1043.846,"550": 1100.857,"575": 630.186,"600": 377.785,"625": 162.218,"650": 46.472,"675": 24.387,"700": 18.126,"725": 12.882,"750": 8.154,"775": 3.528,"800": 1.453,"825": 0.208}}}