{"type":"Feature","properties":{"GID_3":"TCD.11.2.9_1","GID_0":"TCD","country":"Chad","GID_1":"TCD.11_1","province":"LogoneOccidental","NL_NAME_1":"NA","GID_2":"TCD.11.2_1","county":"LacWey","NL_NAME_2":"NA","city":"Mbalkabra","VARNAME_3":"NA","NL_NAME_3":"NA","TYPE_3":"Sub-prefecture","ENGTYPE_3":"Sub-prefecture","CC_3":"NA","HASC_3":"NA","name":"Mbalkabra.city"},
"geometry":{"type": "MultiPolygon","coordinates": [[[[16.0104,8.9865,387.3489],[15.99,8.9788,386.27],[15.9722,8.9626,415.68],[15.9635,8.9456,417.8211],[15.9722,8.932,419.0402],[16.0018,8.8971,441.1848],[15.9988,8.8814,445.3168],[15.9802,8.8698,415.7292],[15.9199,8.8588,426.9868],[15.9327,8.8178,479.1235],[15.9341,8.8085,477.2957],[15.933,8.7598,508.3085],[16.0091,8.7494,465.4714],[16.0539,8.75,421.7368],[16.0626,8.7481,429.6386],[16.0828,8.7488,454.7158],[16.1004,8.7807,486.1196],[16.1322,8.8304,477.6769],[16.1424,8.8445,481.6453],[16.1625,8.8626,517.2426],[16.1598,8.8769,512.7505],[16.1505,8.8999,512.1578],[16.1396,8.9213,522.0884],[16.1279,8.9555,480.6632],[16.1107,8.9836,472.6165],[16.088,8.9856,464.6131],[16.0574,8.9839,421.1745],[16.0104,8.9865,387.3489]]]]}}