{"type": "Feature","bbox": [15.1099,9.7263,15.5683,9.997],"geometry": {"type": "MultiPolygon","coordinates": [[[[15.1446,9.9957,325.4451],[15.1404,9.9946,325.6754],[15.1428,9.9946,325.4776],[15.153,9.9396,322.8123],[15.1563,9.9042,325.8625],[15.1642,9.8603,326.8537],[15.1691,9.8489,327.3298],[15.1918,9.8307,326.2565],[15.1952,9.8072,328.6813],[15.194,9.7811,338.2774],[15.1895,9.7456,338.1606],[15.185,9.7269,340.4104],[15.2197,9.7263,341.4466],[15.2582,9.737,340.3015],[15.2849,9.7467,339.5845],[15.3529,9.7655,335.2945],[15.3986,9.7733,334.4644],[15.4353,9.7762,333.9669],[15.4722,9.776,335.3521],[15.4936,9.7905,333.4876],[15.5147,9.7966,332.8655],[15.5251,9.8054,334.3021],[15.5476,9.8392,334.0679],[15.5654,9.8737,336.9689],[15.5683,9.8901,336.3212],[15.555,9.8908,335.9237],[15.5376,9.8829,335.5978],[15.5248,9.869,335.6758],[15.5083,9.8565,333.3912],[15.4965,9.864,332.6651],[15.4991,9.8897,335.8669],[15.5102,9.9128,335.2517],[15.5218,9.95,334.3944],[15.4879,9.938,334.5981],[15.435,9.9333,335.146],[15.4248,9.9369,336.1317],[15.4133,9.9349,336.7717],[15.3641,9.962,337.2533],[15.2484,9.9915,327.9322],[15.2148,9.988,322.6547],[15.2093,9.9939,323.6416],[15.18,9.9885,325.4566],[15.1525,9.997,323.745],[15.1446,9.9957,325.4451]]],
[[[15.1099,9.9809,339.4048],[15.1115,9.9829,338.118],[15.1265,9.9908,329.0553],[15.1128,9.9867,337.834],[15.1099,9.9809,339.4048]]]]}
,"properties": {"GID_3": "TCD.14.3.4_1","GID_0": "TCD","country": "Chad","GID_1": "TCD.14_1","province": "Mayo-KebbiEst","NL_NAME_1": "NA","GID_2": "TCD.14.3_1","county": "MontIlli","NL_NAME_2": "NA","city": "Malboum/Hollom","VARNAME_3": "NA","NL_NAME_3": "NA","TYPE_3": "Sub-prefecture","ENGTYPE_3": "Sub-prefecture","CC_3": "NA","HASC_3": "NA","name": "Malboum_Hollom.city","area_km2": 886.5355,"hist_schema_id": "Elevation0-9000","hist_area_km2": {"325": 832.419,"350": 54.1165}}}