{"type":"Feature","properties":{"GID_3":"TCD.19.2.9_1","GID_0":"TCD","country":"Chad","GID_1":"TCD.19_1","province":"Sila","NL_NAME_1":"NA","GID_2":"TCD.19.2_1","county":"Sila","NL_NAME_2":"NA","city":"Signar","VARNAME_3":"NA","NL_NAME_3":"NA","TYPE_3":"Sub-prefecture","ENGTYPE_3":"Sub-prefecture","CC_3":"NA","HASC_3":"NA","name":"Signar.city"},
"geometry":{"type": "MultiPolygon","coordinates": [[[[22.303,11.829,700.7863],[22.347,11.792,756.2377],[22.398,11.774,665.4783],[22.471,11.756,637.9946],[22.567,11.7469,661.6403],[22.5976,11.8775,619.6995],[22.635,12.0268,601.137],[22.6391,12.0478,593.4768],[22.6381,12.0556,586.3914],[22.635,12.0578,586.6383],[22.611,12.0505,585.6654],[22.5864,12.0558,575.8605],[22.5771,12.0516,578.9459],[22.5638,12.051,570.5996],[22.5582,12.0537,569.3737],[22.5514,12.053,569.8398],[22.5312,12.045,567.5859],[22.5242,12.0392,567.0861],[22.5179,12.0371,568.0331],[22.5128,12.0319,569.0889],[22.4917,12.0205,563.9884],[22.4713,12.0194,564.3583],[22.4573,12.0264,562.1479],[22.4715,12.0297,561.8441],[22.4821,12.059,562.9],[22.4834,12.0703,563.5594],[22.4887,12.0804,564.0039],[22.4865,12.0921,564.9167],[22.4906,12.1124,565.2958],[22.4925,12.1485,566.335],[22.434,12.11,572.7404],[22.354,12.081,575.4559],[22.317,12.079,590.6523],[22.283,12.086,610.4684],[22.264,11.988,545.2479],[22.26,11.957,555.1495],[22.267,11.905,581.9553],[22.278,11.871,599.4816],[22.289,11.855,611.545],[22.303,11.829,700.7863]]]]}}