{"type":"Feature","properties":{"GID_3":"TCD.11.2.3_1","GID_0":"TCD","country":"Chad","GID_1":"TCD.11_1","province":"LogoneOccidental","NL_NAME_1":"NA","GID_2":"TCD.11.2_1","county":"LacWey","NL_NAME_2":"NA","city":"Biramanda","VARNAME_3":"NA","NL_NAME_3":"NA","TYPE_3":"Sub-prefecture","ENGTYPE_3":"Sub-prefecture","CC_3":"NA","HASC_3":"NA","name":"Biramanda.city"},
"geometry":{"type": "MultiPolygon","coordinates": [[[[16.1107,8.9836,472.6165],[16.1279,8.9555,480.6632],[16.1396,8.9213,522.0884],[16.1505,8.8999,512.1578],[16.1598,8.8769,512.7505],[16.1625,8.8626,517.2426],[16.1698,8.8724,523.6298],[16.1826,8.8768,529.9752],[16.2021,8.8807,524.8164],[16.2081,8.8786,517.5581],[16.2105,8.8912,527.04],[16.209,8.922,534.5343],[16.2057,8.9341,519.0082],[16.1852,8.9765,496.5606],[16.1762,9.0174,446.6942],[16.1642,9.0421,422.6937],[16.1542,9.0795,395.884],[16.133,9.083,390.2533],[16.1067,9.0941,391.8587],[16.1001,9.0763,397.681],[16.0967,9.0542,419.5189],[16.0983,9.0365,420.9317],[16.1035,9.0202,436.0689],[16.1107,8.9836,472.6165]]]]}}