{"type": "Feature","bbox": [15.9355,9.079,16.364,9.5183],"geometry": {"type": "MultiPolygon","coordinates": [[[[16.0494,9.1248,382.9832],[16.088,9.102,393.6171],[16.133,9.083,390.2533],[16.157,9.079,399.7266],[16.187,9.098,400.7762],[16.202,9.122,391.6862],[16.214,9.154,374.6972],[16.239,9.165,368.3464],[16.279,9.175,365.2005],[16.289,9.181,363.9789],[16.335,9.225,360.7455],[16.364,9.245,359.631],[16.3474,9.2836,358.4701],[16.314,9.317,357.1415],[16.2922,9.3507,356.6719],[16.2811,9.3646,356.0059],[16.2718,9.4052,351.9496],[16.2585,9.4321,353.8648],[16.2482,9.4481,353.4825],[16.2391,9.4678,349.0],[16.2371,9.4909,352.2605],[16.2248,9.5183,352.2408],[16.2071,9.506,351.3689],[16.1951,9.4937,351.0895],[16.1653,9.4724,351.6626],[16.1174,9.4107,354.7602],[16.0792,9.3732,357.399],[16.0242,9.3415,366.4898],[16.0044,9.3279,367.7561],[15.9936,9.3268,369.0356],[15.9842,9.3217,369.8806],[15.9627,9.2981,365.1801],[15.9563,9.2874,364.6811],[15.9459,9.28,368.7678],[15.9455,9.2707,370.9465],[15.938,9.2446,378.9211],[15.9377,9.2289,382.576],[15.9355,9.2203,388.3259],[15.9379,9.2112,389.3251],[15.9489,9.2068,389.0992],[15.9588,9.1913,395.8719],[15.9644,9.1782,390.0706],[15.9654,9.1622,371.1071],[15.962,9.1477,370.3616],[15.959,9.113,387.1385],[15.984,9.129,379.4662],[16.044,9.128,382.7423],[16.0494,9.1248,382.9832]]]]}
,"properties": {"GID_2": "TCD.20.1_1","GID_0": "TCD","country": "Chad","GID_1": "TCD.20_1","province": "Tandjilé","NL_NAME_1": "NA","county": "Béré","VARNAME_2": "Bere","NL_NAME_2": "NA","TYPE_2": "Department","ENGTYPE_2": "Department","CC_2": "NA","HASC_2": "TD.TA.BE","name": "Béré.county","area_km2": 1239.3017,"hist_schema_id": "Elevation0-9000","hist_area_km2": {"350": 565.4966,"375": 577.0755,"400": 96.7296}}}