{"type": "Feature","bbox": [22.2,12.079,22.4925,12.598],"geometry": {"type": "MultiPolygon","coordinates": [[[[22.283,12.086,610.4684],[22.317,12.079,590.6523],[22.354,12.081,575.4559],[22.434,12.11,572.7404],[22.4925,12.1485,566.335],[22.4862,12.1822,571.9489],[22.4831,12.1919,572.3965],[22.4772,12.2027,573.5967],[22.4755,12.2196,572.6979],[22.4656,12.2286,575.0827],[22.444,12.272,577.7491],[22.4426,12.2888,575.1906],[22.4257,12.3387,580.8741],[22.4257,12.3483,581.973],[22.4198,12.3561,580.8749],[22.4188,12.3607,585.0902],[22.4238,12.3789,585.8458],[22.4219,12.3878,585.2733],[22.4087,12.4016,587.1725],[22.3938,12.4203,589.3087],[22.388,12.4233,590.5554],[22.3781,12.4237,591.4955],[22.3751,12.426,595.132],[22.3718,12.4335,589.1506],[22.3721,12.4415,592.0913],[22.3954,12.4778,603.5391],[22.4074,12.4917,611.4884],[22.413,12.4952,618.2363],[22.4202,12.5091,619.9083],[22.4505,12.5937,680.2303],[22.425,12.598,687.1682],[22.378,12.593,652.0208],[22.328,12.594,643.0812],[22.287,12.553,614.0959],[22.247,12.459,675.9103],[22.229,12.404,734.9146],[22.208,12.379,798.9716],[22.2,12.336,723.8397],[22.209,12.314,656.0815],[22.253,12.262,631.6688],[22.248,12.226,622.1051],[22.232,12.189,608.6616],[22.219,12.171,585.2011],[22.214,12.137,569.8818],[22.252,12.106,608.6572],[22.283,12.086,610.4684]]]]}
,"properties": {"GID_3": "TCD.19.2.8_1","GID_0": "TCD","country": "Chad","GID_1": "TCD.19_1","province": "Sila","NL_NAME_1": "NA","GID_2": "TCD.19.2_1","county": "Sila","NL_NAME_2": "NA","city": "Ouadi-Kadja","VARNAME_3": "NA","NL_NAME_3": "NA","TYPE_3": "Sub-prefecture","ENGTYPE_3": "Sub-prefecture","CC_3": "NA","HASC_3": "NA","name": "Ouadi-Kadja.city","area_km2": 1179.9048,"hist_schema_id": "Elevation0-9000","hist_area_km2": {"575": 165.8897,"600": 376.585,"625": 264.5576,"650": 146.7345,"675": 85.5774,"700": 42.2026,"725": 19.591,"750": 15.1605,"775": 18.0396,"800": 12.7378,"825": 10.1698,"850": 8.0779,"875": 6.1309,"900": 4.8467,"925": 2.4855,"950": 0.9528,"975": 0.1657}}}