{"type":"Feature","properties":{"GID_3":"TCD.23.1.2_1","GID_0":"TCD","country":"Chad","GID_1":"TCD.23_1","province":"WadiFira","NL_NAME_1":"NA","GID_2":"TCD.23.1_1","county":"Biltine","NL_NAME_2":"NA","city":"Abou-Charib-Ii","VARNAME_3":"NA","NL_NAME_3":"NA","TYPE_3":"Sub-prefecture","ENGTYPE_3":"Sub-prefecture","CC_3":"NA","HASC_3":"NA","name":"Abou-Charib-Ii.city"},
"geometry":{"type": "MultiPolygon","coordinates": [[[[21.382,14.111,780.2016],[21.379,14.211,839.2744],[21.335,14.247,824.1636],[21.241,14.31,833.2869],[21.092,14.319,763.5981],[21.09,14.268,757.0784],[21.096,14.193,739.3364],[21.084,14.139,682.8083],[21.108,14.129,654.3206],[21.142,14.096,732.6277],[21.174,14.044,735.5714],[21.253,14.039,753.5449],[21.314,14.068,768.5224],[21.382,14.111,780.2016]]]]}}