{"type": "Feature","bbox": [15.7414,9.2751,15.8287,9.3647],"geometry": {"type": "MultiPolygon","coordinates": [[[[15.7711,9.3617,365.4711],[15.7583,9.3487,367.947],[15.7478,9.3423,372.4997],[15.7414,9.3259,384.3376],[15.755,9.2831,394.0411],[15.7618,9.2751,397.762],[15.7787,9.2761,392.2572],[15.8173,9.292,380.7905],[15.8287,9.2984,377.1154],[15.8237,9.3113,373.0739],[15.8237,9.3235,373.7237],[15.8261,9.3401,372.5284],[15.8243,9.3595,368.7418],[15.8099,9.3647,368.4117],[15.7975,9.3613,369.5464],[15.7711,9.3617,365.4711]]]]}
,"properties": {"GID_3": "TCD.20.3.2_1","GID_0": "TCD","country": "Chad","GID_1": "TCD.20_1","province": "Tandjilé","NL_NAME_1": "NA","GID_2": "TCD.20.3_1","county": "TandjiléOuest","NL_NAME_2": "NA","city": "Kelo","VARNAME_3": "NA","NL_NAME_3": "NA","TYPE_3": "Sub-prefecture","ENGTYPE_3": "Sub-prefecture","CC_3": "NA","HASC_3": "NA","name": "Kelo.city","area_km2": 71.76334,"hist_schema_id": "Elevation0-9000","hist_area_km2": {"375": 65.21406,"400": 6.54928}}}