{"type":"Feature","properties":{"GID_3":"TCD.12.4.1_1","GID_0":"TCD","country":"Chad","GID_1":"TCD.12_1","province":"LogoneOriental","NL_NAME_1":"NA","GID_2":"TCD.12.4_1","county":"Pendé","NL_NAME_2":"NA","city":"Beboto","VARNAME_3":"NA","NL_NAME_3":"NA","TYPE_3":"Sub-prefecture","ENGTYPE_3":"Sub-prefecture","CC_3":"NA","HASC_3":"NA","name":"Beboto.city"},
"geometry":{"type": "MultiPolygon","coordinates": [[[[16.6593,8.0168,409.1925],[16.6677,8.0016,436.7195],[16.7098,7.9641,474.1974],[16.738,7.9422,486.9333],[16.7908,7.9212,502.689],[16.8246,7.9217,489.6604],[16.8559,7.9273,462.7596],[16.8954,7.9424,505.8017],[16.9715,7.9569,489.4374],[17.0037,7.9597,462.6683],[17.0379,7.9559,478.8367],[17.165,7.9644,450.0337],[17.1981,7.9629,426.9897],[17.108,8.131,393.5346],[17.0829,8.1467,408.1649],[17.0591,8.1672,448.8899],[17.0243,8.2279,532.7679],[16.985,8.286,420.5774],[16.977,8.3174,413.5617],[16.9751,8.3578,404.6839],[16.9781,8.3982,399.105],[16.9746,8.4223,392.7928],[16.9569,8.4177,392.8331],[16.9375,8.4093,397.4562],[16.8697,8.4123,402.3232],[16.8425,8.4217,394.0097],[16.813,8.414,395.7145],[16.8012,8.4004,395.5036],[16.7821,8.3837,394.502],[16.7431,8.3342,402.4829],[16.7228,8.3019,400.2075],[16.7097,8.2755,404.5844],[16.6983,8.2367,395.6263],[16.6905,8.1977,406.457],[16.6771,8.151,400.5586],[16.6616,8.0705,407.9653],[16.6565,8.0338,405.2311],[16.6593,8.0168,409.1925]]]]}}