{"type":"Feature","properties":{"GID_3":"TCD.23.3.5_1","GID_0":"TCD","country":"Chad","GID_1":"TCD.23_1","province":"WadiFira","NL_NAME_1":"NA","GID_2":"TCD.23.3_1","county":"Kobé","NL_NAME_2":"NA","city":"Kobe-Nord-Ouest","VARNAME_3":"NA","NL_NAME_3":"NA","TYPE_3":"Sub-prefecture","ENGTYPE_3":"Sub-prefecture","CC_3":"NA","HASC_3":"NA","name":"Kobe-Nord-Ouest.city"},
"geometry":{"type": "MultiPolygon","coordinates": [[[[21.971,15.918,640.2643],[21.962,15.856,650.0502],[21.974,15.757,685.191],[21.984,15.7,734.6525],[21.956,15.65,717.5568],[21.932,15.596,713.1028],[21.945,15.534,689.5889],[22.006,15.469,743.41],[22.051,15.397,961.9553],[22.039,15.257,1038.9501],[22.072,15.186,997.3854],[22.115,15.085,926.8116],[22.114,15.001,964.6237],[22.079,14.905,976.9131],[22.157,14.795,962.8562],[22.238,14.698,978.5652],[22.217,14.797,972.5098],[22.237,14.894,953.83989999999994],[22.267,14.948,924.1243],[22.251,15.037,922.1553],[22.238,15.121,918.3546],[22.242,15.173,945.4744],[22.268,15.335,933.945],[22.266,15.501,1013.3465],[22.324,15.889,754.8015],[22.277,15.903,694.6256],[22.213,15.948,671.0042],[22.183,15.934,694.7401],[22.161,15.955,670.6326],[22.125,15.966,656.0295],[22.074,15.954,666.6024],[21.971,15.918,640.2643]]]]}}