{"type":"Feature","properties":{"GID_2":"TCD.11.1_1","GID_0":"TCD","country":"Chad","GID_1":"TCD.11_1","province":"LogoneOccidental","NL_NAME_1":"NA","county":"Dodjé","VARNAME_2":"Beinamar","NL_NAME_2":"NA","TYPE_2":"Department","ENGTYPE_2":"Department","CC_2":"NA","HASC_2":"TD.LO.DO","name":"Dodjé.county"},
"geometry":{"type": "MultiPolygon","coordinates": [[[[15.666,8.5757,432.1948],[15.6699,8.5971,424.0016],[15.6732,8.6024,428.8616],[15.6768,8.6171,436.1612],[15.7021,8.6643,423.9302],[15.7119,8.6799,439.3129],[15.7253,8.6933,447.8641],[15.7332,8.704,449.2393],[15.7441,8.7115,437.9657],[15.7697,8.7437,443.1909],[15.7817,8.7804,411.1766],[15.7788,8.7963,400.447],[15.7708,8.8203,391.0459],[15.7628,8.8341,394.5923],[15.753,8.8487,389.2476],[15.7349,8.8512,392.2323],[15.7111,8.8692,390.7148],[15.6998,8.8881,387.1127],[15.6705,8.9229,393.8196],[15.6081,8.9766,409.7332],[15.5945,8.994,426.2534],[15.5833,9.0132,422.518],[15.573,9.023,437.222],[15.441,9.061,430.1317],[15.387,9.033,457.7555],[15.394,8.988,428.5629],[15.365,8.937,435.7984],[15.357,8.87,437.597],[15.355,8.822,418.9467],[15.357,8.759,469.8202],[15.307,8.716,474.6984],[15.292,8.701,472.5769],[15.277,8.662,513.5436],[15.263,8.611,500.4311],[15.2664,8.542,531.0745],[15.2707,8.5179,531.1376],[15.2691,8.5002,547.1566],[15.2724,8.482,528.7414],[15.2805,8.4657,518.2931],[15.295,8.445,505.8051],[15.323,8.427,480.2214],[15.342,8.403,496.4581],[15.383,8.378,473.123],[15.417,8.37,477.928],[15.446,8.376,457.8954],[15.455,8.352,458.5453],[15.488,8.328,451.8398],[15.49,8.29,460.4266],[15.526,8.304,433.3526],[15.537,8.29,437.9861],[15.529,8.273,434.1033],[15.553,8.271,438.43],[15.581,8.281,466.2848],[15.5856,8.2964,479.2807],[15.5797,8.3614,517.3618],[15.585,8.4043,477.9656],[15.5982,8.4336,459.1729],[15.6112,8.4508,457.1255],[15.63,8.4651,432.6291],[15.662,8.4718,439.3647],[15.6775,8.4871,446.9113],[15.6769,8.5051,451.9366],[15.6553,8.5302,456.5999],[15.666,8.5757,432.1948]]]]}}