{"type": "Feature","bbox": [18.706,13.102,19.446,13.769],"geometry": {"type": "MultiPolygon","coordinates": [[[[19.446,13.516,373.3301],[19.441,13.65,370.3167],[19.416,13.669,369.1869],[19.297,13.737,364.8822],[19.229,13.761,360.7022],[19.166,13.769,357.7456],[19.164,13.724,360.2904],[19.158,13.674,359.301],[19.157,13.62,361.1139],[19.129,13.512,359.4435],[19.113,13.481,359.4317],[19.089,13.449,359.3134],[19.08,13.411,358.5103],[19.062,13.375,359.5117],[19.021,13.398,357.1619],[18.983,13.388,356.3456],[18.933,13.395,353.8954],[18.846,13.423,349.3728],[18.766,13.331,346.8111],[18.722,13.297,344.9528],[18.714,13.256,343.5564],[18.706,13.229,342.674],[18.736,13.179,344.1618],[18.774,13.163,345.4586],[18.796,13.146,346.895],[18.844,13.115,347.791],[18.868,13.122,349.4478],[18.903,13.114,350.0274],[18.998,13.121,352.0395],[19.031,13.102,359.938],[19.061,13.126,358.1055],[19.119,13.144,366.8882],[19.177,13.165,363.0837],[19.239,13.215,365.3509],[19.29,13.247,367.7676],[19.307,13.294,368.1715],[19.309,13.354,370.0532],[19.35,13.426,370.4694],[19.39,13.488,370.6755],[19.422,13.507,371.5783],[19.446,13.516,373.3301]]]]}
,"properties": {"GID_3": "TCD.2.1.6_1","GID_0": "TCD","country": "Chad","GID_1": "TCD.2_1","province": "Batha","NL_NAME_1": "NA","GID_2": "TCD.2.1_1","county": "BathaEst","NL_NAME_2": "NA","city": "Sedamis-Mr-Mn-Assine","VARNAME_3": "NA","NL_NAME_3": "NA","TYPE_3": "Sub-prefecture","ENGTYPE_3": "Sub-prefecture","CC_3": "NA","HASC_3": "NA","name": "Sedamis-Mr-Mn-Assine.city","area_km2": 2801.427,"hist_schema_id": "Elevation0-9000","hist_area_km2": {"350": 1640.402,"375": 1161.025}}}