{"type":"Feature","properties":{"GID_3":"TCD.14.1.6_1","GID_0":"TCD","country":"Chad","GID_1":"TCD.14_1","province":"Mayo-KebbiEst","NL_NAME_1":"NA","GID_2":"TCD.14.1_1","county":"Kabbia","NL_NAME_2":"NA","city":"Leo-Mbassa","VARNAME_3":"NA","NL_NAME_3":"NA","TYPE_3":"Sub-prefecture","ENGTYPE_3":"Sub-prefecture","CC_3":"NA","HASC_3":"NA","name":"Leo-Mbassa.city"},
"geometry":{"type": "MultiPolygon","coordinates": [[[[15.5696,9.668,342.5142],[15.5719,9.6549,343.5141],[15.584,9.6399,344.2687],[15.5956,9.6286,344.3112],[15.6162,9.6157,346.3352],[15.6206,9.6109,346.798],[15.6239,9.6014,350.3168],[15.6302,9.5932,351.1996],[15.6347,9.5788,351.9413],[15.6426,9.567,352.4217],[15.6537,9.558,356.187],[15.6782,9.5533,356.8437],[15.682,9.586,350.418],[15.714,9.602,348.4015],[15.727,9.676,338.456],[15.755,9.708,339.6074],[15.7938,9.7247,340.7392],[15.7844,9.7504,340.2831],[15.7826,9.7626,341.0471],[15.7854,9.797,339.6891],[15.8006,9.8108,339.4628],[15.8156,9.8193,339.6094],[15.8,9.8304,338.9848],[15.7938,9.8328,338.61],[15.791,9.8396,338.515],[15.7761,9.8454,338.5419],[15.7712,9.8501,338.4842],[15.7655,9.8526,338.4025],[15.7537,9.8414,338.4355],[15.7419,9.8355,338.9403],[15.7249,9.816,338.7702],[15.7006,9.8007,338.8094],[15.6838,9.7975,337.9337],[15.655,9.7866,337.1435],[15.6372,9.7881,336.4828],[15.6238,9.7851,336.0833],[15.6137,9.7424,334.2524],[15.6025,9.7131,338.0832],[15.5962,9.7041,338.1292],[15.5822,9.6901,340.0535],[15.5696,9.668,342.5142]]]]}}