{"type":"Feature","properties":{"GID_3":"TCD.23.2.3_1","GID_0":"TCD","country":"Chad","GID_1":"TCD.23_1","province":"WadiFira","NL_NAME_1":"NA","GID_2":"TCD.23.2_1","county":"DarTama","NL_NAME_2":"NA","city":"Djimeze","VARNAME_3":"NA","NL_NAME_3":"NA","TYPE_3":"Sub-prefecture","ENGTYPE_3":"Sub-prefecture","CC_3":"NA","HASC_3":"NA","name":"Djimeze.city"},
"geometry":{"type": "MultiPolygon","coordinates": [[[[22.2096,13.916,1023.1913],[22.2319,13.9474,1077.9568],[22.2635,13.9635,1086.4592],[22.2917,13.9748,1118.4348],[22.32,14.0045,1157.1252],[22.3281,14.011,1138.4257],[22.3519,14.0172,1139.1527],[22.355,14.039,1116.5254],[22.316,14.106,1116.1603],[22.248,14.151,1036.8701],[22.206,14.2,1097.5249],[22.161,14.174,1044.7443],[22.086,14.184,1046.7478],[22.027,14.121,1018.0313],[21.983,14.002,930.0735],[22.018,13.989,916.128],[22.089,13.968,933.8953],[22.13,13.947,953.6545],[22.172,13.918,958.5833],[22.2096,13.916,1023.1913]]]]}}