{"type": "Feature","bbox": [20.9732,10.7639,22.465,11.704],"geometry": {"type": "MultiPolygon","coordinates": [[[[22.465,10.9951,481.4527],[22.163,11.634,553.8942],[22.02,11.658,528.8553],[21.949,11.704,514.0073],[21.561,11.627,487.4825],[21.4015,11.5999,484.5715],[21.3903,11.5331,480.7924],[21.3801,11.5024,478.1026],[21.3743,11.4746,476.6377],[21.3653,11.4594,475.9853],[21.3417,11.4306,475.4543],[21.3163,11.3938,471.4113],[21.2834,11.3561,468.223],[21.2538,11.3284,466.1643],[21.2063,11.2624,464.2861],[21.1686,11.2165,461.9894],[21.1498,11.1902,460.5155],[21.1378,11.1624,460.7797],[21.1143,11.1189,457.5855],[21.0815,11.0639,453.8193],[21.0716,11.032,451.5992],[21.0369,10.9507,447.8792],[21.003,10.8879,444.0115],[20.9763,10.782,439.6766],[20.9732,10.7639,439.8692],[21.0,10.7665,439.118],[21.0385,10.7893,440.1562],[21.102,10.8203,442.8553],[21.1679,10.8421,444.4278],[21.2521,10.885,447.5737],[21.3274,10.9213,448.895],[21.4382,10.9408,451.7592],[21.4969,10.9388,451.7721],[21.5573,10.9226,450.84],[21.6255,10.9193,450.9136],[21.6401,10.9146,450.2231],[21.714,10.9113,449.7635],[21.7682,10.9123,449.0986],[21.8308,10.9156,449.0778],[22.0402,10.9495,456.0592],[22.074,10.9343,456.092],[22.1561,10.8789,462.0403],[22.1587,10.8807,462.0732],[22.1747,10.8838,462.6736],[22.1828,10.9001,463.3495],[22.1955,10.9086,464.7236],[22.2224,10.9128,466.309],[22.2363,10.9176,466.7923],[22.2453,10.9255,465.7035],[22.2513,10.9262,466.4196],[22.2656,10.923,468.0549],[22.2822,10.9306,468.4126],[22.2898,10.9314,468.6702],[22.2982,10.9358,469.0786],[22.313,10.9442,470.7499],[22.3237,10.9544,472.1685],[22.3269,10.9558,472.6139],[22.356,10.9564,472.9421],[22.3702,10.9584,474.2619],[22.3766,10.9694,474.8918],[22.3843,10.9619,475.3578],[22.4024,10.9708,477.3496],[22.4136,10.9717,474.6933],[22.4243,10.9707,477.0366],[22.4308,10.9744,477.6395],[22.4333,10.9813,477.4353],[22.4428,10.9885,477.675],[22.4566,10.9879,475.3889],[22.465,10.9951,481.4527]]]]}
,"properties": {"GID_3": "TCD.18.3.1_1","GID_0": "TCD","country": "Chad","GID_1": "TCD.18_1","province": "Salamat","NL_NAME_1": "NA","GID_2": "TCD.18.3_1","county": "HarazeMangueigne","NL_NAME_2": "NA","city": "Doudeye","VARNAME_3": "NA","NL_NAME_3": "NA","TYPE_3": "Sub-prefecture","ENGTYPE_3": "Sub-prefecture","CC_3": "NA","HASC_3": "NA","name": "Doudeye.city","area_km2": 9934.278,"hist_schema_id": "Elevation0-9000","hist_area_km2": {"450": 3403.065,"475": 3818.985,"500": 1906.034,"525": 708.056,"550": 84.7,"575": 8.993,"600": 2.721,"625": 1.371,"650": 0.249}}}