{"type":"Feature","properties":{"GID_3":"TCD.18.2.8_1","GID_0":"TCD","country":"Chad","GID_1":"TCD.18_1","province":"Salamat","NL_NAME_1":"NA","GID_2":"TCD.18.2_1","county":"BarhAzoum","NL_NAME_2":"NA","city":"Salamat-Am-Timan","VARNAME_3":"NA","NL_NAME_3":"NA","TYPE_3":"Sub-prefecture","ENGTYPE_3":"Sub-prefecture","CC_3":"NA","HASC_3":"NA","name":"Salamat-Am-Timan.city"},
"geometry":{"type": "MultiPolygon","coordinates": [[[[19.703,10.588,406.3282],[19.635,10.289,404.1219],[19.692,10.267,400.4955],[19.681,10.213,400.1369],[19.648,10.156,397.7988],[19.654,10.097,398.7444],[19.613,10.067,396.4634],[19.681,9.962,393.9996],[19.6984,9.9121,392.3088],[19.727,9.9179,393.0842],[19.7726,9.9304,395.9817],[19.8325,9.9584,395.0765],[19.8749,9.9677,397.2239],[19.9197,9.9729,398.7906],[19.9802,9.9868,400.4309],[19.9999,9.9806,398.9891],[20.0311,9.9753,399.2697],[20.0549,9.9815,403.3517],[20.0818,9.9762,402.3128],[20.1091,9.9864,399.7737],[20.1459,10.0094,395.0913],[20.1589,10.1503,404.4606],[20.1612,10.2298,407.4744],[20.1691,10.2671,407.6776],[20.1809,10.3081,408.8881],[20.2146,10.3855,410.8604],[20.2311,10.412,413.7117],[20.2406,10.4845,416.6111],[20.2499,10.5146,417.8589],[20.2619,10.563,420.0321],[20.2621,10.5917,422.5451],[20.2659,10.6291,421.1217],[20.2764,10.6634,421.9099],[20.318,10.759,425.6382],[20.3543,10.8176,428.247],[20.3596,10.8403,429.7427],[20.3758,10.8678,431.5772],[20.4131,10.8913,433.7482],[20.4334,10.9124,433.8264],[20.4382,10.9459,435.6924],[20.4396,10.9721,434.5713],[20.4237,11.0016,437.7183],[20.3999,11.0278,438.0134],[20.351,11.0312,433.8767],[20.2981,11.0176,434.0075],[20.2505,11.0176,430.8382],[20.2096,11.029,428.1522],[20.1699,11.0449,427.0402],[20.1293,11.0641,427.0938],[20.1066,11.0669,425.8677],[20.0909,11.081,426.0565],[20.0652,11.0881,424.4951],[20.0541,11.1012,426.1597],[20.0465,11.119,425.4001],[20.0129,11.1187,425.5287],[19.93,11.0764,421.1754],[19.8806,11.0464,420.8948],[19.8507,11.0386,418.1381],[19.8029,11.0154,417.1644],[19.7624,11.0013,417.7283],[19.694,11.001,417.0071],[19.706,10.942,417.922],[19.737,10.911,415.1917],[19.707,10.873,414.8757],[19.726,10.717,411.8536],[19.703,10.588,406.3282]]]]}}