{"type": "Feature","bbox": [19.694,11.001,20.1647,11.3231],"geometry": {"type": "MultiPolygon","coordinates": [[[[19.694,11.001,417.0071],[19.7624,11.0013,417.7283],[19.8029,11.0154,417.1644],[19.8507,11.0386,418.1381],[19.8806,11.0464,420.8948],[19.93,11.0764,421.1754],[20.0129,11.1187,425.5287],[20.0465,11.119,425.4001],[20.0661,11.1248,427.1936],[20.0897,11.136,427.9138],[20.1426,11.1652,431.5939],[20.1594,11.1786,429.6739],[20.1647,11.1948,430.4515],[20.1519,11.2195,427.4196],[20.15,11.2444,427.2462],[20.1239,11.2974,430.5741],[20.1183,11.3231,428.0617],[20.0386,11.3068,425.8782],[19.9932,11.2924,426.1198],[19.9484,11.2895,423.7387],[19.9075,11.2793,423.7349],[19.8193,11.2478,419.4053],[19.7822,11.231,430.3795],[19.7569,11.2092,429.8474],[19.7189,11.1632,420.5206],[19.7072,11.1431,419.8845],[19.7035,11.1081,416.6111],[19.702,11.074,416.3333],[19.6973,11.0476,420.0211],[19.694,11.001,417.0071]]]]}
,"properties": {"GID_3": "TCD.18.1.3_1","GID_0": "TCD","country": "Chad","GID_1": "TCD.18_1","province": "Salamat","NL_NAME_1": "NA","GID_2": "TCD.18.1_1","county": "Aboudeïa","NL_NAME_2": "NA","city": "Torom","VARNAME_3": "NA","NL_NAME_3": "NA","TYPE_3": "Sub-prefecture","ENGTYPE_3": "Sub-prefecture","CC_3": "NA","HASC_3": "NA","name": "Torom.city","area_km2": 1060.1308,"hist_schema_id": "Elevation0-9000","hist_area_km2": {"425": 1060.1308}}}