{"type":"Feature","properties":{"GID_3":"TCD.3.1.1_1","GID_0":"TCD","country":"Chad","GID_1":"TCD.3_1","province":"Borkou","NL_NAME_1":"NA","GID_2":"TCD.3.1_1","county":"Borkou","NL_NAME_2":"NA","city":"Borkou","VARNAME_3":"NA","NL_NAME_3":"NA","TYPE_3":"Sub-prefecture","ENGTYPE_3":"Sub-prefecture","CC_3":"NA","HASC_3":"NA","name":"Borkou.city"},
"geometry":{"type": "MultiPolygon","coordinates": [[[[18.051,15.476,254.0689],[18.143,15.414,269.2956],[18.238,15.363,279.404],[18.341,15.328,293.9366],[18.497,15.309,308.1888],[18.651,15.314,332.1689],[18.801,15.354,336.8184],[18.926,15.415,347.5593],[19.027,15.488,347.4782],[19.09,15.545,348.2359],[19.1561,15.6291,351.988],[19.2191,15.7361,352.3477],[19.2531,15.8291,352.2906],[19.2701,15.9161,356.5922],[19.2811,16.0091,358.307],[19.2741,16.097,347.8762],[19.355,16.109,351.312],[19.402,16.081,350.8624],[19.433,16.007,362.2748],[19.483,15.92,362.0444],[19.559,15.843,368.4338],[19.626,15.827,373.6362],[19.705,15.816,378.4165],[19.749,15.813,377.6882],[19.865,15.773,388.1422],[20.043,15.742,393.0444],[20.112,15.719,397.2021],[20.251,15.63,404.9103],[20.319,15.617,409.7734],[20.399,15.64,412.6974],[20.497,15.655,420.9565],[20.549,15.628,426.6444],[20.602,15.618,428.2954],[20.658,15.639,430.84],[20.709,15.679,444.9107],[20.7921,15.7381,463.3744],[20.8341,15.7441,467.7765],[20.3851,16.7091,421.494],[20.5231,17.9341,404.2599],[20.2071,18.7451,400.5604],[20.0931,19.1741,443.2781],[21.0076,21.0436,564.2315],[20.6688,21.2101,594.3098],[20.4856,21.3023,644.9282],[20.3507,21.3735,630.0274],[19.0711,21.9987,1718.2142],[18.9741,21.9761,1956.854],[18.9171,21.9361,1773.7094],[18.9161,21.8851,1736.8164],[18.888,21.839,1758.1405],[18.864,21.839,1762.7856],[18.7991,21.7331,1809.8623],[18.7821,21.7121,1806.927],[18.7911,21.6671,1759.97],[18.7681,21.6051,1699.9651],[18.7641,21.4461,1578.3579],[18.7501,21.3901,1987.6659],[18.677,21.336,2626.4155],[18.6181,21.295,2060.969],[18.575,21.227,2109.8633],[18.504,21.167,2342.2852],[18.458,21.16,2386.1436],[18.408,21.138,2354.4185],[18.376,21.11,2206.2332],[18.327,21.111,2131.6252],[18.253,21.104,1926.7617],[18.176,21.086,1682.7637],[18.117,21.062,1802.8074],[18.0591,21.0261,1706.184],[18.026,20.984,1530.5278],[17.984,20.9,1630.9253],[17.9591,20.8701,1997.6078],[17.8931,20.8311,1932.153],[17.8491,20.7981,2300.8765],[17.8051,20.7411,2321.0889],[17.7971,20.6981,1839.3116],[17.8161,20.6091,1138.4313],[17.8521,20.5641,1119.1786],[17.8941,20.5341,1087.5706],[17.9361,20.4261,972.9066],[17.9531,20.3651,976.3228],[17.9271,20.3301,1057.8373],[17.9171,20.2551,968.831],[17.9471,20.2011,1015.2852],[17.9561,20.1261,1021.9089],[17.9791,20.0621,918.6017],[17.9771,20.0031,816.2998],[17.9551,19.9541,766.4766],[17.923,19.909,1057.3027],[17.865,19.879,1500.9082],[17.822,19.94,837.5638],[17.784,19.969,971.468],[17.749,20.005,966.0681],[17.724,20.083,970.3022],[17.654,20.128,1077.401],[17.624,20.192,1019.6205],[17.582,20.205,1112.9058],[17.541,20.248,1128.7375],[17.518,20.326,1352.9026],[17.522,20.384,1558.095],[17.574,20.428,1402.4152],[17.593,20.454,1342.0532],[17.593,20.509,1796.0944],[17.527,20.552,2367.6191],[17.482,20.573,2909.1453],[17.442,20.555,1989.177],[17.4061,20.4891,1333.9846],[17.3891,20.3351,1106.1436],[17.3451,20.2551,1028.7297],[17.2411,20.0531,1003.2633],[15.5135,17.0755,276.7193],[15.5129,17.0431,274.1104],[15.5099,17.0095,271.6193],[15.5107,16.9869,265.8889],[15.5083,16.9737,268.7989],[15.5093,16.9667,275.7184],[15.5055,16.8979,274.239],[15.4532,16.8433,279.9142],[16.687,16.242,255.6402],[17.842,15.746,278.6995],[17.865,15.702,276.4281],[17.967,15.558,279.7372],[18.051,15.476,254.0689]]]]}}