{"type":"Feature","properties":{"GID_3":"TCD.15.2.4_1","GID_0":"TCD","country":"Chad","GID_1":"TCD.15_1","province":"Mayo-KebbiOuest","NL_NAME_1":"NA","GID_2":"TCD.15.2_1","county":"Mayo-Dallah","NL_NAME_2":"NA","city":"Gagal","VARNAME_3":"NA","NL_NAME_3":"NA","TYPE_3":"Sub-prefecture","ENGTYPE_3":"Sub-prefecture","CC_3":"NA","HASC_3":"NA","name":"Gagal.city"},
"geometry":{"type": "MultiPolygon","coordinates": [[[[15.1345,9.3668,475.9366],[15.1226,9.3608,468.162],[15.0979,9.3536,479.4963],[15.0774,9.3577,476.9692],[15.0492,9.3429,492.4807],[15.0311,9.3355,461.9014],[15.021,9.319,487.7601],[15.0157,9.2913,459.4061],[14.992,9.2343,413.0433],[15.0073,9.2128,411.4284],[15.0192,9.1901,416.5999],[15.0344,9.1741,415.1238],[15.0312,9.1555,401.383],[15.0244,9.135,391.2113],[15.0096,9.1059,381.6588],[15.0023,9.0868,393.5521],[14.9824,9.0511,392.7897],[14.9746,9.0303,378.9164],[14.9495,8.9849,378.2969],[14.967,8.9785,390.0709],[15.0172,8.9691,378.4668],[15.0718,8.9649,382.2178],[15.0961,8.9647,390.64],[15.1286,8.9589,425.7159],[15.1522,8.9588,427.5748],[15.1829,8.9555,462.0168],[15.2523,8.9542,443.3597],[15.2337,9.0053,431.9814],[15.2296,9.0494,415.0922],[15.2336,9.0712,402.226],[15.262,9.1274,393.4832],[15.2717,9.1524,383.3553],[15.2793,9.1667,398.1898],[15.3316,9.2446,456.2577],[15.27,9.2713,471.4812],[15.2445,9.2947,498.9261],[15.1818,9.3246,511.4901],[15.1378,9.3574,485.7635],[15.1345,9.3668,475.9366]]]]}}