{"type":"Feature","properties":{"GID_3":"TCD.15.2.5_1","GID_0":"TCD","country":"Chad","GID_1":"TCD.15_1","province":"Mayo-KebbiOuest","NL_NAME_1":"NA","GID_2":"TCD.15.2_1","county":"Mayo-Dallah","NL_NAME_2":"NA","city":"Gouey-Goudoum","VARNAME_3":"NA","NL_NAME_3":"NA","TYPE_3":"Sub-prefecture","ENGTYPE_3":"Sub-prefecture","CC_3":"NA","HASC_3":"NA","name":"Gouey-Goudoum.city"},
"geometry":{"type": "MultiPolygon","coordinates": [[[[15.0708,9.5604,373.9364],[15.0577,9.5633,373.5349],[15.0487,9.5716,366.3104],[15.0412,9.5854,375.6231],[15.0362,9.5911,365.9734],[15.0272,9.5965,366.5066],[15.026,9.5995,363.9825],[15.0284,9.6101,357.0199],[15.0381,9.6183,350.911],[15.0466,9.6292,369.4775],[15.0472,9.6423,381.6293],[15.0446,9.6494,377.2192],[15.034,9.6615,368.6919],[15.0179,9.6656,357.9576],[14.9982,9.6742,355.4137],[14.9898,9.683,354.0428],[14.9865,9.6532,353.3889],[14.9821,9.6432,364.9047],[14.9788,9.6302,372.9642],[14.9721,9.6145,387.1037],[14.9638,9.6069,389.3159],[14.9596,9.6001,396.6116],[14.955,9.5711,395.1523],[14.9578,9.538,381.5006],[14.9561,9.5301,380.1423],[14.9511,9.5269,385.6212],[14.9488,9.5185,384.6952],[14.942,9.5145,392.4615],[14.9427,9.509,389.4157],[14.9412,9.5029,386.5312],[14.9552,9.4998,393.5007],[14.9708,9.5004,383.0289],[14.9839,9.4948,394.9425],[14.9949,9.4869,405.65],[15.0124,9.4792,410.3496],[15.0393,9.471,418.4715],[15.0508,9.4747,407.2229],[15.0921,9.4774,419.972],[15.0886,9.4813,416.0354],[15.086,9.4969,405.8676],[15.0881,9.5212,395.0623],[15.0808,9.5418,381.2709],[15.0742,9.5518,371.6434],[15.0708,9.5604,373.9364]]]]}}