{"type": "Feature","bbox": [15.9287,7.9367,16.3271,8.2814],"geometry": {"type": "MultiPolygon","coordinates": [[[[16.2037,7.9367,462.7011],[16.2089,7.9454,456.8951],[16.232,7.9634,466.1423],[16.241,7.9673,464.5343],[16.2589,7.9793,475.3866],[16.2932,8.0098,458.3032],[16.2913,8.0271,459.9144],[16.3001,8.0813,485.2726],[16.3034,8.0915,492.2568],[16.3148,8.1056,510.9387],[16.3248,8.1235,529.2178],[16.3271,8.1337,533.9535],[16.3161,8.1906,463.3073],[16.3066,8.2097,453.4341],[16.3014,8.2277,448.4703],[16.2433,8.25,534.9327],[16.2166,8.2628,523.7855],[16.1797,8.2744,510.2902],[16.1487,8.2814,511.8911],[16.1012,8.2758,520.6023],[16.0747,8.2628,494.4016],[16.0271,8.2599,444.4215],[15.9459,8.2748,424.6478],[15.9418,8.2616,443.5267],[15.9369,8.2556,451.807],[15.9303,8.2396,443.8459],[15.934,8.1895,463.8262],[15.9396,8.1536,455.0623],[15.9402,8.1283,458.0139],[15.9375,8.1016,431.3086],[15.9287,8.0605,480.9183],[15.9314,8.0561,486.2335],[15.9418,8.0508,487.0121],[15.9665,8.0558,483.8951],[15.9945,8.0667,465.257],[16.0167,8.0616,511.887],[16.0467,8.0323,511.2149],[16.0707,7.9918,494.9254],[16.0824,7.9803,497.1077],[16.1058,7.9749,505.0593],[16.1478,7.9747,466.5781],[16.1694,7.9649,463.7087],[16.2037,7.9367,462.7011]]]]}
,"properties": {"GID_3": "TCD.12.2.3_1","GID_0": "TCD","country": "Chad","GID_1": "TCD.12_1","province": "LogoneOriental","NL_NAME_1": "NA","GID_2": "TCD.12.2_1","county": "MontsdeLam","NL_NAME_2": "NA","city": "Gadjibian","VARNAME_3": "NA","NL_NAME_3": "NA","TYPE_3": "Sub-prefecture","ENGTYPE_3": "Sub-prefecture","CC_3": "NA","HASC_3": "NA","name": "Gadjibian.city","area_km2": 1199.925,"hist_schema_id": "Elevation0-9000","hist_area_km2": {"425": 8.6248,"450": 137.4735,"475": 303.141,"500": 219.7844,"525": 204.8458,"550": 186.27,"575": 116.1516,"600": 23.508,"625": 0.1259}}}