{"type":"Feature","properties":{"GID_3":"TCD.7.3.2_1","GID_0":"TCD","country":"Chad","GID_1":"TCD.7_1","province":"Guéra","NL_NAME_1":"NA","GID_2":"TCD.7.3_1","county":"Guéra","NL_NAME_2":"NA","city":"Dekakire","VARNAME_3":"NA","NL_NAME_3":"NA","TYPE_3":"Sub-prefecture","ENGTYPE_3":"Sub-prefecture","CC_3":"NA","HASC_3":"NA","name":"Dekakire.city"},
"geometry":{"type": "MultiPolygon","coordinates": [[[[17.329,11.075,337.7805],[17.345,11.029,339.2904],[17.36,10.935,337.9415],[17.363,10.795,342.2492],[17.406,10.834,342.5201],[17.429,10.904,343.6916],[17.457,10.932,340.8443],[17.499,10.997,341.4781],[17.54,11.076,343.2578],[17.56,11.148,340.882],[17.548,11.223,345.2467],[17.548,11.26,347.2093],[17.54,11.284,348.202],[17.515,11.281,346.905],[17.506,11.291,345.8784],[17.496,11.284,344.9143],[17.481,11.285,345.2556],[17.469,11.302,344.0112],[17.458,11.312,343.6637],[17.451,11.326,343.0374],[17.432,11.328,341.9019],[17.404,11.314,341.5495],[17.389,11.319,338.5713],[17.372,11.313,338.0424],[17.347,11.315,337.3043],[17.336,11.31,336.8159],[17.311,11.304,335.3646],[17.305,11.23,336.3217],[17.329,11.075,337.7805]]]]}}