{"type": "Feature","bbox": [14.8516,8.6331,15.1958,8.9849],"geometry": {"type": "MultiPolygon","coordinates": [[[[15.0677,8.6729,445.315],[15.0794,8.6705,458.1422],[15.1069,8.6734,461.0599],[15.1569,8.6472,454.6396],[15.1742,8.6331,464.4758],[15.1781,8.6428,463.8103],[15.1863,8.6532,472.6755],[15.1958,8.6805,488.8119],[15.195,8.6932,502.9122],[15.1909,8.7109,479.0621],[15.1724,8.7585,494.0266],[15.1704,8.7759,461.9493],[15.1863,8.8093,480.7657],[15.1896,8.8217,483.7885],[15.1938,8.8589,475.5179],[15.1919,8.8752,483.8511],[15.1854,8.8864,450.7414],[15.1684,8.9006,426.8967],[15.1399,8.9107,407.0129],[15.1217,8.9212,410.7091],[15.1096,8.9256,393.4317],[15.1087,8.9358,395.5459],[15.1013,8.9496,393.1201],[15.0961,8.9647,390.64],[15.0718,8.9649,382.2178],[15.0172,8.9691,378.4668],[14.967,8.9785,390.0709],[14.9495,8.9849,378.2969],[14.9477,8.9764,371.562],[14.9425,8.9681,377.3606],[14.9356,8.9617,384.2674],[14.9145,8.9265,442.2706],[14.8872,8.8919,435.2201],[14.8829,8.8872,431.0223],[14.8641,8.8767,408.8976],[14.8516,8.8765,418.752],[14.8546,8.8199,358.0038],[14.8579,8.8218,365.1081],[14.8646,8.8174,363.8143],[14.8708,8.8236,361.591],[14.8758,8.8246,379.9657],[14.879,8.8195,365.0506],[14.8823,8.8232,370.2256],[14.8887,8.8185,364.8093],[14.9014,8.8135,363.888],[14.9047,8.8016,364.8307],[14.908,8.7982,368.2522],[14.9078,8.7957,372.0941],[14.9116,8.7939,374.1813],[14.912,8.7909,373.8576],[14.9257,8.7786,376.2851],[14.9197,8.7709,383.8385],[14.9129,8.7669,382.8443],[14.9126,8.7649,386.22],[14.9219,8.7554,387.3432],[14.9361,8.7549,386.2427],[14.9405,8.7583,392.4181],[14.9469,8.7577,393.3799],[14.9515,8.7548,390.2838],[14.9586,8.7463,384.59],[14.9639,8.7436,385.1972],[14.9744,8.7423,389.5079],[14.9839,8.7359,392.2096],[14.9906,8.7271,392.3101],[14.9912,8.7157,393.72],[14.9864,8.7076,401.5413],[14.9879,8.7031,412.4683],[14.984,8.6999,417.3531],[14.9848,8.6978,415.9062],[14.982,8.6895,421.905],[15.0054,8.6898,448.9318],[15.0131,8.6861,436.1092],[15.0236,8.6851,438.0503],[15.0322,8.6776,437.8232],[15.0369,8.6757,434.9542],[15.0469,8.6788,444.019],[15.0591,8.6798,437.7325],[15.0677,8.6729,445.315]]]]}
,"properties": {"GID_3": "TCD.15.2.11_1","GID_0": "TCD","country": "Chad","GID_1": "TCD.15_1","province": "Mayo-KebbiOuest","NL_NAME_1": "NA","GID_2": "TCD.15.2_1","county": "Mayo-Dallah","NL_NAME_2": "NA","city": "Salamata","VARNAME_3": "NA","NL_NAME_3": "NA","TYPE_3": "Sub-prefecture","ENGTYPE_3": "Sub-prefecture","CC_3": "NA","HASC_3": "NA","name": "Salamata.city","area_km2": 917.189,"hist_schema_id": "Elevation0-9000","hist_area_km2": {"350": 0.0629,"375": 43.4876,"400": 197.4001,"425": 248.2971,"450": 224.3399,"475": 165.6921,"500": 37.9094}}}