{"type":"Feature","properties":{"GID_2":"TCD.8.1_1","GID_0":"TCD","country":"Chad","GID_1":"TCD.8_1","province":"Hadjer-Lamis","NL_NAME_1":"NA","county":"Dababa","VARNAME_2":"Bokoro","NL_NAME_2":"NA","TYPE_2":"Department","ENGTYPE_2":"Department","CC_2":"NA","HASC_2":"TD.HD.DB","name":"Dababa.county"},
"geometry":{"type": "MultiPolygon","coordinates": [[[[17.17,11.552,329.2622],[17.335,11.472,334.7028],[17.378,11.539,336.1009],[17.425,11.586,338.4037],[17.487,11.632,349.4591],[17.545,11.672,357.7475],[17.619,11.679,349.8398],[17.68,11.68,358.85],[17.634,11.796,350.3899],[17.578,11.871,346.9734],[17.545,11.911,336.3253],[17.542,11.95,336.4068],[17.576,12.04,334.7657],[17.598,12.125,335.4867],[17.552,12.133,328.4498],[17.504,12.158,319.8728],[17.446,12.155,317.6791],[17.411,12.184,315.6617],[17.408,12.229,312.0338],[17.388,12.27,306.7254],[17.34,12.3,304.9272],[17.31,12.346,302.7043],[17.295,12.406,299.3244],[17.293,12.487,297.0349],[17.254,12.501,295.9987],[17.15,12.609,295.0515],[17.113,12.735,290.3555],[17.092,12.783,289.5598],[17.054,12.816,289.5462],[17.016,12.832,289.6426],[16.974,12.857,288.722],[16.958,12.88,288.6144],[16.997,12.937,288.4872],[17.077,13.007,287.8844],[17.13,13.046,287.5225],[17.161,13.099,288.7693],[17.101,13.133,288.6976],[17.063,13.137,289.6341],[17.024,13.157,289.636],[16.997,13.137,288.3198],[16.9,13.109,289.1455],[16.846,13.136,288.6379],[16.787,13.111,288.475],[16.762,13.09,288.1464],[16.547,13.07,286.9514],[16.493,13.055,287.8038],[16.468,13.034,286.8527],[16.425,13.044,288.1811],[16.361,13.051,290.7913],[16.261,13.036,288.6932],[16.215,13.04,290.783],[16.179,13.023,289.3748],[16.108,13.036,289.4623],[16.106,12.959,289.2939],[16.143,12.915,289.037],[16.175,12.848,289.433],[16.146,12.771,288.785],[16.144,12.719,289.1208],[16.164,12.672,287.9655],[16.195,12.619,290.2295],[16.159,12.537,290.6696],[16.09,12.432,292.7798],[16.302,12.354,293.8242],[16.45,12.305,295.1011],[16.493,12.296,296.2957],[16.666,12.229,301.8358],[16.695,12.198,303.9737],[16.725,12.133,308.4584],[16.708,11.995,316.1006],[16.744,11.932,318.2285],[16.79,11.904,317.8187],[16.797,11.874,325.781],[16.812,11.823,325.9713],[16.826,11.726,327.0421],[16.858,11.676,327.1664],[16.906,11.684,326.8196],[17.019,11.668,327.9125],[17.088,11.627,328.0098],[17.139,11.566,329.0067],[17.17,11.552,329.2622]]]]}}