{"type":"Feature","properties":{"GID_1":"TCD.14_1","GID_0":"TCD","country":"Chad","province":"Mayo-KebbiEst","VARNAME_1":"NA","NL_NAME_1":"NA","TYPE_1":"Région","ENGTYPE_1":"Region","CC_1":"NA","HASC_1":"TD.ME","ISO_1":"NA","name":"Mayo-Kebbi_Est.province"},
"geometry":{"type": "MultiPolygon","coordinates": [[[[15.421,9.21,386.6461],[15.445,9.242,391.9383],[15.475,9.289,387.5073],[15.484,9.319,395.1607],[15.566,9.419,355.2267],[15.611,9.459,357.2895],[15.665,9.504,360.5041],[15.675,9.525,359.0696],[15.682,9.586,350.418],[15.714,9.602,348.4015],[15.727,9.676,338.456],[15.755,9.708,339.6074],[15.7938,9.7247,340.7392],[15.7967,9.7192,340.777],[15.8027,9.7165,341.1225],[15.8217,9.715,341.4856],[15.8414,9.7169,342.1716],[15.8531,9.713,342.3989],[15.8654,9.7113,340.2084],[15.8809,9.7014,341.6504],[15.8892,9.6761,343.2586],[15.9145,9.6558,343.8254],[15.9328,9.6542,344.3931],[15.9644,9.6622,344.6534],[15.9977,9.6843,345.4254],[16.0325,9.7019,345.8074],[16.0675,9.7405,345.498],[16.0945,9.7612,344.8204],[16.1064,9.7772,345.7029],[16.138,9.8104,344.6029],[16.1663,9.8641,342.6313],[16.1853,9.8858,342.2502],[16.2017,9.911,341.8141],[16.2179,9.9487,340.8017],[16.2291,9.9835,340.1557],[16.263,10.031,338.642],[16.243,10.086,337.7897],[16.238,10.18,335.2886],[16.1939,10.2092,334.0323],[16.174,10.265,332.9229],[16.152,10.282,331.9988],[16.129,10.314,330.921],[16.123,10.382,330.0661],[16.121,10.465,327.9976],[16.149,10.707,327.5834],[16.14,10.74,327.4049],[16.127,10.756,321.3937],[16.117,10.767,314.739],[16.048,10.752,315.7698],[15.996,10.779,310.0],[15.907,10.778,313.1072],[15.872,10.79,313.5784],[15.84,10.795,310.9168],[15.745,10.825,307.319],[15.697,10.867,309.1096],[15.673,10.879,310.0078],[15.649,10.899,318.3393],[15.613,10.902,304.4703],[15.544,10.94,306.0294],[15.539,10.967,308.5309],[15.527,10.981,304.3098],[15.505,11.006,314.3303],[15.475,11.022,306.9132],[15.438,11.061,306.764],[15.421,11.114,301.1137],[15.408,11.181,298.0],[15.397,11.212,299.9601],[15.231,11.209,304.2083],[15.0987,11.1308,305.7509],[15.1,11.1115,306.0751],[15.0982,11.1099,304.7943],[15.1005,11.0984,306.3858],[15.1093,11.0928,306.5406],[15.112,11.0846,306.6264],[15.1097,11.0839,306.4684],[15.1088,11.0797,306.7327],[15.1032,11.075,307.1157],[15.1039,11.0686,307.1758],[15.1025,11.0653,307.2397],[15.0964,11.0609,305.6143],[15.0981,11.0454,305.6774],[15.0952,11.0434,306.0645],[15.0828,11.0417,307.5372],[15.084,11.0313,307.7396],[15.0742,11.0238,307.9034],[15.0578,11.0243,308.0206],[15.0486,11.0195,307.2527],[15.0473,11.0136,308.3564],[15.0547,11.0083,308.6085],[15.0553,11.0053,308.6925],[15.0477,10.9992,306.0],[15.0505,10.9943,306.4642],[15.0598,10.9874,308.4711],[15.0649,10.9801,309.0226],[15.0643,10.969,307.0908],[15.0657,10.9652,309.1896],[15.0838,10.95,309.842],[15.0898,10.9015,310.1796],[15.0972,10.877,312.1199],[15.096,10.8641,310.8578],[15.0916,10.8583,311.1601],[15.0808,10.8497,311.4429],[15.0749,10.8376,311.7143],[15.0724,10.8202,311.9834],[15.0693,10.8161,310.0],[15.0698,10.8134,311.9547],[15.0739,10.8078,310.0],[15.0805,10.7865,310.5],[15.0908,10.7708,313.1487],[15.0979,10.7567,313.6342],[15.1026,10.7406,311.5],[15.1259,10.7122,314.1017],[15.1362,10.7062,314.8382],[15.1384,10.7028,315.1208],[15.1378,10.6884,313.8283],[15.1413,10.6678,313.0],[15.1457,10.6587,313.7403],[15.1567,10.646,314.6911],[15.158,10.6402,314.9087],[15.1572,10.6126,314.0],[15.1475,10.5922,315.627],[15.1442,10.574,315.6432],[15.1466,10.5364,317.2193],[15.1501,10.5313,316.6072],[15.1773,10.5111,318.6628],[15.1874,10.5048,319.1795],[15.2063,10.5002,317.4658],[15.2227,10.4888,319.1897],[15.2413,10.4724,317.5],[15.2465,10.4646,318.0],[15.2476,10.4522,320.485],[15.2529,10.437,318.5],[15.2716,10.418,319.3278],[15.283,10.409,321.0521],[15.2856,10.3956,321.613],[15.2832,10.3899,320.8133],[15.2843,10.3844,321.9576],[15.2831,10.367,320.0],[15.2907,10.3617,320.0],[15.2966,10.3534,323.0198],[15.298,10.3494,323.1772],[15.2947,10.3439,320.5],[15.296,10.3355,321.0062],[15.3111,10.325,323.8351],[15.3122,10.307,321.0],[15.3142,10.3055,321.6281],[15.3273,10.3058,324.5827],[15.3394,10.301,323.715],[15.3402,10.2984,322.0],[15.3444,10.2961,323.2466],[15.3562,10.2927,326.1701],[15.3581,10.2907,325.0354],[15.359,10.2832,323.2969],[15.3669,10.2775,330.1458],[15.3691,10.2692,331.7903],[15.3842,10.2561,325.8772],[15.3867,10.2519,323.0],[15.3988,10.2468,324.1149],[15.4032,10.2432,325.0856],[15.4094,10.2294,326.5879],[15.4096,10.2222,323.5],[15.4151,10.2175,325.5049],[15.4236,10.2139,327.6004],[15.4275,10.2054,325.3754],[15.4329,10.2038,329.1377],[15.4452,10.1963,325.7529],[15.4526,10.1855,328.2771],[15.4612,10.1595,329.056],[15.4676,10.152,329.2539],[15.4806,10.1436,329.5909],[15.4842,10.1376,329.6154],[15.4841,10.1295,329.902],[15.4871,10.1237,327.9855],[15.4963,10.1234,329.8638],[15.5018,10.1149,329.0714],[15.5091,10.1083,330.5552],[15.5108,10.0956,327.8729],[15.5125,10.0936,330.0288],[15.517,10.0945,330.7925],[15.5258,10.1012,329.0738],[15.5367,10.0988,332.3624],[15.5487,10.0853,330.9675],[15.557,10.0811,331.709],[15.564,10.0679,328.5695],[15.5722,10.0673,329.7617],[15.5774,10.0693,328.5],[15.586,10.0667,331.9305],[15.5941,10.06,332.7083],[15.5949,10.054,332.2686],[15.5981,10.0474,329.0],[15.6013,10.0461,332.3727],[15.6115,10.0485,329.5],[15.6185,10.0468,333.4058],[15.6565,10.0236,334.5604],[15.6618,10.0179,331.3964],[15.671,10.0136,331.4891],[15.6779,10.0039,332.3451],[15.6895,9.9964,332.1831],[15.6873,9.9948,332.9298],[15.6559,9.9873,332.7846],[15.6526,9.9852,334.2328],[15.5278,9.9547,335.1746],[15.4133,9.9349,336.7717],[15.3641,9.962,337.2533],[15.2484,9.9915,327.9322],[15.2148,9.988,322.6547],[15.2093,9.9939,323.6416],[15.18,9.9885,325.4566],[15.1525,9.997,323.745],[15.1128,9.9867,337.834],[15.1099,9.9809,339.4048],[15.1095,9.9737,337.363],[15.1063,9.9667,333.6249],[15.0619,9.9487,342.9724],[15.0363,9.9689,343.7762],[15.0007,9.9697,347.4743],[14.9615,9.9849,349.0097],[14.8024,9.9357,346.0812],[14.7381,9.9503,373.5205],[14.7281,9.951,368.4204],[14.7416,9.916,355.0446],[14.7396,9.9045,354.8116],[14.735,9.8945,362.9116],[14.7262,9.8842,359.7389],[14.7248,9.8746,348.9044],[14.7322,9.8712,345.6685],[14.7349,9.8657,338.5095],[14.7332,9.8593,342.0872],[14.7261,9.852,350.6707],[14.7212,9.8389,330.3869],[14.7282,9.8226,315.0141],[14.735,9.8197,316.1326],[14.7382,9.774,346.1921],[14.7486,9.7236,368.2724],[14.7455,9.7017,387.2202],[14.749,9.6698,398.1679],[14.7673,9.6641,412.9937],[14.7932,9.6682,399.3229],[14.8178,9.668,407.244],[14.8419,9.6759,388.2907],[14.8605,9.6739,389.8013],[14.8909,9.6818,390.7883],[14.9072,9.6894,383.8256],[14.9304,9.6965,381.4464],[14.9501,9.6984,375.2188],[14.9663,9.6891,367.0896],[14.9898,9.683,354.0428],[14.9982,9.6742,355.4137],[15.0179,9.6656,357.9576],[15.034,9.6615,368.6919],[15.0446,9.6494,377.2192],[15.0472,9.6423,381.6293],[15.0475,9.6364,383.1202],[15.0466,9.6292,369.4775],[15.0381,9.6183,350.911],[15.0284,9.6101,357.0199],[15.026,9.5995,363.9825],[15.0272,9.5965,366.5066],[15.0362,9.5911,365.9734],[15.0412,9.5854,375.6231],[15.0487,9.5716,366.3104],[15.0577,9.5633,373.5349],[15.0708,9.5604,373.9364],[15.0742,9.5518,371.6434],[15.0808,9.5418,381.2709],[15.0881,9.5212,395.0623],[15.086,9.4969,405.8676],[15.0886,9.4813,416.0354],[15.0921,9.4774,419.972],[15.0919,9.4683,424.0269],[15.0879,9.4532,426.5518],[15.0893,9.4385,424.4163],[15.0999,9.427,439.1922],[15.1039,9.412,444.422],[15.1115,9.4014,440.8025],[15.1199,9.3951,451.1326],[15.1283,9.3765,454.3438],[15.1345,9.3668,475.9366],[15.1378,9.3574,485.7635],[15.1818,9.3246,511.4901],[15.2445,9.2947,498.9261],[15.27,9.2713,471.4812],[15.3376,9.2415,453.8375],[15.3498,9.2375,452.5661],[15.3553,9.2302,441.9734],[15.3761,9.2236,426.4186],[15.3923,9.2141,405.5356],[15.411,9.2075,392.6632],[15.421,9.21,386.6461]]]]}}