{"type": "Feature","id": "1486","bbox": [14.72285,9.18683,16.24627,11.18604],"geometry": {"type": "Polygon","coordinates": [[[15.60771,10.89866,316.9556],[15.59153,10.9013,317.7424],[15.57469,10.90807,314.9338],[15.55965,10.91685,317.0478],[15.54875,10.92595,307.4182],[15.53278,10.95303,314.7728],[15.52446,10.97127,314.8681],[15.52084,10.98434,301.8548],[15.51929,11.00357,307.7161],[15.51386,11.00997,307.351],[15.50337,11.01127,309.8945],[15.48668,11.01535,308.8569],[15.47103,11.023,306.1114],[15.45304,11.03519,303.6761],[15.43826,11.05028,299.5],[15.43206,11.06687,306.9854],[15.43206,11.11627,305.4971],[15.42198,11.12397,300.7348],[15.41315,11.12692,299.7811],[15.40555,11.13048,303.4761],[15.37062,11.15591,307.6459],[15.35279,11.16614,306.6791],[15.34287,11.17038,306.2018],[15.29631,11.18133,304.8119],[15.24324,11.18604,304.556],[15.23688,11.18578,304.6035],[15.2313,11.18454,304.6453],[15.22665,11.18216,304.6492],[15.22293,11.17896,304.7216],[15.21636,11.17151,305.0201],[15.21264,11.16826,305.1563],[15.20458,11.16263,305.2686],[15.18303,11.14149,305.6079],[15.15058,11.11793,306.0791],[15.13678,11.11095,305.8858],[15.11709,11.1032,306.1352],[15.02883,11.08022,306.4531],[15.03519,10.99463,308.0078],[15.06247,10.9307,308.9082],[15.0727,10.91577,308.7765],[15.07901,10.89815,309.7977],[15.0756,10.8735,309.7252],[15.06309,10.83076,311.4926],[15.06588,10.79311,311.7122],[15.14226,10.64721,315.6587],[15.14991,10.62313,316.2752],[15.14846,10.60734,317.4969],[15.13843,10.58969,317.3518],[15.13234,10.5654,316.6564],[15.13172,10.5407,316.6989],[15.13823,10.52166,317.3264],[15.14443,10.51631,316.1785],[15.15363,10.51197,318.3902],[15.16469,10.50908,318.1284],[15.17606,10.50799,318.2703],[15.1866,10.50587,318.9564],[15.19332,10.50119,320.2744],[15.19817,10.49649,318.5527],[15.21833,10.48722,317.5034],[15.22721,10.47014,319.362],[15.24117,10.4329,319.6531],[15.25564,10.41704,320.0337],[15.26876,10.40634,320.7302],[15.27837,10.39428,320.7033],[15.2822,10.37459,321.4638],[15.28427,10.34929,323.013],[15.29057,10.32898,323.6334],[15.30142,10.31175,324.0381],[15.43919,10.18525,327.7709],[15.4764,10.13274,326.0],[15.49066,10.12445,330.0113],[15.49014,10.12011,326.5],[15.53614,10.08052,331.3978],[15.6028,10.04099,332.2627],[15.63794,10.02996,330.0],[15.68124,9.99128,334.7129],[15.66378,9.98611,333.478],[15.4394,9.93169,335.3973],[15.38297,9.9302,335.5614],[15.21492,9.98409,319.7366],[15.15549,9.98652,325.8088],[15.1096,9.98154,339.4048],[15.10071,9.9789,339.0363],[15.08945,9.97218,336.034],[15.07167,9.95596,339.8725],[15.06123,9.94924,343.1381],[15.03301,9.94286,347.2013],[15.00242,9.94505,347.8896],[14.94413,9.95882,350.6564],[14.89814,9.96048,345.242],[14.77257,9.92175,358.2253],[14.73246,9.92381,354.1336],[14.72285,9.78727,338.8745],[14.73754,9.66583,382.6772],[14.79294,9.66297,421.4132],[14.89039,9.6826,388.0009],[14.94071,9.69565,379.382],[14.99477,9.67142,358.1124],[15.02645,9.6416,351.0266],[15.02272,9.59127,369.7247],[15.07119,9.5279,386.3756],[15.08964,9.39443,445.51],[15.13005,9.36665,467.1673],[15.2201,9.29249,473.3082],[15.29956,9.24481,434.4709],[15.37372,9.21303,429.7688],[15.43826,9.18683,377.7588],[15.44529,9.19551,371.9657],[15.46188,9.22424,368.0308],[15.46932,9.23375,372.4205],[15.47614,9.24088,376.679],[15.50172,9.28657,370.9601],[15.50394,9.28982,371.1884],[15.51542,9.31375,356.8785],[15.52394,9.32584,359.0075],[15.53185,9.33359,364.1182],[15.5396,9.34413,362.4723],[15.54332,9.34806,364.0194],[15.55391,9.35333,369.9749],[15.56012,9.35953,366.644],[15.56911,9.3723,351.0],[15.57608,9.39023,351.2442],[15.5981,9.41865,359.383],[15.6706,9.49146,358.7124],[15.67417,9.49591,359.8121],[15.67603,9.49968,360.3214],[15.70517,9.57833,351.6239],[15.70843,9.59084,348.3289],[15.71633,9.60407,350.084],[15.83069,9.74132,341.6046],[15.84444,9.74519,341.0091],[15.85446,9.74287,337.473],[15.88826,9.74044,342.5522],[15.91219,9.73119,339.1932],[15.962,9.6884,345.2248],[15.96789,9.68251,344.7515],[15.97394,9.68323,345.4303],[16.15842,9.85573,343.5018],[16.16649,9.86679,342.8779],[16.2115,9.95521,340.1636],[16.23465,10.02378,338.8889],[16.24333,10.07158,337.3906],[16.24131,10.0952,337.2535],[16.24627,10.14972,336.0486],[16.24395,10.16031,335.4439],[16.24193,10.16517,335.5736],[16.2286,10.18646,335.3801],[16.2194,10.19586,333.3519],[16.1963,10.21194,333.7496],[16.18948,10.22356,333.2843],[16.18607,10.24087,332.929],[16.18158,10.25571,333.2949],[16.17739,10.26304,332.959],[16.173,10.26811,332.942],[16.16866,10.2709,335.4805],[16.15315,10.27922,331.3792],[16.14633,10.28418,331.6805],[16.13517,10.29384,331.0055],[16.1299,10.30263,331.0099],[16.12649,10.31503,330.4701],[16.10845,10.44603,329.2961],[16.1392,10.73444,326.9034],[16.13765,10.73883,327.1897],[16.13398,10.74648,327.261],[16.1007,10.76275,315.8495],[16.07481,10.7673,326.7632],[16.06334,10.75123,316.2533],[16.05409,10.75449,311.0],[16.00123,10.78942,315.9862],[15.98288,10.78777,311.1287],[15.9449,10.77805,309.0],[15.9218,10.77578,308.5],[15.8833,10.7797,312.8041],[15.80294,10.79934,308.7181],[15.76506,10.80306,309.6064],[15.74558,10.81123,324.3713],[15.68595,10.872,311.2213],[15.66538,10.88884,312.7328],[15.64946,10.89665,318.0772],[15.63231,10.89877,317.7653],[15.60771,10.89866,316.9556]]]}
,"properties": {"ISO3166-1-Alpha-3": "TCD","country": "Chad","fill": "#00F","name": "Mayo-Kebbi Est","area_km2": 18147.0,"hist_schema_id": "Elevation0-9000","hist_area_km2": {"300": 1844.08,"325": 10534.7,"350": 3742.46,"375": 832.32,"400": 478.28,"425": 272.75,"450": 188.66,"475": 170.66,"500": 82.01,"525": 0.86}}}