{"type":"Feature","properties":{"GID_3":"TCD.14.1.4_1","GID_0":"TCD","country":"Chad","GID_1":"TCD.14_1","province":"Mayo-KebbiEst","NL_NAME_1":"NA","GID_2":"TCD.14.1_1","county":"Kabbia","NL_NAME_2":"NA","city":"Gounou","VARNAME_3":"NA","NL_NAME_3":"NA","TYPE_3":"Sub-prefecture","ENGTYPE_3":"Sub-prefecture","CC_3":"NA","HASC_3":"NA","name":"Gounou.city"},
"geometry":{"type": "MultiPolygon","coordinates": [[[[15.3986,9.7733,334.4644],[15.3529,9.7655,335.2945],[15.2849,9.7467,339.5845],[15.2582,9.737,340.3015],[15.2197,9.7263,341.4466],[15.1938,9.7277,339.7565],[15.1782,9.7252,339.4519],[15.1623,9.7041,343.2449],[15.1526,9.6835,335.7766],[15.1504,9.6687,359.1029],[15.1501,9.6179,366.6922],[15.1564,9.6136,370.3028],[15.1639,9.611,366.8116],[15.1976,9.6079,367.8771],[15.2174,9.6002,365.2514],[15.2301,9.6021,362.0016],[15.2545,9.6015,362.6176],[15.269,9.5988,349.287],[15.302,9.5895,368.2514],[15.3147,9.5776,364.4632],[15.3324,9.5759,365.9073],[15.3681,9.5767,370.0975],[15.3903,9.5662,371.2296],[15.3987,9.5583,371.7522],[15.3951,9.6002,364.5154],[15.396,9.6196,356.2049],[15.4036,9.6404,353.3617],[15.4064,9.6536,346.2845],[15.4134,9.6603,343.6538],[15.4123,9.6676,353.1536],[15.414,9.6739,346.3683],[15.399,9.7223,340.3947],[15.3996,9.7292,338.8323],[15.3973,9.7482,335.1904],[15.3995,9.7648,335.9344],[15.3986,9.7733,334.4644]]]]}}