{"type": "Feature","bbox": [20.846,14.197,21.104,14.388],"geometry": {"type": "MultiPolygon","coordinates": [[[[20.962,14.197,601.5369],[21.039,14.247,715.8094],[21.09,14.268,757.0784],[21.092,14.319,763.5981],[21.104,14.379,661.5612],[20.998,14.388,652.4578],[20.927,14.353,539.83],[20.846,14.32,511.6616],[20.923,14.25,558.4091],[20.962,14.197,601.5369]]]]}
,"properties": {"GID_3": "TCD.23.1.4_1","GID_0": "TCD","country": "Chad","GID_1": "TCD.23_1","province": "WadiFira","NL_NAME_1": "NA","GID_2": "TCD.23.1_1","county": "Biltine","NL_NAME_2": "NA","city": "Kodoye-I","VARNAME_3": "NA","NL_NAME_3": "NA","TYPE_3": "Sub-prefecture","ENGTYPE_3": "Sub-prefecture","CC_3": "NA","HASC_3": "NA","name": "Kodoye-I.city","area_km2": 341.8648,"hist_schema_id": "Elevation0-9000","hist_area_km2": {"500": 1.3969,"525": 32.3568,"550": 34.6596,"575": 45.0757,"600": 45.9583,"625": 39.0936,"650": 34.883,"675": 29.0096,"700": 25.2723,"725": 21.615,"750": 18.5734,"775": 9.5532,"800": 3.3075,"825": 0.6575,"850": 0.185,"875": 0.1233,"900": 0.1027,"925": 0.0205,"950": 0.0205}}}