{"type":"Feature","properties":{"GID_3":"TCD.14.2.13_1","GID_0":"TCD","country":"Chad","GID_1":"TCD.14_1","province":"Mayo-KebbiEst","NL_NAME_1":"NA","GID_2":"TCD.14.2_1","county":"Mayo-Boneye","NL_NAME_2":"NA","city":"Teleme","VARNAME_3":"NA","NL_NAME_3":"NA","TYPE_3":"Sub-prefecture","ENGTYPE_3":"Sub-prefecture","CC_3":"NA","HASC_3":"NA","name":"Teleme.city"},
"geometry":{"type": "MultiPolygon","coordinates": [[[[15.2848,10.4005,321.8701],[15.2856,10.3956,321.613],[15.2832,10.3899,320.8133],[15.2843,10.3844,321.9576],[15.2831,10.367,320.0],[15.2948,10.3572,322.8318],[15.298,10.3494,323.1772],[15.2947,10.3439,320.5],[15.2951,10.3373,320.5],[15.2993,10.3328,322.5505],[15.3103,10.3262,323.5665],[15.3122,10.3168,323.981],[15.3363,10.3222,322.8917],[15.3595,10.3208,322.6794],[15.4007,10.3256,320.9301],[15.4247,10.3351,321.6035],[15.4417,10.3547,321.5008],[15.4663,10.4173,321.7285],[15.4657,10.4421,322.4259],[15.4492,10.4376,322.2861],[15.4155,10.4345,319.2041],[15.3894,10.4351,319.4001],[15.3721,10.44,319.2618],[15.3514,10.4562,318.7048],[15.3287,10.4695,318.8347],[15.3209,10.488,318.1084],[15.3003,10.5002,318.0145],[15.2943,10.4852,319.3783],[15.2833,10.4749,318.5215],[15.2523,10.4382,320.196],[15.2716,10.418,319.3278],[15.2814,10.4111,320.3652],[15.2848,10.4005,321.8701]]]]}}