{"type":"Feature","properties":{"GID_2":"TCD.16.3_1","GID_0":"TCD","country":"Chad","GID_1":"TCD.16_1","province":"Moyen-Chari","NL_NAME_1":"NA","county":"LacIro","VARNAME_2":"Kyabe|Kyabé","NL_NAME_2":"NA","TYPE_2":"Department","ENGTYPE_2":"Department","CC_2":"NA","HASC_2":"TD.MO.LI","name":"Lac_Iro.county"},
"geometry":{"type": "MultiPolygon","coordinates": [[[[18.5321,9.2031,366.7407],[18.5417,9.2009,367.1624],[18.5601,9.2045,367.3114],[18.5765,9.2022,362.751],[18.5912,9.211,368.352],[18.6405,9.2097,368.4635],[18.6581,9.2076,366.2466],[18.6706,9.2218,363.785],[18.6807,9.2376,363.0411],[18.6971,9.2531,365.9603],[18.7526,9.2702,366.607],[18.7731,9.2811,371.0934],[18.7776,9.2984,370.1064],[18.7752,9.3144,368.845],[18.7776,9.3312,366.5924],[18.7817,9.3371,367.0976],[18.8032,9.3294,370.8804],[18.8355,9.3405,371.0443],[18.8474,9.3465,370.9129],[18.8472,9.3227,372.1503],[18.839,9.2764,372.6173],[18.8352,9.2404,374.4268],[18.8366,9.1827,371.3875],[18.8392,9.1451,373.3746],[18.8426,9.1273,371.9526],[18.8551,9.1134,372.3795],[18.8719,9.1006,371.3459],[18.8968,9.09,373.9454],[18.9142,9.0793,373.2345],[18.9333,9.0727,372.5318],[18.9758,9.0511,373.3156],[18.9964,9.0303,375.7739],[19.0233,8.9951,369.2812],[19.0283,8.9972,367.7607],[19.0432,8.9943,371.9266],[19.0507,8.9976,370.3224],[19.0586,8.9957,370.306],[19.0665,9.0046,370.4716],[19.0698,9.0054,370.3457],[19.076,9.0039,371.3222],[19.0777,9.0149,370.8008],[19.0917,9.0205,371.418],[19.0956,9.0196,371.9673],[19.1011,9.0098,371.4981],[19.1046,9.0085,371.5219],[19.1245,9.0054,375.6811],[19.1273,9.0069,375.3621],[19.1352,9.0045,375.6779],[19.1508,9.0089,372.1602],[19.157,9.0138,372.3773],[19.1699,9.0171,372.0154],[19.175,9.0245,372.2098],[19.1803,9.0248,371.8369],[19.1878,9.0215,372.4751],[19.1924,9.0216,372.704],[19.2184,9.0315,372.7316],[19.2224,9.0276,372.4788],[19.2254,9.027,373.0547],[19.2355,9.0288,372.0064],[19.2409,9.0259,374.4746],[19.2527,9.0259,373.1107],[19.2618,9.0208,373.2982],[19.2637,9.0178,374.4696],[19.2705,9.0133,375.7724],[19.275,9.0118,376.9483],[19.2897,9.0115,374.9906],[19.3023,9.0079,375.8348],[19.3092,9.0078,378.6562],[19.3216,9.0113,377.1829],[19.3379,9.0203,373.1978],[19.3546,9.0156,373.6954],[19.3579,9.0134,373.8097],[19.3657,9.0131,376.5263],[19.379,9.018,376.0339],[19.3888,9.0168,375.615],[19.3957,9.0183,375.97],[19.4011,9.026,374.8134],[19.414,9.0249,375.9639],[19.4207,9.0278,377.2301],[19.4316,9.0258,376.9438],[19.4391,9.0312,377.3656],[19.4508,9.025,376.4974],[19.4582,9.0255,379.4794],[19.4592,9.0178,375.0016],[19.4738,9.0182,377.1373],[19.4791,9.0144,377.5745],[19.4826,9.0152,376.1047],[19.4883,9.0205,376.9096],[19.4909,9.0181,376.2871],[19.4941,9.0183,376.4734],[19.4973,9.0212,375.8692],[19.4989,9.032,376.8417],[19.501,9.0338,378.4157],[19.5068,9.0342,379.0178],[19.5119,9.0315,379.6845],[19.5146,9.0198,377.2158],[19.5172,9.0171,376.6018],[19.523,9.0163,379.4776],[19.5352,9.0186,378.0024],[19.5425,9.0231,377.3156],[19.5544,9.0352,377.551],[19.5592,9.0367,378.8621],[19.5687,9.0364,379.1453],[19.5728,9.0392,377.8661],[19.5776,9.04,376.4353],[19.5818,9.037,377.1929],[19.5859,9.0309,377.3127],[19.602,9.0194,381.7672],[19.6144,9.0215,379.8368],[19.6314,9.0184,384.5641],[19.647,9.0239,377.732],[19.659,9.0239,379.2249],[19.6667,9.0204,379.898],[19.672,9.0208,380.8565],[19.6836,9.0292,379.2973],[19.7019,9.0275,381.5639],[19.7199,9.0406,378.8408],[19.7215,9.0445,378.4378],[19.7349,9.0443,379.1546],[19.7437,9.0489,379.0939],[19.7596,9.0493,379.9825],[19.7633,9.0503,379.7454],[19.7729,9.0574,379.7303],[19.78,9.0586,380.2889],[19.7893,9.0585,379.9509],[19.7981,9.0561,380.584],[19.8043,9.0567,382.2842],[19.8124,9.0587,380.2262],[19.8225,9.0643,382.7977],[19.8287,9.0495,382.3941],[19.8355,9.0434,385.2724],[19.842,9.044,386.5018],[19.8494,9.0537,379.8566],[19.8565,9.0601,380.1914],[19.8645,9.0645,381.1396],[19.8717,9.0658,382.5341],[19.878,9.0631,381.06],[19.8829,9.0636,381.6692],[19.8862,9.061,379.7805],[19.8944,9.0621,380.3935],[19.9049,9.0683,382.319],[19.9271,9.0608,387.8663],[19.9307,9.0679,381.1779],[19.9327,9.0793,382.9929],[19.9354,9.0844,383.4012],[19.9394,9.0871,383.3427],[19.9803,9.092,382.2083],[19.9854,9.0953,383.4006],[19.923,9.269,387.0109],[19.681,9.962,393.9996],[19.613,10.067,396.4634],[19.654,10.097,398.7444],[19.648,10.156,397.7988],[19.681,10.213,400.1369],[19.692,10.267,400.4955],[19.635,10.289,404.1219],[19.703,10.588,406.3282],[19.619,10.526,409.1622],[19.584,10.478,402.3688],[19.533,10.475,401.893],[19.496,10.496,400.2784],[19.43,10.469,411.1162],[19.391,10.425,415.0414],[19.382,10.382,406.8703],[19.344,10.344,394.825],[19.355,10.299,412.8535],[19.321,10.27,419.5235],[19.284,10.224,426.2546],[19.241,10.209,403.0311],[19.215,10.187,391.0424],[19.208,10.146,390.9069],[19.161,10.155,389.1475],[19.138,10.129,389.4442],[19.126,10.084,387.2957],[19.084,10.015,384.6064],[19.078,9.988,386.5224],[18.825,9.988,383.7515],[18.794,9.879,380.3649],[18.737,9.877,378.223],[18.632,9.919,371.116],[18.6176,9.9119,372.7489],[18.5879,9.9029,373.0095],[18.5627,9.9011,375.1774],[18.5502,9.9025,375.4698],[18.5326,9.8939,376.8866],[18.5286,9.8787,377.2505],[18.5117,9.8642,375.4083],[18.5019,9.8499,374.1723],[18.4964,9.8342,372.9146],[18.4822,9.8183,371.2056],[18.462,9.8235,369.3203],[18.4434,9.8381,367.1696],[18.4133,9.8116,368.7338],[18.4047,9.8198,370.2719],[18.3783,9.8203,368.0287],[18.3604,9.7762,368.9551],[18.3412,9.7078,372.5966],[18.3299,9.6741,370.6097],[18.3233,9.6363,368.5447],[18.3111,9.5919,365.1766],[18.3076,9.5703,364.4988],[18.2953,9.5358,365.8579],[18.2998,9.5169,371.8026],[18.3087,9.5014,372.554],[18.3206,9.4476,367.5298],[18.3303,9.431,367.928],[18.3425,9.3971,363.5938],[18.3465,9.3901,363.731],[18.3574,9.3797,365.7065],[18.3617,9.3694,363.2727],[18.3622,9.3618,362.6743],[18.4296,9.3284,366.0374],[18.4593,9.3095,365.9367],[18.4674,9.3022,369.1414],[18.4744,9.2873,367.4339],[18.4878,9.2711,366.4372],[18.4897,9.2558,370.3101],[18.4971,9.2354,367.811],[18.5036,9.2245,367.0811],[18.5108,9.2183,366.4628],[18.5171,9.2077,365.9731],[18.5321,9.2031,366.7407]]]]}}