{"type": "Feature","bbox": [15.834,7.5298,17.2839,8.66],"geometry": {"type": "MultiPolygon","coordinates": [[[[16.8112,7.5407,439.3097],[16.8149,7.5357,424.5129],[16.8229,7.5324,434.2831],[16.8349,7.5328,430.0747],[16.8438,7.5298,441.1007],[16.8508,7.5353,433.9234],[16.8634,7.5363,453.9491],[16.8678,7.5386,455.9801],[16.8699,7.5414,455.2859],[16.8697,7.5515,436.5867],[16.8741,7.5563,426.4317],[16.8836,7.5576,422.5163],[16.8918,7.5509,422.9629],[16.896,7.5502,428.8173],[16.908,7.5581,429.0043],[16.9101,7.5616,425.6536],[16.9097,7.5662,427.8003],[16.9074,7.5694,420.7764],[16.8991,7.5713,428.9196],[16.8956,7.5745,417.8129],[16.8957,7.5791,431.5609],[16.9045,7.5919,428.9416],[16.9057,7.5972,434.833],[16.8981,7.6103,421.0854],[16.8986,7.614,421.2998],[16.9009,7.6165,420.5358],[16.9053,7.6163,416.4568],[16.9225,7.6056,427.458],[16.9269,7.606,430.1749],[16.9278,7.6076,427.175],[16.9246,7.6178,421.6334],[16.9284,7.6228,416.6018],[16.9374,7.6289,411.4121],[16.957,7.6359,414.0136],[16.9634,7.6355,413.8506],[16.9751,7.6278,415.6048],[16.9781,7.6283,424.9468],[16.9818,7.6342,415.329],[16.9871,7.6356,412.7183],[16.9936,7.6318,417.5288],[17.0053,7.6348,413.0283],[17.0403,7.635,424.3865],[17.0424,7.6382,418.9891],[17.0441,7.6504,405.4407],[17.0492,7.6552,404.1755],[17.063,7.651,412.7471],[17.0673,7.6514,417.1665],[17.0791,7.6576,404.8902],[17.0856,7.658,416.0855],[17.0906,7.6605,431.2977],[17.0918,7.6683,417.7117],[17.0873,7.6864,410.7612],[17.0883,7.6903,409.7912],[17.0913,7.6922,409.8104],[17.0966,7.6919,411.5393],[17.1021,7.6884,409.694],[17.1106,7.6893,400.8531],[17.1157,7.6877,409.6555],[17.1259,7.6674,400.504],[17.1321,7.6632,406.5307],[17.1392,7.6618,405.2189],[17.1604,7.6667,415.8418],[17.1625,7.6702,420.8568],[17.1616,7.6764,413.8545],[17.1628,7.6812,416.7928],[17.1742,7.6885,416.6032],[17.1659,7.6995,401.0483],[17.1657,7.7028,398.524],[17.1692,7.7069,405.9494],[17.1983,7.7196,398.0471],[17.2091,7.7209,415.9114],[17.2137,7.7259,422.6235],[17.2186,7.7266,427.2448],[17.2202,7.7298,421.6482],[17.217,7.7422,408.8175],[17.2201,7.7465,408.1923],[17.2254,7.7499,404.6898],[17.2284,7.7589,403.2256],[17.2326,7.7634,396.6208],[17.2379,7.7639,396.9059],[17.2441,7.7595,395.5303],[17.2546,7.7463,407.1706],[17.2601,7.7452,412.7986],[17.2627,7.747,413.2941],[17.2694,7.7616,418.0508],[17.269,7.7669,416.5812],[17.2638,7.7798,401.0119],[17.2647,7.7841,401.0912],[17.2668,7.7857,398.8977],[17.2707,7.7853,403.2292],[17.2742,7.791,401.2809],[17.2816,7.7914,401.1724],[17.2836,7.7939,401.2275],[17.2818,7.8013,402.7578],[17.2839,7.8035,402.2545],[17.1981,7.9629,426.9897],[17.165,7.9644,450.0337],[17.0379,7.9559,478.8367],[17.0037,7.9597,462.6683],[16.9715,7.9569,489.4374],[16.8954,7.9424,505.8017],[16.8559,7.9273,462.7596],[16.8246,7.9217,489.6604],[16.7908,7.9212,502.689],[16.738,7.9422,486.9333],[16.7098,7.9641,474.1974],[16.6677,8.0016,436.7195],[16.6593,8.0168,409.1925],[16.6511,8.0244,405.46],[16.629,8.0361,418.1854],[16.6233,8.044,415.5588],[16.6146,8.0498,420.4038],[16.6223,8.0877,408.8943],[16.6291,8.1451,419.5356],[16.6287,8.1674,408.8895],[16.6222,8.1854,423.642],[16.6077,8.2119,418.5999],[16.5887,8.2359,423.7034],[16.5697,8.2634,422.6509],[16.5506,8.2988,422.8434],[16.5315,8.3225,415.2215],[16.5172,8.3449,426.736],[16.4893,8.4045,406.7559],[16.4784,8.415,422.5359],[16.4758,8.4279,427.6505],[16.454,8.4557,442.5551],[16.4489,8.4751,445.004],[16.4438,8.4807,448.2968],[16.4431,8.4862,447.8845],[16.438,8.494,450.931],[16.4312,8.5132,451.7172],[16.4208,8.5245,453.1288],[16.4119,8.5309,453.5097],[16.4007,8.5423,450.0475],[16.3639,8.5741,445.7682],[16.3609,8.58,442.2592],[16.3418,8.6017,421.2333],[16.3379,8.6106,414.0118],[16.3367,8.6222,403.5432],[16.3397,8.6557,385.8063],[16.273,8.66,391.6723],[16.203,8.634,391.0815],[16.117,8.608,390.5021],[16.077,8.569,401.4833],[16.043,8.558,395.0],[15.996,8.536,403.8359],[15.99,8.512,404.5541],[15.958,8.491,411.5927],[15.918,8.462,422.4141],[15.862,8.435,438.1562],[15.834,8.403,441.9726],[15.8599,8.3475,406.0774],[15.8836,8.3233,409.4659],[15.9207,8.2927,415.8717],[15.9459,8.2748,424.6478],[16.0271,8.2599,444.4215],[16.0747,8.2628,494.4016],[16.1012,8.2758,520.6023],[16.1487,8.2814,511.8911],[16.1797,8.2744,510.2902],[16.2166,8.2628,523.7855],[16.2433,8.25,534.9327],[16.3014,8.2277,448.4703],[16.3066,8.2097,453.4341],[16.3161,8.1906,463.3073],[16.3271,8.1337,533.9535],[16.3248,8.1235,529.2178],[16.3148,8.1056,510.9387],[16.3034,8.0915,492.2568],[16.3001,8.0813,485.2726],[16.2949,8.0539,469.4948],[16.2914,8.0203,460.7498],[16.2932,8.0098,458.3032],[16.3039,7.9881,456.287],[16.307,7.9773,450.053],[16.3135,7.9659,456.1684],[16.3311,7.9129,447.7731],[16.3409,7.8476,463.5966],[16.3501,7.8011,463.1923],[16.3567,7.7451,459.6431],[16.3637,7.7016,466.5237],[16.3755,7.6659,435.6104],[16.3847,7.6712,430.5442],[16.3928,7.6711,440.2163],[16.3946,7.6782,428.5108],[16.4067,7.6858,425.8055],[16.4104,7.6942,429.9259],[16.4189,7.7038,427.5327],[16.4259,7.7091,422.502],[16.4305,7.7187,422.264],[16.4278,7.7212,422.4011],[16.4252,7.721,421.9525],[16.4174,7.7277,424.972],[16.4156,7.7342,430.368],[16.4168,7.7406,422.4435],[16.4186,7.7424,422.5594],[16.4242,7.7433,436.4835],[16.4263,7.7467,438.9153],[16.4203,7.7598,430.8836],[16.4139,7.7642,424.0967],[16.4125,7.7679,420.8761],[16.4146,7.7741,428.1306],[16.4239,7.7793,428.3361],[16.439,7.8052,422.0472],[16.4422,7.8059,419.2475],[16.4475,7.8031,422.437],[16.4553,7.8024,430.4472],[16.4574,7.7987,429.0409],[16.4541,7.7925,419.7524],[16.4562,7.7879,418.9685],[16.4598,7.7849,417.2029],[16.4891,7.7903,416.2166],[16.4926,7.7921,422.8914],[16.4947,7.7971,425.2807],[16.494,7.8031,422.966],[16.4956,7.8086,414.9192],[16.5088,7.8191,414.2459],[16.5141,7.8273,417.7724],[16.5161,7.8429,414.5949],[16.5188,7.8457,414.1426],[16.5303,7.8463,423.2402],[16.535,7.8484,425.2285],[16.5421,7.8559,412.1923],[16.5465,7.8568,412.056],[16.5527,7.8542,422.4305],[16.5606,7.8547,434.8959],[16.5631,7.8595,427.4435],[16.5608,7.8648,415.7644],[16.5636,7.8684,411.3138],[16.5774,7.87,422.9386],[16.5954,7.8784,415.0089],[16.5959,7.8802,416.9354],[16.598,7.8761,418.8564],[16.5982,7.8703,432.2984],[16.5944,7.8621,416.6892],[16.5868,7.8515,430.1184],[16.5856,7.8378,425.2957],[16.5837,7.8339,414.6983],[16.5913,7.8251,431.0306],[16.5914,7.812,426.9368],[16.5979,7.8049,429.9077],[16.5981,7.7982,429.0693],[16.5953,7.793,430.0415],[16.5968,7.7748,435.1271],[16.5945,7.7689,430.5433],[16.6124,7.7582,432.9352],[16.6177,7.7587,446.4274],[16.6271,7.7628,429.8168],[16.6313,7.7623,433.6475],[16.6384,7.7581,427.707],[16.6497,7.7482,440.2368],[16.668,7.7382,440.3927],[16.6703,7.7297,439.9279],[16.6654,7.7093,457.7252],[16.6667,7.6939,467.8947],[16.6657,7.6756,470.3079],[16.6672,7.6687,467.0976],[16.6725,7.665,469.2183],[16.6792,7.6632999999999996,477.3585],[16.6851,7.6532,475.3532],[16.6902,7.6509,491.1848],[16.7268,7.6502,474.0009],[16.7337,7.6426,476.5468],[16.7357,7.6366,463.599],[16.7387,7.6332,466.3081],[16.7481,7.6285,464.491],[16.7515,7.6223,456.5767],[16.7619,7.6172,453.0625],[16.7747,7.6066,451.71],[16.7939,7.5854,444.5245],[16.7976,7.5773,452.7002],[16.7964,7.5617,441.348],[16.8007,7.5557,431.9906],[16.8097,7.5502,444.9704],[16.8112,7.5407,439.3097]]]]}
,"properties": {"GID_2": "TCD.12.3_1","GID_0": "TCD","country": "Chad","GID_1": "TCD.12_1","province": "LogoneOriental","NL_NAME_1": "NA","county": "NyaPendé","VARNAME_2": "LaNyaPendé|Goré","NL_NAME_2": "NA","TYPE_2": "Department","ENGTYPE_2": "Department","CC_2": "NA","HASC_2": "TD.LR.NP","name": "Nya_Pendé.county","area_km2": 6469.664,"hist_schema_id": "Elevation0-9000","hist_area_km2": {"375": 22.995,"400": 455.555,"425": 1486.524,"450": 1964.326,"475": 1453.567,"500": 859.43,"525": 219.017,"550": 8.249}}}