{"type":"Feature","properties":{"GID_2":"TCD.17.3_1","GID_0":"TCD","country":"Chad","GID_1":"TCD.17_1","province":"Ouaddaï","NL_NAME_1":"NA","county":"Ouara","VARNAME_2":"Abeche|Abéché","NL_NAME_2":"NA","TYPE_2":"Department","ENGTYPE_2":"Department","CC_2":"NA","HASC_2":"TD.OD.OU","name":"Ouara.county"},
"geometry":{"type": "MultiPolygon","coordinates": [[[[21.152,13.094,525.7267],[21.303,13.136,561.7341],[21.408,13.145,572.3458],[21.446,13.146,579.2441],[21.524,13.162,641.376],[21.57,13.184,648.2061],[21.632,13.209,687.6026],[21.646,13.254,738.676],[21.681,13.277,793.7144],[21.699,13.336,734.1941],[21.65,13.527,739.2111],[21.58,13.597,707.9219],[21.532,13.66,700.3853],[21.495,13.74,722.6737],[21.449,13.764,704.0898],[21.373,13.815,692.7999],[21.355,13.844,708.0378],[21.337,13.91,693.3637],[21.341,13.967,713.1877],[21.318,14.004,736.842],[21.253,14.039,753.5449],[21.174,14.044,735.5714],[21.142,14.096,732.6277],[21.108,14.129,654.3206],[21.084,14.139,682.8083],[21.032,14.142,695.3797],[21.005,14.153,662.5126],[20.962,14.197,601.5369],[20.923,14.25,558.4091],[20.846,14.32,511.6616],[20.767,14.367,483.1189],[20.718,14.379,476.427],[20.662,14.395,465.7358],[20.606,14.414,458.6089],[20.533,14.398,449.0348],[20.486,14.376,436.6702],[20.357,14.386,425.7029],[20.288,14.325,414.4367],[20.241,14.299,408.8739],[20.21,14.26,403.6921],[20.136,14.158,400.1253],[20.062,14.082,410.3776],[20.056,13.956,413.7078],[20.268,13.829,429.9197],[20.295,13.755,436.8947],[20.276,13.671,428.6974],[20.267,13.613,436.5262],[20.276,13.586,431.6429],[20.314,13.529,441.1026],[20.364,13.421,442.8461],[20.369,13.331,439.2808],[20.358,13.059,423.113],[20.447,13.029,452.5233],[20.54,13.012,447.2365],[20.613,13.009,463.9875],[20.662,13.009,480.5301],[20.763,13.017,486.0927],[20.874,13.041,562.8983],[20.964,13.045,547.9667],[21.095,13.081,549.267],[21.152,13.094,525.7267]]]]}}