{"type": "Feature","bbox": [17.8006,8.8625,18.1999,9.1989],"geometry": {"type": "MultiPolygon","coordinates": [[[[17.9958,8.959,367.0868],[17.9993,8.9676,368.5105],[18.0257,8.9976,365.8775],[18.0674,9.0131,366.8805],[18.1005,9.02,367.7028],[18.109,9.0274,368.6042],[18.1492,9.0789,363.0798],[18.1623,9.1032,365.0865],[18.1918,9.1488,363.5717],[18.1977,9.1623,363.6245],[18.1999,9.1762,356.2724],[18.1444,9.1793,364.4191],[18.1118,9.1861,376.3273],[18.0557,9.1907,404.9777],[18.0362,9.1962,439.3744],[18.0112,9.1989,475.1106],[18.0016,9.1777,447.6047],[17.9858,9.1501,464.6454],[17.968,9.1144,542.1292],[17.9588,9.0842,557.6687],[17.9419,9.0569,550.2298],[17.9302,9.0459,558.6597],[17.8985,9.0228,519.6993],[17.8716,8.9997,521.8521],[17.8263,8.9569,456.4662],[17.8103,8.9284,416.2727],[17.8042,8.9077,382.3592],[17.8014,8.903,376.0741],[17.8014,8.8857,368.4418],[17.8053,8.8735,367.9095],[17.8006,8.8625,364.6326],[17.8179,8.873,364.5213],[17.8247,8.8725,364.4457],[17.8324,8.8754,364.1112],[17.8405,8.8813,364.638],[17.8652,8.8823,371.3265],[17.8651,8.8958,369.9879],[17.8667,8.9046,363.523],[17.8744,8.9089,365.0014],[17.8884,8.9123,363.174],[17.906,8.9099,368.3228],[17.9207,8.9111,368.3295],[17.9249,8.925,364.5008],[17.9507,8.9308,367.2175],[17.9595,8.9366,367.8078],[17.9704,8.9472,366.4111],[17.9852,8.9517,359.7347],[17.9958,8.959,367.0868]]]]}
,"properties": {"GID_3": "TCD.13.3.1_1","GID_0": "TCD","country": "Chad","GID_1": "TCD.13_1","province": "Mandoul","NL_NAME_1": "NA","GID_2": "TCD.13.3_1","county": "MandoulOriental","NL_NAME_2": "NA","city": "Bedaya","VARNAME_3": "NA","NL_NAME_3": "NA","TYPE_3": "Sub-prefecture","ENGTYPE_3": "Sub-prefecture","CC_3": "NA","HASC_3": "NA","name": "Bedaya.city","area_km2": 635.8712,"hist_schema_id": "Elevation0-9000","hist_area_km2": {"350": 44.8246,"375": 228.8257,"400": 67.5512,"425": 72.8639,"450": 64.5498,"475": 53.5996,"500": 44.7629,"525": 33.498,"550": 19.3451,"575": 5.8201,"600": 0.2303}}}