{"type": "Feature","bbox": [13.6442,13.154,16.687,16.8433],"geometry": {"type": "MultiPolygon","coordinates": [[[[15.755,13.163,290.146],[15.862,13.154,286.2017],[15.91,13.173,285.6227],[15.929,13.207,291.7246],[15.935,13.339,290.5335],[15.934,13.45,294.13],[15.92,13.499,294.0384],[15.892,13.546,288.4692],[15.876,13.614,288.2764],[15.884,13.66,286.6236],[15.894,13.685,298.5142],[15.892,13.728,291.6414],[15.884,13.747,281.6542],[15.774,13.758,291.5194],[15.762,13.739,290.2839],[15.647,13.735,283.7645],[15.602,13.749,287.5467],[15.607,13.878,296.8043],[15.619,14.032,310.8295],[15.711,14.066,312.9636],[15.804,14.145,315.4813],[15.911,14.263,316.0648],[15.962,14.315,305.4407],[16.102,14.47,312.6013],[16.143,14.545,312.3877],[16.182,14.834,317.221],[16.523,15.974,274.382],[16.687,16.242,255.6402],[15.4532,16.8433,279.9142],[15.3304,16.715,289.9723],[15.3288,16.711,288.7701],[15.26,16.6427,296.6954],[15.2584,16.6393,298.3049],[15.2191,16.5981,303.8257],[14.9566,16.3253,321.9889],[14.9136,16.2766,314.8985],[14.8172,16.1758,318.6556],[14.8106,16.1661,311.9777],[14.7991,16.1565,318.0466],[14.6939,16.0442,334.385],[14.6384,15.9914,336.2065],[14.6346,15.9845,317.9325],[14.6223,15.9726,351.3147],[14.6213,15.9693,340.2449],[14.6104,15.956,328.3808],[14.5943,15.9423,331.7806],[14.5554,15.9037,347.3275],[14.5248,15.8705,325.4196],[14.5148,15.8622,331.1958],[14.3926,15.7378,334.3282],[14.3848,15.7316,342.0486],[14.3185,15.6441,341.3629],[14.3116,15.6342,316.214],[14.3088,15.6261,333.2788],[14.3062,15.6245,341.6969],[14.3064,15.6225,337.6773],[14.2996,15.6186,318.571],[14.2414,15.5411,357.7012],[14.2357,15.5354,373.2482],[14.2156,15.5041,337.4261],[14.1256,15.377,364.9306],[14.123,15.3754,345.653],[14.1197,15.3685,318.3616],[14.1056,15.3497,343.189],[14.1034,15.3435,365.4488],[14.0964,15.3364,323.9585],[14.0511,15.2722,375.846],[14.0475,15.2701,368.9325],[14.0471,15.2671,335.8679],[14.0376,15.2538,351.0939],[14.0357,15.2485,341.2571],[14.0282,15.2405,342.1681],[13.9702,15.1565,356.2946],[13.944,15.1257,334.956],[13.9332,15.1163,379.5087],[13.9185,15.0962,346.9959],[13.8695,15.0428,349.0138],[13.8622,15.0313,353.4871],[13.8622,15.0284,364.6816],[13.8514,15.0093,312.1749],[13.8477,14.9959,348.1595],[13.8439,14.9918,338.1818],[13.83,14.9566,335.6357],[13.7967,14.8844,333.4537],[13.7965,14.8777,341.4535],[13.7897,14.8632,336.3219],[13.7922,14.8023,326.0721],[13.8094,14.7459,321.4353],[13.8116,14.7272,320.8869],[13.81,14.7217,318.4915],[13.7972,14.7127,317.3406],[13.7951,14.7088,317.5056],[13.7887,14.7065,317.3618],[13.7885,14.704,317.4802],[13.7815,14.7023,315.9393],[13.7704,14.6957,317.4099],[13.7687,14.692,316.6765],[13.7456,14.6983,314.7373],[13.7065,14.6633,308.3119],[13.7023,14.6569,308.1235],[13.6773,14.6366,310.6512],[13.6769,14.6317,305.4755],[13.679,14.6265,310.7208],[13.6925,14.6129,304.0335],[13.6914,14.5826,300.7201],[13.696,14.5511,291.8486],[13.6442,14.5158,291.3395],[13.776,14.506,296.7492],[13.806,14.467,294.7903],[13.999,14.466,304.0053],[14.027,14.42,300.4708],[14.077,14.416,303.9973],[14.144,14.354,302.0349],[14.159,14.285,297.3889],[14.216,14.267,301.0387],[14.25,14.2,295.2995],[14.325,14.183,301.9528],[14.355,14.125,296.6594],[14.489,14.093,308.0615],[14.554,13.996,301.0393],[14.66,13.876,307.6376],[14.793,13.635,293.3503],[14.851,13.672,290.6373],[14.96,13.665,298.8449],[15.016,13.674,302.6261],[15.196,13.718,311.3332],[15.393,13.742,300.9968],[15.501,13.457,291.3837],[15.553,13.362,297.5637],[15.576,13.247,293.9448],[15.736,13.179,293.3441],[15.755,13.163,290.146]]]]}
,"properties": {"GID_1": "TCD.9_1","GID_0": "TCD","country": "Chad","province": "Kanem","VARNAME_1": "NA","NL_NAME_1": "NA","TYPE_1": "Région","ENGTYPE_1": "Region","CC_1": "NA","HASC_1": "TD.KM","ISO_1": "NA","name": "Kanem.province","area_km2": 67911.43,"hist_schema_id": "Elevation0-9000","hist_area_km2": {"225": 102.72,"250": 2186.58,"275": 8775.37,"300": 13807.38,"325": 25719.41,"350": 14938.38,"375": 2361.69,"400": 19.89}}}