{"type":"Feature","properties":{"ISO3166-1-Alpha-3":"TCD","country":"Chad","fill":"#FF0","id":"1465","name":"Kanem"},
"geometry":{"type": "Polygon","coordinates": [[[16.67139,16.34187,232.9447],[15.48529,16.89809,279.2581],[15.46852,16.90491,275.3001],[15.46555,16.89468,274.7182],[15.45242,16.87623,278.2173],[15.41842,16.84089,284.3197],[15.3624,16.78265,284.662],[15.30628,16.7242,291.6256],[15.25016,16.66591,299.46],[15.19404,16.60757,307.9991],[15.13792,16.54928,315.5273],[15.0818,16.49088,317.9536],[15.02578,16.43254,322.3319],[14.96966,16.37425,327.6231],[14.91354,16.3159,325.3287],[14.85742,16.25761,316.7606],[14.8014,16.19922,319.4255],[14.74538,16.14088,323.3606],[14.68926,16.08253,330.6733],[14.63314,16.02424,341.0394],[14.57692,15.9658,329.9091],[14.5208,15.90756,331.4301],[14.48214,15.86725,332.0308],[14.42354,15.80632,335.9679],[14.36897,15.74963,331.5692],[14.34045,15.71072,338.4424],[14.31068,15.66995,317.0943],[14.28071,15.62925,332.2471],[14.25094,15.58846,327.0769],[14.22118,15.54773,325.6439],[14.19121,15.50704,342.1766],[14.16144,15.46629,356.8062],[14.13157,15.42555,350.6444],[14.1017,15.38488,336.7422],[14.07183,15.34418,349.1573],[14.04207,15.30343,334.6325],[14.0122,15.26269,344.4883],[13.98233,15.22199,373.909],[13.95256,15.18122,327.296],[13.92259,15.1405,355.8071],[13.89283,15.0997,371.1477],[13.86296,15.05906,376.3698],[13.83391,15.0196,359.5831],[13.80808,14.96557,350.9816],[13.77542,14.89744,340.6088],[13.76053,14.86635,331.2135],[13.75516,14.84721,330.8839],[13.75392,14.82594,328.6809],[13.75795,14.80553,328.6571],[13.77201,14.76287,321.496],[13.77325,14.74251,320.1793],[13.76436,14.71908,318.5139],[13.74917,14.71125,316.3861],[13.73005,14.70965,315.8858],[13.70999,14.70512,315.7928],[13.70002,14.69773,315.0494],[13.66809,14.66288,309.6689],[13.64834,14.64942,310.2273],[13.64473,14.64425,309.8465],[13.64628,14.63906,303.0322],[13.65703,14.62965,307.5173],[13.66033,14.62373,309.7302],[13.66674,14.58552,301.5679],[13.6656,14.56689,296.203],[13.65785,14.54873,294.8888],[13.62426,14.52131,298.3639],[13.60805,14.51827,287.6175],[13.61532,14.51653,289.9743],[13.72162,14.517,296.2494],[13.73558,14.5157,296.9255],[13.74782,14.51291,296.3954],[13.76074,14.50216,295.3085],[13.77066,14.48842,294.3935],[13.7778,14.48072,298.9263],[13.78493,14.47638,294.6352],[13.9505,14.46615,299.7217],[13.99582,14.45235,299.9601],[14.00807,14.43467,301.1241],[14.0121,14.43106,300.9391],[14.01737,14.42806,301.0404],[14.02636,14.42656,301.7149],[14.06145,14.42563,303.7376],[14.07369,14.42403,304.9438],[14.08021,14.42129,305.3971],[14.08734,14.41669,304.2845],[14.10506,14.39354,303.4707],[14.10909,14.39101,303.4502],[14.11529,14.39142,303.8343],[14.12165,14.39018,302.8035],[14.12708,14.38672,302.5829],[14.13188,14.37835,303.0121],[14.13421,14.37147,303.2896],[14.14103,14.32869,298.9441],[14.14568,14.31386,298.0858],[14.1494,14.30848,294.6676],[14.15627,14.30352,296.4433],[14.19022,14.28616,298.7331],[14.24826,14.22404,295.9121],[14.26174,14.21319,295.1263],[14.30738,14.19882,299.9263],[14.31885,14.18647,299.9153],[14.34696,14.14565,299.6051],[14.35657,14.13495,297.0942],[14.36773,14.1302,298.4643],[14.3761,14.12829,298.7705],[14.4421,14.12172,304.8251],[14.45357,14.11883,306.3],[14.46411,14.11511,310.6613],[14.47016,14.11097,306.1348],[14.47744,14.10451,307.0019],[14.56514,13.98721,307.5742],[14.57645,13.9747,309.0309],[14.61604,13.94111,310.0115],[14.64379,13.90892,308.2405],[14.79572,13.67121,294.5511],[14.80517,13.66382,295.2936],[14.81572,13.66831,294.9937],[14.83964,13.68588,298.5251],[14.85096,13.68764,298.1897],[14.85825,13.68754,298.9595],[14.9076,13.67824,298.0985],[14.91581,13.67875,297.89],[15.21326,13.75058,314.5529],[15.37582,13.75199,304.9488],[15.56014,13.26483,288.4129],[15.74305,13.18214,289.882],[15.77623,13.17186,287.6417],[15.84764,13.16876,289.0333],[15.87167,13.1715,283.9684],[15.88361,13.18788,285.399],[15.89699,13.22679,292.7774],[15.89994,13.25046,288.5052],[15.89839,13.5215,294.908],[15.89653,13.5355,289.5708],[15.89095,13.54377,288.8315],[15.86981,13.56527,292.8089],[15.86051,13.57685,292.5811],[15.85818,13.58124,288.7042],[15.85338,13.59545,287.8085],[15.85074,13.60899,290.5168],[15.8402,13.64263,283.0999],[15.84005,13.65012,285.7521],[15.8416,13.65653,293.1227],[15.85989,13.68816,289.4219],[15.86501,13.70092,288.8936],[15.86532,13.70717,295.2254],[15.86144,13.73027,286.5697],[15.85741,13.7451,285.9662],[15.8526,13.75689,287.4182],[15.84733,13.76221,290.0824],[15.84175,13.76578,282.2273],[15.81984,13.77311,290.8413],[15.79628,13.77869,289.7492],[15.77545,13.78655,292.9509],[15.76413,13.7896,288.5785],[15.75824,13.79017,285.9146],[15.75235,13.78955,286.8004],[15.74848,13.78665,285.2077],[15.7261,13.75999,292.4199],[15.72197,13.75699,295.4974],[15.71618,13.75492,295.701],[15.60072,13.75393,283.8117],[15.59046,14.07674,310.6556],[15.77427,14.14822,311.6881],[16.04998,14.47499,314.7046],[16.11125,14.57711,309.9484],[16.13167,14.81198,319.3793],[16.26443,15.26129,311.9597],[16.48908,16.03738,274.181],[16.67139,16.34187,232.9447]]]}}