{"type":"Feature","properties":{"GID_3":"TCD.12.3.3_1","GID_0":"TCD","country":"Chad","GID_1":"TCD.12_1","province":"LogoneOriental","NL_NAME_1":"NA","GID_2":"TCD.12.3_1","county":"NyaPendé","NL_NAME_2":"NA","city":"Boye-Bessao","VARNAME_3":"NA","NL_NAME_3":"NA","TYPE_3":"Sub-prefecture","ENGTYPE_3":"Sub-prefecture","CC_3":"NA","HASC_3":"NA","name":"Boye-Bessao.city"},
"geometry":{"type": "MultiPolygon","coordinates": [[[[15.9564,8.4899,411.0128],[15.918,8.462,422.4141],[15.862,8.435,438.1562],[15.834,8.403,441.9726],[15.8599,8.3475,406.0774],[15.8836,8.3233,409.4659],[15.9207,8.2927,415.8717],[15.9459,8.2748,424.6478],[16.0271,8.2599,444.4215],[16.0747,8.2628,494.4016],[16.1012,8.2758,520.6023],[16.1487,8.2814,511.8911],[16.1797,8.2744,510.2902],[16.2166,8.2628,523.7855],[16.2433,8.25,534.9327],[16.3014,8.2277,448.4703],[16.289,8.2714,476.0772],[16.2895,8.2918,477.9189],[16.2825,8.3075,468.638],[16.2838,8.3691,435.3211],[16.2793,8.3991,441.1281],[16.2656,8.3905,445.0356],[16.2151,8.373,452.6195],[16.1895,8.37,453.4003],[16.1459,8.3546,503.3073],[16.1211,8.357,521.7024],[16.0888,8.3679,482.139],[16.0538,8.3903,432.6544],[16.0146,8.4332,424.8387],[15.958,8.491,411.5927],[15.9564,8.4899,411.0128]]]]}}