{"type": "Feature","bbox": [17.046,7.8035,18.214,9.641],"geometry": {"type": "MultiPolygon","coordinates": [[[[17.7017,7.9722,381.9168],[17.7034,7.9695,387.813],[17.7073,7.9702,389.2217],[17.7131,7.9775,379.5706],[17.7163,7.9786,379.5091],[17.7332,7.9784,379.049],[17.7724,7.9735,405.2224],[17.7975,7.9722,409.375],[17.8475,7.9652,401.7767],[17.9216,7.9586,402.8167],[17.9306,7.9594,397.6016],[17.9449,7.9628,405.1563],[17.9956,7.9928,408.5222],[18.0,7.9859,408.0642],[18.032,8.0093,403.3239],[18.0467,8.0112,406.8039],[18.1641,8.0147,411.9457],[18.214,8.0194,410.2974],[18.2038,8.0576,406.2324],[18.1952,8.0781,404.8486],[18.1909,8.1097,404.2099],[18.1698,8.2083,397.144],[18.1663,8.2526,396.5403],[18.1775,8.2972,398.2232],[18.1779,8.3398,391.7805],[18.1678,8.3778,383.2018],[18.1551,8.3945,386.1852],[18.1443,8.4162,385.745],[18.1279,8.4688,387.2654],[18.1265,8.513,383.3508],[18.1231,8.5301,377.5259],[18.1169,8.5459,379.5455],[18.1104,8.5533,380.5299],[18.1025,8.5526,382.355],[18.0944,8.5601,381.172],[18.0783,8.5655,379.244],[18.0701,8.5813,377.6443],[18.0638,8.5995,374.7173],[18.0573,8.6332,374.3855],[18.0489,8.6605,373.7096],[18.0493,8.7142,371.5462],[18.0525,8.7324,372.1924],[18.0617,8.763,371.0831],[18.0615,8.7851,371.5945],[18.0585,8.7952,370.1831],[18.0518,8.8026,372.9504],[18.0426,8.8094,373.8477],[18.0279,8.8303,372.3184],[18.0248,8.8406,371.6107],[18.019,8.844,370.9634],[18.0097,8.8737,370.9355],[18.0087,8.8837,370.0268],[18.0038,8.8931,371.1572],[17.9977,8.9171,366.1687],[17.9958,8.959,367.0868],[17.9993,8.9676,368.5105],[18.0257,8.9976,365.8775],[18.0674,9.0131,366.8805],[18.1005,9.02,367.7028],[18.109,9.0274,368.6042],[18.1492,9.0789,363.0798],[18.1623,9.1032,365.0865],[18.1918,9.1488,363.5717],[18.1977,9.1623,363.6245],[18.1999,9.1762,356.2724],[18.1444,9.1793,364.4191],[18.1118,9.1861,376.3273],[18.0557,9.1907,404.9777],[18.0362,9.1962,439.3744],[18.0112,9.1989,475.1106],[18.003,9.2027,488.6562],[17.994,9.2173,462.7167],[17.9834,9.223,429.9676],[17.9439,9.2394,418.9103],[17.9244,9.2509,410.2451],[17.8425,9.2906,441.5938],[17.8255,9.2953,449.9493],[17.8197,9.3251,503.3396],[17.811,9.347,502.5811],[17.7756,9.417,407.7555],[17.763,9.436,430.4745],[17.7567,9.4391,433.437],[17.7459,9.4403,433.6071],[17.7366,9.4443,427.5028],[17.7238,9.4437,423.0581],[17.6851,9.4486,412.5443],[17.6758,9.4463,412.1399],[17.6658,9.4487,409.2858],[17.6588,9.4695,393.3145],[17.6444,9.5029,387.7633],[17.6205,9.5428,371.9713],[17.5956,9.5673,366.4301],[17.554,9.597,353.9871],[17.507,9.616,351.873],[17.484,9.641,348.5521],[17.449,9.632,349.2567],[17.427,9.62,354.5831],[17.371,9.612,352.1404],[17.347,9.599,349.9286],[17.317,9.594,346.197],[17.288,9.601,342.7347],[17.251,9.596,343.4028],[17.209,9.576,344.3195],[17.216,9.545,344.8169],[17.257,9.492,346.1147],[17.228,9.47,350.1866],[17.23,9.393,353.8706],[17.228,9.371,359.8567],[17.201,9.355,356.5549],[17.075,9.261,369.5257],[17.222,9.166,385.2345],[17.134,9.078,521.037],[17.15,8.971,395.8194],[17.152,8.885,378.4353],[17.142,8.762,382.3062],[17.046,8.631,385.2645],[17.13,8.545,387.6786],[17.159,8.495,411.7458],[17.295,8.296,378.5481],[17.213,8.157,380.1679],[17.156,8.146,388.7861],[17.108,8.131,393.5346],[17.2839,7.8035,402.2545],[17.301,7.8055,399.2929],[17.3042,7.8094,399.1029],[17.3034,7.8174,400.2716],[17.3045,7.8236,400.7129],[17.3087,7.8277,395.1078],[17.3147,7.8284,391.5564],[17.328,7.821,399.6955],[17.3328,7.8205,400.2615],[17.3358,7.8223,401.3826],[17.3412,7.8374,391.3479],[17.3454,7.8411,391.8109],[17.3592,7.8403,399.5441],[17.3652,7.8488,389.9378],[17.3687,7.8496,390.7848],[17.3763,7.8466,391.0416],[17.3936,7.8509,390.2219],[17.3984,7.8437,390.1263],[17.403,7.843,407.0503],[17.4049,7.8474,403.4744],[17.4035,7.8524,400.6407],[17.4044,7.8579,396.0219],[17.4089,7.8662,388.9843],[17.4119,7.8666,388.3701],[17.4153,7.8613,403.8821],[17.4236,7.8585,407.6741],[17.4243,7.8631,398.9565],[17.4193,7.8682,389.2159],[17.4181,7.8714,389.6133],[17.4211,7.8755,388.3406],[17.4331,7.8773,389.1638],[17.4356,7.8756,388.9219],[17.4388,7.8676,396.9483],[17.4411,7.866,399.205],[17.4457,7.8662,402.4138],[17.4494,7.8691,399.8034],[17.4499,7.8719,397.4597],[17.4472,7.8776,392.0238],[17.4491,7.8834,395.9579],[17.4555,7.8822,394.3829],[17.4596,7.8838,395.1679],[17.4678,7.894,388.0129],[17.4728,7.8947,388.2242],[17.4767,7.8928,386.3035],[17.4855,7.8857,390.1483],[17.5056,7.8736,388.2079],[17.5111,7.8676,398.1401],[17.5151,7.8687,402.3603],[17.5235,7.891,385.5671],[17.5269,7.8914,385.6341],[17.5308,7.8868,385.4529],[17.5368,7.8872,388.8151],[17.5387,7.8911,398.8347],[17.5385,7.904,385.3897],[17.5423,7.9147,386.3231],[17.5472,7.9213,390.3916],[17.5513,7.9232,383.8838],[17.5617,7.9226,382.9471],[17.564,7.9196,388.8587],[17.5648,7.913,392.6081],[17.5671,7.9088,397.1017],[17.5745,7.909,403.2111],[17.5787,7.9124,403.4753],[17.5852,7.9239,391.1338],[17.5965,7.9327,383.1525],[17.6014,7.9327,381.7505],[17.6101,7.926,399.9137],[17.6165,7.9269,402.7111],[17.6332,7.9454,382.7862],[17.6454,7.9435,392.3669],[17.6489,7.9457,389.1316],[17.6589,7.9624,382.2743],[17.6571,7.9695,390.7482],[17.6583,7.9741,388.739],[17.6717,7.9828,386.2894],[17.6832,7.9841,381.6224],[17.694,7.9817,389.3154],[17.7017,7.9722,381.9168]]]]}
,"properties": {"GID_1": "TCD.13_1","GID_0": "TCD","country": "Chad","province": "Mandoul","VARNAME_1": "NA","NL_NAME_1": "NA","TYPE_1": "Région","ENGTYPE_1": "Region","CC_1": "NA","HASC_1": "TD.MA","ISO_1": "NA","name": "Mandoul.province","area_km2": 17518.24,"hist_schema_id": "Elevation0-9000","hist_area_km2": {"350": 904.77,"375": 8283.42,"400": 4830.22,"425": 1410.99,"450": 641.2,"475": 394.67,"500": 296.21,"525": 220.96,"550": 174.99,"575": 144.84,"600": 95.03,"625": 67.31,"650": 38.31,"675": 14.97,"700": 0.36}}}