{"type": "Feature","id": "1488","bbox": [17.03346,7.8108,18.17543,9.64375],"geometry": {"type": "Polygon","coordinates": [[[17.53653,9.58706,350.7409],[17.53359,9.58805,352.5356],[17.52459,9.59879,354.2918],[17.52072,9.60179,354.2482],[17.51607,9.60422,352.4344],[17.50578,9.60748,349.54],[17.49788,9.60918,350.7345],[17.48842,9.61228,349.8795],[17.47896,9.61724,355.837],[17.47524,9.6205,355.248],[17.47214,9.62412,357.7013],[17.46641,9.63213,353.3636],[17.46325,9.63579,350.5878],[17.45974,9.63921,348.6819],[17.45519,9.64189,346.4481],[17.44977,9.64344,347.7186],[17.44372,9.64375,346.6371],[17.43814,9.64303,347.1396],[17.42806,9.63941,346.4685],[17.4029,9.62499,344.8104],[17.40026,9.62391,345.6796],[17.39592,9.62277,343.4668],[17.38491,9.62164,346.401],[17.366,9.62257,344.6727],[17.36026,9.62184,344.3501],[17.35391,9.61998,343.2909],[17.34771,9.61709,344.342],[17.3337,9.60861,343.3077],[17.30688,9.60014,344.2385],[17.30099,9.59921,342.9536],[17.25459,9.60148,343.9091],[17.24544,9.59807,342.422],[17.23422,9.59202,344.6796],[17.21345,9.57673,344.8922],[17.20446,9.5682,344.3181],[17.19888,9.56086,343.6139],[17.19764,9.55539,343.7008],[17.19764,9.5497,343.9417],[17.1995,9.54484,342.7593],[17.2074,9.53895,345.1707],[17.21082,9.53544,345.0131],[17.21252,9.53043,345.4968],[17.21454,9.51901,345.9523],[17.21686,9.51456,346.7198],[17.21826,9.50733,348.4706],[17.21764,9.49596,350.5218],[17.20911,9.47002,351.34],[17.20694,9.45167,349.1302],[17.20678,9.43482,353.5425],[17.21082,9.40759,352.1999],[17.21144,9.39519,353.1698],[17.21004,9.38599,354.9114],[17.20198,9.37726,355.9236],[17.07196,9.27551,368.4955],[17.06323,9.26336,369.0033],[17.06865,9.25282,371.8174],[17.07925,9.24243,371.7394],[17.17278,9.17329,385.1417],[17.18245,9.16414,385.5522],[17.18565,9.15655,390.3944],[17.18027,9.14694,402.2198],[17.10483,9.06978,504.4784],[17.12395,9.00576,437.4017],[17.12591,8.99594,426.2327],[17.11738,8.78365,382.0849],[17.11041,8.76091,382.464],[17.10219,8.74231,382.8794],[17.04803,8.66154,383.7301],[17.03346,8.63265,385.8302],[17.03579,8.62015,386.0344],[17.0392,8.61157,385.9373],[17.24947,8.29055,382.8182],[17.24947,8.28456,379.4392],[17.24652,8.28089,380.1973],[17.24203,8.27877,381.1823],[17.23815,8.27577,382.8629],[17.23505,8.27195,384.6074],[17.23298,8.26689,385.4111],[17.23035,8.24818,385.7656],[17.22864,8.24265,383.9796],[17.22616,8.23831,383.0256],[17.22306,8.23443,380.813],[17.21934,8.23118,379.9536],[17.21268,8.22399,387.3238],[17.20678,8.21593,389.0766],[17.19748,8.19743,390.5657],[17.19438,8.19361,390.0354],[17.18307,8.1842,391.9523],[17.17996,8.18028,392.7674],[17.17294,8.16632,391.4224],[17.1703,8.16198,389.3533],[17.16674,8.15847,385.585],[17.16255,8.15588,384.6745],[17.15728,8.15464,383.0645],[17.15123,8.15475,383.725],[17.13899,8.15645,390.1547],[17.13263,8.15651,393.3415],[17.12674,8.15588,393.2259],[17.11103,8.15134,395.7396],[17.09289,8.14932,404.4199],[17.08731,8.1472,407.7892],[17.08312,8.14359,404.7292],[17.08018,8.13682,398.0988],[17.08142,8.13211,392.9732],[17.08436,8.12808,390.0587],[17.08762,8.12472,392.7277],[17.09087,8.12038,399.9907],[17.2336,7.8112,416.6182],[17.23379,7.8108,416.6182],[17.23464,7.81162,418.6896],[17.25086,7.82283,420.3491],[17.38574,7.87048,403.3708],[17.406,7.88303,396.2796],[17.41912,7.89823,403.6678],[17.46635,7.88412,394.0229],[17.47834,7.89182,385.9402],[17.48723,7.91445,412.4628],[17.50366,7.92624,421.0414],[17.52382,7.93099,403.8414],[17.55979,7.93471,391.9982],[17.58077,7.9406,390.899],[17.59999,7.95037,392.2269],[17.62066,7.97874,400.6228],[17.63988,7.98504,390.2905],[17.66179,7.98628,383.6612],[17.67978,7.9852,379.1033],[17.81724,7.9621,414.6555],[17.85879,7.96045,406.4019],[17.89785,7.96747,406.515],[17.97723,7.99719,406.2101],[18.07045,8.0192,403.6393],[18.17543,8.02195,411.2251],[18.15641,8.08053,403.2728],[18.14254,8.15163,400.0802],[18.12693,8.21407,401.7885],[18.1304,8.26956,398.6342],[18.13386,8.33893,395.725],[18.12866,8.37882,387.2874],[18.10438,8.42391,387.8228],[18.09051,8.46726,385.6801],[18.08877,8.52102,382.6599],[18.06796,8.55224,382.869],[18.03155,8.57652,373.9599],[18.01247,8.62161,374.3369],[18.00727,8.68404,374.3713],[18.0142,8.74127,374.9688],[18.02287,8.77075,370.926],[18.0142,8.8037,373.0936],[17.99263,8.82383,362.2676],[17.95696,8.84182,366.4099],[17.94068,8.84968,372.0211],[17.93751,8.85973,371.0438],[17.94239,8.86819,369.7105],[17.94752,8.87763,370.0883],[17.95379,8.87893,369.6277],[17.96119,8.88447,367.048],[17.96168,8.89118,368.4456],[17.9594,8.89537,369.1428],[17.95501,8.90119,370.3514],[17.96746,9.00739,419.4219],[17.97779,9.01789,420.9977],[17.9839,9.01663,410.3837],[17.98968,9.00833,362.0033],[18.00432,8.99946,365.3551],[18.02247,9.01671,364.3911],[18.03346,9.02102,362.9283],[18.04737,9.01883,365.7543],[18.06422,9.02102,365.2473],[18.09148,9.04121,364.8541],[18.12053,9.07624,366.4027],[18.14186,9.11469,364.6204],[18.14617,9.14513,365.7935],[18.15374,9.14944,361.8864],[18.16546,9.1601,359.6453],[18.14174,9.18797,363.1938],[18.0779,9.19709,394.3856],[17.99581,9.20014,474.6527],[17.92893,9.23358,433.7361],[17.85293,9.2731,460.9078],[17.79517,9.29134,462.4035],[17.78301,9.32782,479.9084],[17.75565,9.39166,423.179],[17.73437,9.43118,437.2719],[17.71309,9.4555,408.5356],[17.62493,9.45246,388.335],[17.60668,9.5163,374.592],[17.57932,9.55886,357.8085],[17.53653,9.58706,350.7409]]]}
,"properties": {"ISO3166-1-Alpha-3": "TCD","country": "Chad","fill": "#F0F","name": "Mandoul","area_km2": 17338.1,"hist_schema_id": "Elevation0-9000","hist_area_km2": {"350": 956.68,"375": 8153.27,"400": 4600.41,"425": 1455.11,"450": 703.36,"475": 409.9,"500": 301.44,"525": 222.14,"550": 174.99,"575": 144.84,"600": 95.03,"625": 67.31,"650": 38.31,"675": 14.97,"700": 0.36}}}