{"type":"Feature","properties":{"GID_3":"TCD.9.1.5_1","GID_0":"TCD","country":"Chad","GID_1":"TCD.9_1","province":"Kanem","NL_NAME_1":"NA","GID_2":"TCD.9.1_1","county":"Kanem","NL_NAME_2":"NA","city":"Mondo","VARNAME_3":"NA","NL_NAME_3":"NA","TYPE_3":"Sub-prefecture","ENGTYPE_3":"Sub-prefecture","CC_3":"NA","HASC_3":"NA","name":"Mondo.city"},
"geometry":{"type": "MultiPolygon","coordinates": [[[[15.607,13.878,296.8043],[15.558,13.847,305.2236],[15.522,13.808,305.96],[15.499,13.747,294.7729],[15.393,13.742,300.9968],[15.453,13.586,301.1545],[15.537,13.642,297.9782],[15.608,13.678,293.9226],[15.663,13.712,284.7412],[15.647,13.735,283.7645],[15.602,13.749,287.5467],[15.607,13.878,296.8043]]]]}}