{"type": "Feature","bbox": [16.7888,9.05,17.23,9.5084],"geometry": {"type": "MultiPolygon","coordinates": [[[[17.134,9.078,521.037],[17.222,9.166,385.2345],[17.075,9.261,369.5257],[17.201,9.355,356.5549],[17.228,9.371,359.8567],[17.23,9.393,353.8706],[17.2296,9.4084,354.7447],[17.1912,9.4129,352.4933],[17.1594,9.4208,357.6546],[17.1174,9.4376,352.2685],[17.0928,9.4455,349.0435],[17.033,9.4611,345.0864],[17.0123,9.4742,350.4324],[16.9785,9.5084,343.6911],[16.9715,9.4951,345.3137],[16.9693,9.4718,346.9378],[16.9596,9.4437,343.4724],[16.9671,9.421,346.3194],[16.9584,9.399,347.4192],[16.9568,9.3886,346.1268],[16.943,9.3822,349.2389],[16.9195,9.3814,346.3348],[16.8948,9.3732,349.1863],[16.8229,9.3746,349.5275],[16.8057,9.3676,352.675],[16.7943,9.3669,354.5509],[16.7888,9.3423,360.6293],[16.7931,9.3277,359.3458],[16.7969,9.2558,359.9776],[16.7958,9.2355,366.3929],[16.8012,9.2241,371.9147],[16.8202,9.2117,369.4992],[16.8337,9.1929,375.8939],[16.8416,9.166,377.0081],[16.8438,9.1217,440.1663],[16.8499,9.1028,467.3754],[16.8549,9.0629,474.0133],[16.986,9.05,469.8042],[17.134,9.078,521.037]]]]}
,"properties": {"GID_3": "TCD.20.2.5_1","GID_0": "TCD","country": "Chad","GID_1": "TCD.20_1","province": "Tandjilé","NL_NAME_1": "NA","GID_2": "TCD.20.2_1","county": "TandjiléEst","NL_NAME_2": "NA","city": "Goulaye","VARNAME_3": "NA","NL_NAME_3": "NA","TYPE_3": "Sub-prefecture","ENGTYPE_3": "Sub-prefecture","CC_3": "NA","HASC_3": "NA","name": "Goulaye.city","area_km2": 1533.187,"hist_schema_id": "Elevation0-9000","hist_area_km2": {"350": 699.243,"375": 441.044,"400": 90.616,"425": 72.618,"450": 72.224,"475": 99.949,"500": 49.661,"525": 7.83}}}