{"type": "Feature","bbox": [15.6521,9.9293,15.7779,10.0762],"geometry": {"type": "MultiPolygon","coordinates": [[[[15.6812,9.9933,334.4968],[15.6837,9.9851,333.8017],[15.6581,9.9762,334.4301],[15.6637,9.9632,334.5179],[15.6914,9.9293,336.2075],[15.6938,9.9354,336.5991],[15.7029,9.9405,335.2361],[15.7112,9.9428,334.3708],[15.7359,9.9395,332.0],[15.7508,9.9355,336.7582],[15.7623,9.936,337.4273],[15.7664,9.9433,336.6715],[15.7779,9.9917,335.9695],[15.7725,10.0069,336.3185],[15.7601,10.0319,335.3795],[15.7259,10.0762,333.5967],[15.7096,10.0741,333.2363],[15.7005,10.0675,333.6716],[15.6741,10.0549,333.9283],[15.667,10.0439,334.2788],[15.6699,10.0374,334.3949],[15.6678,10.028,334.5488],[15.6521,10.026,334.0439],[15.6599,10.0211,333.5506],[15.6618,10.0179,331.3964],[15.671,10.0136,331.4891],[15.6779,10.0039,332.3451],[15.6895,9.9964,332.1831],[15.6812,9.9933,334.4968]]]]}
,"properties": {"GID_3": "TCD.14.2.4_1","GID_0": "TCD","country": "Chad","GID_1": "TCD.14_1","province": "Mayo-KebbiEst","NL_NAME_1": "NA","GID_2": "TCD.14.2_1","county": "Mayo-Boneye","NL_NAME_2": "NA","city": "Ham","VARNAME_3": "NA","NL_NAME_3": "NA","TYPE_3": "Sub-prefecture","ENGTYPE_3": "Sub-prefecture","CC_3": "NA","HASC_3": "NA","name": "Ham.city","area_km2": 145.8058,"hist_schema_id": "Elevation0-9000","hist_area_km2": {"325": 145.7223,"350": 0.0835}}}