{"type":"Feature","properties":{"GID_3":"TCD.16.3.14_1","GID_0":"TCD","country":"Chad","GID_1":"TCD.16_1","province":"Moyen-Chari","NL_NAME_1":"NA","GID_2":"TCD.16.3_1","county":"LacIro","NL_NAME_2":"NA","city":"Singako","VARNAME_3":"NA","NL_NAME_3":"NA","TYPE_3":"Sub-prefecture","ENGTYPE_3":"Sub-prefecture","CC_3":"NA","HASC_3":"NA","name":"Singako.city"},
"geometry":{"type": "MultiPolygon","coordinates": [[[[19.2123,9.7099,386.0173],[19.224,9.6879,380.8393],[19.2231,9.6749,382.8714],[19.2154,9.6521,382.8194],[19.2198,9.6306,379.9669],[19.2269,9.616,382.4811],[19.2292,9.6068,381.6269],[19.2304,9.5865,379.8149],[19.2258,9.5539,381.6747],[19.2221,9.5436,380.7708],[19.221,9.5337,380.1358],[19.2253,9.5209,381.1967],[19.2969,9.4811,374.5496],[19.3232,9.4634,381.2559],[19.3281,9.4526,381.4962],[19.3389,9.4033,379.9546],[19.382,9.4037,380.468],[19.4359,9.3988,381.5836],[19.464,9.4004,382.2209],[19.4985,9.3964,382.3802],[19.5399,9.3945,383.2673],[19.5948,9.4055,384.7921],[19.6182,9.4126,385.0573],[19.6505,9.4257,385.7516],[19.6699,9.4356,387.0073],[19.6889,9.4521,386.6424],[19.7153,9.4857,387.7037],[19.7452,9.5071,389.3743],[19.7915,9.5185,390.8575],[19.8338,9.5243,390.7258],[19.681,9.962,393.9996],[19.6567,9.9996,394.006],[19.6234,9.9874,393.4751],[19.612,9.9798,393.031],[19.6034,9.966,392.9738],[19.6017,9.9498,392.4654],[19.5706,9.9421,392.134],[19.556,9.9083,390.4308],[19.5522,9.8947,389.9813],[19.5432,9.8851,389.4778],[19.5324,9.8879,389.9317],[19.5226,9.888,389.6377],[19.5107,9.8806,390.969],[19.5025,9.8745,392.1587],[19.4873,9.8498,390.639],[19.4757,9.8498,390.651],[19.4564,9.8558,388.235],[19.4403,9.8639,388.3526],[19.422,9.8676,387.9963],[19.4018,9.8692,388.0221],[19.3937,9.8522,387.6822],[19.3683,9.8304,388.0904],[19.3435,9.8169,387.5746],[19.2912,9.8088,386.6079],[19.2651,9.7974,384.9105],[19.2465,9.7734,385.3177],[19.2123,9.7099,386.0173]]]]}}