{"type": "Feature","bbox": [17.381,8.0194,19.9854,10.588],"geometry": {"type": "MultiPolygon","coordinates": [[[[19.0615,8.6148,375.7157],[19.0634,8.6174,375.1591],[19.0658,8.6374,383.0423],[19.0703,8.6401,377.0574],[19.0778,8.6408,373.1341],[19.0836,8.6492,375.6269],[19.091,8.6496,374.1594],[19.094,8.6519,372.9341],[19.0966,8.6577,375.2465],[19.1005,8.661,372.459],[19.1133,8.6647,366.8956],[19.1206,8.6687,366.676],[19.1222,8.6712,373.4364],[19.1214,8.6754,368.462],[19.1159,8.6782,370.3474],[19.109,8.6857,369.7831],[19.105,8.6939,368.2584],[19.1051,8.6987,378.3035],[19.0998,8.6995,366.0119],[19.0822,8.7105,366.1223],[19.0595,8.7158,365.8912],[19.0417,8.7274,373.4809],[19.0333,8.7355,374.665],[19.0196,8.7614,385.5948],[19.0145,8.7657,380.6852],[19.0,8.7704,373.4348],[18.9971,8.7693,364.4854],[18.9852,8.7744,371.4004],[18.9704,8.7814,364.1634],[18.9604,8.7881,363.7707],[18.9566,8.7935,364.743],[18.9523,8.8092,372.1512],[18.9466,8.8128,372.6743],[18.9359,8.81,368.3324],[18.923,8.8004,370.9101],[18.9097,8.8069,371.4686],[18.9071,8.8146,363.3622],[18.9062,8.8468,361.8328],[18.9008,8.8506,366.0287],[18.8885,8.8513,368.4076],[18.8839,8.8482,367.9356],[18.8808,8.8437,366.7111],[18.8814,8.8405,368.2735],[18.8715,8.8428,365.612],[18.8686,8.8493,364.6728],[18.8636,8.8505,365.0717],[18.8625,8.8526,365.6757],[18.8673,8.8617,368.041],[18.8655,8.8659,365.5838],[18.8657,8.8714,367.4248],[18.8683,8.8757,370.1907],[18.8823,8.8811,367.7268],[18.8927,8.8896,370.7127],[18.8923,8.8935,370.2634],[18.8866,8.898,366.599],[18.889,8.901,367.3116],[18.8957,8.9013,368.3852],[18.9053,8.8978,373.0602],[18.9117,8.9126,374.5897],[18.9186,8.9231,367.5045],[18.9226,8.926,369.1739],[18.933,8.9264,374.1345],[18.9431,8.931,365.7291],[18.9482,8.9307,368.7248],[18.9571,8.927,372.9796],[18.9604,8.9276,373.617],[18.9624,8.9338,370.2406],[18.9661,8.936,370.5182],[18.9685,8.9403,370.8439],[18.9759,8.9415,368.3549],[18.9775,8.9484,370.2569],[18.9814,8.9537,369.296],[18.9838,8.9684,370.1972],[18.9876,8.9752,368.655],[18.9927,8.9792,369.473],[18.9988,8.9798,369.3768],[19.0042,8.977,370.4861],[19.0097,8.9781,370.3688],[19.0136,8.9818,370.1319],[19.0187,8.9909,371.6823],[19.0283,8.9972,367.7607],[19.0432,8.9943,371.9266],[19.0507,8.9976,370.3224],[19.0586,8.9957,370.306],[19.0665,9.0046,370.4716],[19.0698,9.0054,370.3457],[19.076,9.0039,371.3222],[19.0777,9.0149,370.8008],[19.0917,9.0205,371.418],[19.0956,9.0196,371.9673],[19.1011,9.0098,371.4981],[19.1046,9.0085,371.5219],[19.1245,9.0054,375.6811],[19.1273,9.0069,375.3621],[19.1352,9.0045,375.6779],[19.1508,9.0089,372.1602],[19.157,9.0138,372.3773],[19.1699,9.0171,372.0154],[19.175,9.0245,372.2098],[19.1803,9.0248,371.8369],[19.1878,9.0215,372.4751],[19.1924,9.0216,372.704],[19.2184,9.0315,372.7316],[19.2224,9.0276,372.4788],[19.2254,9.027,373.0547],[19.2355,9.0288,372.0064],[19.2409,9.0259,374.4746],[19.2527,9.0259,373.1107],[19.2618,9.0208,373.2982],[19.2637,9.0178,374.4696],[19.2705,9.0133,375.7724],[19.275,9.0118,376.9483],[19.2897,9.0115,374.9906],[19.3023,9.0079,375.8348],[19.3092,9.0078,378.6562],[19.3216,9.0113,377.1829],[19.3379,9.0203,373.1978],[19.3546,9.0156,373.6954],[19.3579,9.0134,373.8097],[19.3657,9.0131,376.5263],[19.379,9.018,376.0339],[19.3888,9.0168,375.615],[19.3957,9.0183,375.97],[19.4011,9.026,374.8134],[19.414,9.0249,375.9639],[19.4207,9.0278,377.2301],[19.4316,9.0258,376.9438],[19.4391,9.0312,377.3656],[19.4508,9.025,376.4974],[19.4582,9.0255,379.4794],[19.4592,9.0178,375.0016],[19.4738,9.0182,377.1373],[19.4791,9.0144,377.5745],[19.4826,9.0152,376.1047],[19.4883,9.0205,376.9096],[19.4909,9.0181,376.2871],[19.4941,9.0183,376.4734],[19.4973,9.0212,375.8692],[19.4989,9.032,376.8417],[19.501,9.0338,378.4157],[19.5068,9.0342,379.0178],[19.5119,9.0315,379.6845],[19.5146,9.0198,377.2158],[19.5172,9.0171,376.6018],[19.523,9.0163,379.4776],[19.5352,9.0186,378.0024],[19.5425,9.0231,377.3156],[19.5544,9.0352,377.551],[19.5592,9.0367,378.8621],[19.5687,9.0364,379.1453],[19.5728,9.0392,377.8661],[19.5776,9.04,376.4353],[19.5818,9.037,377.1929],[19.5859,9.0309,377.3127],[19.602,9.0194,381.7672],[19.6144,9.0215,379.8368],[19.6314,9.0184,384.5641],[19.647,9.0239,377.732],[19.659,9.0239,379.2249],[19.6667,9.0204,379.898],[19.672,9.0208,380.8565],[19.6836,9.0292,379.2973],[19.7019,9.0275,381.5639],[19.7199,9.0406,378.8408],[19.7215,9.0445,378.4378],[19.7349,9.0443,379.1546],[19.7437,9.0489,379.0939],[19.7596,9.0493,379.9825],[19.7633,9.0503,379.7454],[19.7729,9.0574,379.7303],[19.78,9.0586,380.2889],[19.7893,9.0585,379.9509],[19.7981,9.0561,380.584],[19.8043,9.0567,382.2842],[19.8124,9.0587,380.2262],[19.8225,9.0643,382.7977],[19.8287,9.0495,382.3941],[19.8355,9.0434,385.2724],[19.842,9.044,386.5018],[19.8494,9.0537,379.8566],[19.8565,9.0601,380.1914],[19.8645,9.0645,381.1396],[19.8717,9.0658,382.5341],[19.878,9.0631,381.06],[19.8829,9.0636,381.6692],[19.8862,9.061,379.7805],[19.8944,9.0621,380.3935],[19.9049,9.0683,382.319],[19.9271,9.0608,387.8663],[19.9307,9.0679,381.1779],[19.9327,9.0793,382.9929],[19.9354,9.0844,383.4012],[19.9394,9.0871,383.3427],[19.9803,9.092,382.2083],[19.9854,9.0953,383.4006],[19.923,9.269,387.0109],[19.681,9.962,393.9996],[19.613,10.067,396.4634],[19.654,10.097,398.7444],[19.648,10.156,397.7988],[19.681,10.213,400.1369],[19.692,10.267,400.4955],[19.635,10.289,404.1219],[19.703,10.588,406.3282],[19.619,10.526,409.1622],[19.584,10.478,402.3688],[19.533,10.475,401.893],[19.496,10.496,400.2784],[19.43,10.469,411.1162],[19.391,10.425,415.0414],[19.382,10.382,406.8703],[19.344,10.344,394.825],[19.355,10.299,412.8535],[19.321,10.27,419.5235],[19.284,10.224,426.2546],[19.241,10.209,403.0311],[19.215,10.187,391.0424],[19.208,10.146,390.9069],[19.161,10.155,389.1475],[19.138,10.129,389.4442],[19.126,10.084,387.2957],[19.084,10.015,384.6064],[19.078,9.988,386.5224],[18.825,9.988,383.7515],[18.794,9.879,380.3649],[18.737,9.877,378.223],[18.632,9.919,371.116],[18.642,10.025,377.0905],[18.496,10.186,375.2409],[18.437,10.212,369.0147],[18.381,10.247,367.4492],[18.341,10.24,368.7788],[18.289,10.262,364.929],[18.209,10.322,365.8643],[18.164,10.346,361.2156],[18.104,10.365,359.2461],[18.067,10.35,358.4732],[18.013,10.381,358.4543],[17.962,10.397,356.0126],[17.864,10.497,396.2153],[17.543,10.451,350.8359],[17.489,10.172,345.8617],[17.381,9.826,347.7145],[17.461,9.785,353.3111],[17.521,9.74,358.116],[17.591,9.673,352.9009],[17.575,9.624,355.0051],[17.554,9.597,353.9871],[17.5956,9.5673,366.4301],[17.6205,9.5428,371.9713],[17.6444,9.5029,387.7633],[17.6588,9.4695,393.3145],[17.6658,9.4487,409.2858],[17.6758,9.4463,412.1399],[17.6851,9.4486,412.5443],[17.7238,9.4437,423.0581],[17.7366,9.4443,427.5028],[17.7459,9.4403,433.6071],[17.7567,9.4391,433.437],[17.763,9.436,430.4745],[17.7756,9.417,407.7555],[17.811,9.347,502.5811],[17.8197,9.3251,503.3396],[17.8255,9.2953,449.9493],[17.8425,9.2906,441.5938],[17.9244,9.2509,410.2451],[17.9439,9.2394,418.9103],[17.9834,9.223,429.9676],[17.994,9.2173,462.7167],[18.003,9.2027,488.6562],[18.0112,9.1989,475.1106],[18.0362,9.1962,439.3744],[18.0557,9.1907,404.9777],[18.1118,9.1861,376.3273],[18.1444,9.1793,364.4191],[18.1999,9.1762,356.2724],[18.1977,9.1623,363.6245],[18.1918,9.1488,363.5717],[18.1623,9.1032,365.0865],[18.1492,9.0789,363.0798],[18.109,9.0274,368.6042],[18.1005,9.02,367.7028],[18.0674,9.0131,366.8805],[18.0257,8.9976,365.8775],[17.9993,8.9676,368.5105],[17.9958,8.959,367.0868],[17.9977,8.9171,366.1687],[18.0038,8.8931,371.1572],[18.0087,8.8837,370.0268],[18.0097,8.8737,370.9355],[18.019,8.844,370.9634],[18.0248,8.8406,371.6107],[18.0279,8.8303,372.3184],[18.0426,8.8094,373.8477],[18.0518,8.8026,372.9504],[18.0585,8.7952,370.1831],[18.0615,8.7851,371.5945],[18.0617,8.763,371.0831],[18.0525,8.7324,372.1924],[18.0493,8.7142,371.5462],[18.0489,8.6605,373.7096],[18.0573,8.6332,374.3855],[18.0638,8.5995,374.7173],[18.0701,8.5813,377.6443],[18.0783,8.5655,379.244],[18.0944,8.5601,381.172],[18.1025,8.5526,382.355],[18.1104,8.5533,380.5299],[18.1169,8.5459,379.5455],[18.1231,8.5301,377.5259],[18.1265,8.513,383.3508],[18.1279,8.4688,387.2654],[18.1443,8.4162,385.745],[18.1551,8.3945,386.1852],[18.1678,8.3778,383.2018],[18.1779,8.3398,391.7805],[18.1775,8.2972,398.2232],[18.1663,8.2526,396.5403],[18.1698,8.2083,397.144],[18.1909,8.1097,404.2099],[18.1952,8.0781,404.8486],[18.2038,8.0576,406.2324],[18.214,8.0194,410.2974],[18.2536,8.0223,406.8834],[18.2704,8.0211,407.9204],[18.2743,8.024,409.5813],[18.3304,8.0286,407.9144],[18.4016,8.0335,403.5795],[18.4132,8.0327,402.3107],[18.4242,8.0355,407.8185],[18.454,8.0362,410.2377],[18.4568,8.0378,409.5541],[18.4819,8.0384,388.1553],[18.502,8.0411,406.1466],[18.6016,8.0467,402.8074],[18.618,8.0525,401.8856],[18.6246,8.0597,400.2264],[18.6233,8.0641,398.15],[18.6243,8.0735,396.582],[18.6279,8.0783,395.2867],[18.6351,8.0832,394.8825],[18.6371,8.091,397.1489],[18.6286,8.1311,397.4916],[18.6281,8.1412,396.7066],[18.63,8.1464,397.0761],[18.6413,8.1637,391.757],[18.6528,8.1769,392.6684],[18.6578,8.1855,391.0493],[18.6577,8.195,395.9394],[18.6736,8.2122,390.959],[18.681,8.2139,389.1902],[18.6897,8.2223,386.2727],[18.7106,8.2316,387.7675],[18.7349,8.2372,384.5941],[18.7402,8.2399,383.2733],[18.7481,8.2398,384.7817],[18.7805,8.2494,388.1535],[18.7859,8.2546,383.4546],[18.797,8.2597,385.5922],[18.8044,8.2607,387.6259],[18.8239,8.2811,384.295],[18.8372,8.289,388.0149],[18.8401,8.2963,390.5941],[18.8509,8.3054,389.0153],[18.8571,8.3239,386.0905],[18.8538,8.3419,378.6758],[18.8505,8.3473,377.9144],[18.8572,8.3473,377.1414],[18.8684,8.342,378.9094],[18.8762,8.3412,387.7459],[18.8734,8.3483,381.1579],[18.8767,8.3543,379.4254],[18.8798,8.3562,378.1129],[18.886,8.355,383.5645],[18.8876,8.357,383.877],[18.8836,8.3642,378.5972],[18.8851,8.3662,378.1569],[18.8996,8.3641,382.2101],[18.9004,8.3707,377.5822],[18.9033,8.3743,377.7649],[18.9102,8.3769,380.0938],[18.9081,8.3841,378.1934],[18.9107,8.387,376.0073],[18.9195,8.3877,376.8394],[18.9239,8.3904,384.4349],[18.9236,8.3961,379.0911],[18.9274,8.3997,379.3712],[18.927,8.4014,380.0394],[18.9198,8.4034,376.217],[18.9174,8.4064,377.8499],[18.9231,8.4129,378.0586],[18.9209,8.4208,376.9644],[18.9217,8.4242,376.7319],[18.9243,8.4267,375.8335],[18.9303,8.4259,379.2589],[18.9317,8.4279,379.7004],[18.9324,8.4366,377.1656],[18.9572,8.4599,378.6311],[18.9704,8.4642,378.9674],[18.9726,8.4679,377.8757],[18.9709,8.4766,374.9554],[18.9729,8.4816,375.8396],[18.9771,8.4832,378.1723],[18.9811,8.4874,374.904],[18.9885,8.4893,378.1032],[18.9973,8.4999,377.5882],[18.989,8.5107,376.1216],[18.9896,8.513,375.1784],[18.9917,8.5148,376.2611],[19.0,8.5158,375.3121],[19.0082,8.524,380.1637],[19.014,8.5232,376.4777],[19.016,8.5276,380.0878],[19.0227,8.5273,376.5962],[19.0291,8.5325,377.4405],[19.0317,8.5376,377.7636],[19.0331,8.5491,377.4133],[19.0423,8.5543,373.2558],[19.0421,8.5619,370.7229],[19.0465,8.5755,366.9854],[19.0461,8.5971,378.9327],[19.0494,8.6029,390.7653],[19.0615,8.6148,375.7157]]]]}
,"properties": {"GID_1": "TCD.16_1","GID_0": "TCD","country": "Chad","province": "Moyen-Chari","VARNAME_1": "NA","NL_NAME_1": "NA","TYPE_1": "Région","ENGTYPE_1": "Region","CC_1": "NA","HASC_1": "TD.MC","ISO_1": "NA","name": "Moyen-Chari.province","area_km2": 41639.69,"hist_schema_id": "Elevation0-9000","hist_area_km2": {"350": 6545.79,"375": 23089.94,"400": 9476.77,"425": 1442.87,"450": 448.24,"475": 288.38,"500": 188.32,"525": 112.19,"550": 38.67,"575": 6.69,"600": 0.5,"625": 0.42,"650": 0.44}}}