{"type":"Feature","properties":{"featurecla":"River","scalerank":6,"rivernum":225,"dissolve":"225River","name":"Chari","name_alt":null,"note":null,"min_zoom":5.0,"strokeweig":0.2,"name_en":"Chari","min_label":6.0},
"geometry":{"type": "LineString","coordinates": [[18.885986328125,8.8360537781191084,368.9439],[18.882470703125023,8.81793854374412,370.45],[18.867431640625,8.81012604374412,373.7916],[18.827783203125023,8.8087100281191084,369.7738],[18.819238281250023,8.8118838562441084,371.0146],[18.81591796875,8.8189639343691084,364.4088],[18.8115234375,8.82599518436912,364.4992],[18.800048828125,8.8292178406191084,365.9099],[18.791259765625,8.83002350468162,360.2294],[18.7875,8.83246491093162,367.1972],[18.784082031250023,8.8369326843691169,366.3901],[18.776123046875,8.8435244812441169,363.8772],[18.740234375,8.86481354374412,363.5502],[18.718408203125023,8.8738955749941084,366.8116],[18.67578125,8.88092682499412,362.4486],[18.656494140625,8.88934967655662,370.9523],[18.56494140625,8.9498233093691084,362.8401],[18.557031250000023,8.94867584843162,368.0243],[18.55078125,8.95868561405662,361.7437],[18.50927734375,8.98688385624412,366.9116],[18.4677734375,9.0288272156191169,357.9446],[18.457763671875,9.0352725281191084,365.186],[18.447021484375,9.04621002811912,364.4409],[18.419921875,9.1165713562441084,361.4765],[18.330468750000023,9.2395205749941169,357.5139],[18.30322265625,9.26740143436912,353.0],[18.284570312500023,9.27582428593162,355.9333],[18.273681640625,9.28266022343162,360.1297],[18.26904296875,9.2916201843691084,353.0],[18.264062500000023,9.29779694218162,360.176],[18.2314453125,9.31928131718162,362.3191]]}}