{"type":"Feature","properties":{"ISO3166-1-Alpha-3":"TCD","country":"Chad","fill":"#00F","id":"5583","name":"Moyen-Chari"},
"geometry":{"type": "Polygon","coordinates": [[[19.93209,9.06333,390.04],[19.93199,9.06363,390.04],[19.65103,9.92813,392.055],[19.5761,10.06445,396.0854],[19.57207,10.07561,396.6856],[19.57424,10.08223,397.0269],[19.57687,10.08734,398.6768],[19.58044,10.09122,395.4254],[19.584,10.09447,396.5642],[19.60157,10.10455,396.4716],[19.60452,10.10869,396.3722],[19.60529,10.11489,398.1988],[19.60297,10.12424,398.4445],[19.60204,10.13127,399.2593],[19.60343,10.13799,396.0026],[19.60964,10.14445,397.5125],[19.61382,10.14956,397.6763],[19.61568,10.15576,399.4729],[19.61429,10.16506,398.6275],[19.61475,10.17245,398.8098],[19.61971,10.18615,398.5567],[19.62204,10.19147,398.7149],[19.62498,10.19555,399.6155],[19.63196,10.20237,399.1631],[19.63522,10.20759,399.5067],[19.63785,10.21442,400.9142],[19.64095,10.22522,403.441],[19.64142,10.237,401.312],[19.63878,10.25167,398.4416],[19.6287,10.2786,400.4823],[19.6163,10.29229,401.8656],[19.60591,10.35916,401.7437],[19.65837,10.61847,404.5873],[19.64002,10.60442,405.914],[19.61429,10.59537,407.2552],[19.61026,10.59119,407.1784],[19.60979,10.58685,406.0107],[19.61072,10.5824,405.6046],[19.60793,10.576,405.3243],[19.59971,10.57078,405.2428],[19.59491,10.56607,406.6589],[19.59088,10.56054,407.2385],[19.58462,10.54478,404.1917],[19.58013,10.54117,404.6158],[19.57594,10.54091,405.1877],[19.57269,10.54401,404.7725],[19.56928,10.5484,404.9738],[19.5654,10.55181,405.0884],[19.5578,10.55274,404.0854],[19.55501,10.54954,405.1367],[19.55517,10.5454,404.7523],[19.55641,10.54024,403.6603],[19.55641,10.53445,404.3672],[19.53372,10.49538,401.925],[19.52799,10.493,401.4865],[19.52117,10.49238,401.6556],[19.51341,10.49264,401.6292],[19.48892,10.48587,399.3984],[19.47915,10.48505,398.8652],[19.46437,10.48236,411.2231],[19.45693,10.48339,414.0844],[19.45306,10.4867,415.701],[19.45321,10.49145,411.1334],[19.45368,10.4959,404.4546],[19.45321,10.49993,401.5573],[19.45182,10.50081,399.7713],[19.44918,10.50174,401.3412],[19.4422,10.50205,401.9062],[19.436,10.49941,400.8314],[19.42748,10.49383,406.003],[19.41998,10.49083,404.0416],[19.41022,10.48804,404.8044],[19.40262,10.48474,402.8428],[19.39394,10.47822,399.2426],[19.38526,10.47455,398.009],[19.37859,10.46913,399.274],[19.36226,10.45316,395.7224],[19.35156,10.43972,395.6907],[19.34738,10.43203,403.725],[19.33684,10.41962,398.2434],[19.33327,10.41208,398.2139],[19.33249,10.40588,397.1489],[19.33622,10.39595,398.5062],[19.33606,10.39006,396.8452],[19.33203,10.38717,397.3852],[19.32536,10.38588,396.9881],[19.32102,10.38324,395.5934],[19.31854,10.37937,395.7991],[19.31839,10.37472,395.0426],[19.31901,10.36939,395.8108],[19.31901,10.36386,395.6814],[19.31637,10.3574,396.4403],[19.31182,10.3542,397.8764],[19.3064,10.35291,397.4205],[19.29353,10.35389,397.9052],[19.28516,10.35275,396.9628],[19.28159,10.34924,396.7812],[19.28144,10.34511,395.8276],[19.28423,10.34144,396.225],[19.28857,10.33865,397.1617],[19.29245,10.33555,396.7026],[19.29462,10.33136,396.7242],[19.29446,10.32578,395.29],[19.29167,10.31958,394.9244],[19.29012,10.31472,395.7134],[19.29152,10.3109,394.3806],[19.30004,10.3048,398.7979],[19.30268,10.29994,400.2087],[19.3002,10.29746,399.8048],[19.29508,10.29612,400.5533],[19.28934,10.29596,399.009],[19.28299,10.29405,397.3733],[19.28128,10.28976,395.0763],[19.27989,10.28351,398.497],[19.27555,10.27844,399.8922],[19.26873,10.27348,401.9061],[19.25601,10.26635,397.7222],[19.24976,10.26108,395.0096],[19.24495,10.25467,396.8339],[19.24108,10.24785,398.2431],[19.23612,10.23653,397.011],[19.22821,10.22821,393.6511],[19.22496,10.22,398.3155],[19.22046,10.21602,396.7565],[19.21488,10.21349,391.2627],[19.20759,10.21168,391.2991],[19.19845,10.20744,393.1019],[19.19359,10.203,392.8837],[19.19002,10.19824,392.6262],[19.17266,10.16641,391.9974],[19.16863,10.14946,388.7591],[19.16413,10.13752,388.0677],[19.16057,10.13628,389.5571],[19.15793,10.1369,389.3574],[19.15499,10.13871,388.6996],[19.14941,10.1384,388.4495],[19.14098,10.13535,388.3705],[19.13122,10.12579,389.0754],[19.1247,10.12228,389.8341],[19.1199,10.12202,388.2344],[19.11525,10.12279,389.1643],[19.11199,10.12031,388.478],[19.10905,10.11649,388.2002],[19.10502,10.10641,386.2505],[19.0985,10.0952,385.5068],[19.09261,10.08755,385.4276],[19.07985,10.06781,385.2706],[19.06419,10.049,385.4731],[19.04946,10.03567,385.9153],[19.03737,10.02657,384.7837],[18.99887,10.00704,384.5213],[18.94363,10.00006,385.3754],[18.80695,9.99867,382.5329],[18.79527,9.99484,382.128],[18.78845,9.9844,380.7732],[18.76643,9.89252,379.9893],[18.76271,9.88451,376.878],[18.75697,9.88177,377.7451],[18.72917,9.87645,375.7271],[18.70871,9.86844,379.2291],[18.6977,9.86668,378.4953],[18.69021,9.8673,375.5849],[18.67812,9.8763,375.842],[18.65781,9.89733,373.6012],[18.65347,9.90017,374.1898],[18.64758,9.90198,374.6214],[18.63993,9.90276,373.5886],[18.62908,9.90198,373.5143],[18.62163,9.90286,374.2854],[18.61528,9.9042,373.8374],[18.60582,9.90875,373.8974],[18.60241,9.91097,373.2351],[18.60039,9.91309,373.2794],[18.60024,9.91542,371.3868],[18.6097,10.00166,377.5002],[18.6097,10.01029,377.8122],[18.60908,10.01587,376.6558],[18.60706,10.02078,377.2213],[18.60365,10.0244,377.2368],[18.59915,10.02699,376.4869],[18.58846,10.0305,376.1523],[18.58381,10.03298,375.3445],[18.58019,10.03618,375.2188],[18.57771,10.04078,375.991],[18.57476,10.05117,374.7535],[18.57275,10.05592,373.4822],[18.5698,10.05985,371.9463],[18.55678,10.06786,373.7812],[18.55275,10.07091,374.6961],[18.53198,10.09189,374.1979],[18.52758,10.09447,375.7587],[18.52231,10.09633,375.0479],[18.51642,10.09773,373.7583],[18.51099,10.09954,374.1075],[18.50665,10.10207,373.2912],[18.50076,10.10791,372.5346],[18.48728,10.13075,373.9173],[18.48061,10.1445,371.1626],[18.47751,10.14832,370.7394],[18.47002,10.15473,371.7887],[18.46319,10.16181,370.9722],[18.45606,10.17519,371.55],[18.45312,10.17912,371.6719],[18.4494,10.18222,371.8191],[18.44552,10.18486,370.1746],[18.39121,10.20031,369.227],[18.3816,10.2048,366.6878],[18.37354,10.21064,367.4559],[18.36671,10.21783,367.6464],[18.35504,10.23359,369.2626],[18.34992,10.23638,369.4471],[18.34325,10.23834,368.2574],[18.33271,10.23907,367.2975],[18.31194,10.24506,365.0107],[18.27049,10.24645,366.3235],[18.26476,10.2478,367.1116],[18.26057,10.25059,365.121],[18.25638,10.25436,366.5339],[18.25266,10.25932,365.3761],[18.2323,10.26759,365.8853],[18.22858,10.27069,365.1606],[18.22579,10.27483,364.0873],[18.22223,10.2848,363.592],[18.21851,10.28857,364.2616],[18.21261,10.29069,362.1167],[18.19293,10.29178,362.9687],[18.18698,10.29374,362.8844],[18.18001,10.30097,362.3203],[18.17567,10.30449,363.076],[18.16714,10.30604,363.8781],[18.16125,10.30816,364.358],[18.15675,10.31126,363.4232],[18.15505,10.31617,363.0792],[18.15334,10.32774,362.1379],[18.15195,10.33312,363.3813],[18.14931,10.33756,362.5964],[18.14513,10.34149,361.8129],[18.13923,10.34418,361.1073],[18.1305,10.34645,362.4265],[18.12507,10.3449,359.9848],[18.12089,10.34138,359.7686],[18.11686,10.33735,360.2336],[18.11128,10.33343,360.9471],[18.10632,10.33296,361.1943],[18.10213,10.33508,361.7678],[18.09546,10.3433,359.6189],[18.08973,10.34671,359.3893],[18.06952,10.3495,358.5541],[18.06239,10.35151,358.7741],[18.05666,10.35399,357.4161],[18.05185,10.3526,358.9921],[18.04317,10.345,360.0256],[18.03883,10.34469,359.525],[18.03495,10.34676,359.8444],[18.03077,10.34996,358.2537],[18.02549,10.3526,357.4941],[18.01707,10.35384,359.5669],[17.99304,10.36112,360.1744],[17.978,10.36361,358.6047],[17.97227,10.36567,357.6418],[17.95873,10.37322,357.5532],[17.94881,10.37756,358.4947],[17.93733,10.38014,357.8749],[17.93129,10.38242,358.2038],[17.92493,10.38614,354.4865],[17.84111,10.46525,380.0044],[17.83429,10.47047,384.0047],[17.82716,10.47388,379.7161],[17.53374,10.4637,351.5657],[17.32952,9.81584,352.1079],[17.34052,9.81553,350.8239],[17.3475,9.81397,351.2802],[17.35339,9.81175,350.3735],[17.42729,9.7748,352.3663],[17.52273,9.70525,358.9037],[17.54382,9.68396,356.5128],[17.55839,9.66318,354.4462],[17.56103,9.65362,352.8078],[17.55917,9.64086,353.3376],[17.53963,9.59177,352.4296],[17.53653,9.58706,350.7409],[17.57932,9.55886,357.8085],[17.60668,9.5163,374.592],[17.62493,9.45246,388.335],[17.71309,9.4555,408.5356],[17.73437,9.43118,437.2719],[17.75565,9.39166,423.179],[17.78301,9.32782,479.9084],[17.79517,9.29134,462.4035],[17.85293,9.2731,460.9078],[17.92893,9.23358,433.7361],[17.99581,9.20014,474.6527],[18.0779,9.19709,394.3856],[18.14174,9.18797,363.1938],[18.16546,9.1601,359.6453],[18.15374,9.14944,361.8864],[18.14617,9.14513,365.7935],[18.14186,9.11469,364.6204],[18.12053,9.07624,366.4027],[18.09148,9.04121,364.8541],[18.06422,9.02102,365.2473],[18.04737,9.01883,365.7543],[18.03346,9.02102,362.9283],[18.02247,9.01671,364.3911],[18.00432,8.99946,365.3551],[17.98968,9.00833,362.0033],[17.9839,9.01663,410.3837],[17.97779,9.01789,420.9977],[17.96746,9.00739,419.4219],[17.95501,8.90119,370.3514],[17.9594,8.89537,369.1428],[17.96168,8.89118,368.4456],[17.96119,8.88447,367.048],[17.95379,8.87893,369.6277],[17.94752,8.87763,370.0883],[17.94239,8.86819,369.7105],[17.93751,8.85973,371.0438],[17.94068,8.84968,372.0211],[17.95696,8.84182,366.4099],[17.99263,8.82383,362.2676],[18.0142,8.8037,373.0936],[18.02287,8.77075,370.926],[18.0142,8.74127,374.9688],[18.00727,8.68404,374.3713],[18.01247,8.62161,374.3369],[18.03155,8.57652,373.9599],[18.06796,8.55224,382.869],[18.08877,8.52102,382.6599],[18.09051,8.46726,385.6801],[18.10438,8.42391,387.8228],[18.12866,8.37882,387.2874],[18.13386,8.33893,395.725],[18.1304,8.26956,398.6342],[18.12693,8.21407,401.7885],[18.14254,8.15163,400.0802],[18.15641,8.08053,403.2728],[18.17543,8.02195,411.2251],[18.50825,8.03067,410.9827],[18.58928,8.04788,395.9333],[18.61791,8.09013,403.2794],[18.61864,8.13865,412.0207],[18.63858,8.17764,411.1592],[18.67259,8.20751,391.9911],[18.71506,8.22867,387.1931],[18.77377,8.24862,386.4515],[18.79123,8.25738,387.3369],[18.81304,8.27642,385.4844],[18.8549,8.3398,381.0633],[18.88746,8.37096,382.82],[18.90131,8.38864,384.21],[18.9104,8.41298,384.7433],[18.92053,8.43212,380.2859],[19.02047,8.54558,387.8258],[19.0613,8.62562,374.6833],[19.07226,8.63187,374.8314],[19.08166,8.63723,374.9354],[19.09148,8.65286,374.7479],[19.12413,8.67508,383.097],[19.10388,8.69805,378.3035],[19.07349,8.72053,380.2719],[19.05778,8.7297,378.6173],[19.04869,8.74567,379.5272],[18.92911,8.79654,371.2598],[18.91733,8.80515,362.5033],[18.91247,8.8184,369.7361],[18.90968,8.83533,367.4168],[18.90296,8.84481,370.0815],[18.88653,8.83584,368.9439],[18.86978,8.84941,364.6728],[18.86968,8.86411,368.4236],[18.89273,8.89793,372.1704],[18.90141,8.89398,372.2934],[18.91061,8.89424,374.0965],[18.91774,8.89881,373.6844],[18.92074,8.90786,374.1311],[18.92291,8.91822,366.5749],[18.92859,8.92168,368.941],[18.93645,8.92336,373.8871],[18.95205,8.93199,368.953],[18.9719,8.93822,371.247],[18.97593,8.94199,368.3549],[18.97851,8.94945,370.5493],[18.98481,8.95643,370.358],[18.99949,8.96963,369.8709],[19.02192,8.98521,369.5599],[19.06068,9.00418,371.7478],[19.10057,9.01526,370.6985],[19.12672,9.00718,374.3896],[19.13364,9.00718,375.1276],[19.14212,9.00868,375.307],[19.16878,9.00222,377.0179],[19.17457,9.00377,376.788],[19.17964,9.01526,373.5509],[19.19204,9.02017,372.021],[19.23286,9.02229,373.3124],[19.25343,9.02795,372.6503],[19.26325,9.02826,373.4691],[19.27524,9.02198,373.6367],[19.28578,9.01281,374.1344],[19.29549,9.0095,374.0424],[19.3048,9.02085,376.5124],[19.31627,9.01312,373.0687],[19.33332,9.00656,377.0298],[19.35223,9.00206,374.6819],[19.36939,9.00038,378.3997],[19.38262,9.0032,376.3963],[19.42096,9.01744,377.2982],[19.43016,9.01286,378.8653],[19.50664,9.014,378.2007],[19.51181,9.01229,376.9878],[19.51584,9.00945,378.996],[19.52132,9.00883,380.6243],[19.53083,9.014,380.3307],[19.55377,9.01333,381.1739],[19.58312,9.02534,378.8398],[19.61361,9.03167,378.1694],[19.64007,9.014,384.3652],[19.6564,9.02126,378.58],[19.70002,9.02059,383.2703],[19.70901,9.02457,380.989],[19.71397,9.02914,379.4315],[19.73815,9.03937,378.7857],[19.74684,9.04131,380.5242],[19.75841,9.04198,381.7839],[19.78466,9.04875,385.2016],[19.80554,9.05113,378.5073],[19.88946,9.04637,394.2774],[19.90217,9.0518,386.7854],[19.91447,9.06927,381.1409],[19.92874,9.06257,388.2557],[19.93209,9.06333,390.04]]]}}