{"type": "Feature","bbox": [22.34,14.081,22.5791,14.3025],"geometry": {"type": "MultiPolygon","coordinates": [[[[22.4707,14.081,1017.5857],[22.5037,14.1096,996.1745],[22.5364,14.1186,995.2775],[22.5763,14.1761,979.0762],[22.5791,14.1844,976.8922],[22.5534,14.209,1013.5748],[22.5582,14.2297,1003.1247],[22.5168,14.2438,943.2528],[22.5086,14.244,934.4799],[22.4792,14.232,965.688],[22.4376,14.2757,987.1871],[22.4316,14.2842,1001.4701],[22.4283,14.2922,1040.2388],[22.4291,14.3025,1051.6038],[22.405,14.292,999.6196],[22.363,14.242,1007.0457],[22.34,14.196,996.0217],[22.395,14.163,1000.3318],[22.4707,14.081,1017.5857]]]]}
,"properties": {"GID_3": "TCD.23.2.2_1","GID_0": "TCD","country": "Chad","GID_1": "TCD.23_1","province": "WadiFira","NL_NAME_1": "NA","GID_2": "TCD.23.2_1","county": "DarTama","NL_NAME_2": "NA","city": "Birak","VARNAME_3": "NA","NL_NAME_3": "NA","TYPE_3": "Sub-prefecture","ENGTYPE_3": "Sub-prefecture","CC_3": "NA","HASC_3": "NA","name": "Birak.city","area_km2": 321.3404,"hist_schema_id": "Elevation0-9000","hist_area_km2": {"925": 0.822,"950": 35.598,"975": 124.8054,"1000": 131.9919,"1025": 26.8077,"1050": 1.1921,"1075": 0.1233}}}