{"type":"Feature","properties":{"GID_3":"TCD.14.1.3_1","GID_0":"TCD","country":"Chad","GID_1":"TCD.14_1","province":"Mayo-KebbiEst","NL_NAME_1":"NA","GID_2":"TCD.14.1_1","county":"Kabbia","NL_NAME_2":"NA","city":"Domo","VARNAME_3":"NA","NL_NAME_3":"NA","TYPE_3":"Sub-prefecture","ENGTYPE_3":"Sub-prefecture","CC_3":"NA","HASC_3":"NA","name":"Domo.city"},
"geometry":{"type": "MultiPolygon","coordinates": [[[[15.5376,9.3843,373.7596],[15.566,9.419,355.2267],[15.611,9.459,357.2895],[15.665,9.504,360.5041],[15.675,9.525,359.0696],[15.6782,9.5533,356.8437],[15.6537,9.558,356.187],[15.6426,9.567,352.4217],[15.6347,9.5788,351.9413],[15.6302,9.5932,351.1996],[15.6239,9.6014,350.3168],[15.6206,9.6109,346.798],[15.6162,9.6157,346.3352],[15.6093,9.6017,349.7204],[15.582,9.5987,346.8703],[15.5623,9.5903,345.8753],[15.5488,9.5906,345.9745],[15.5396,9.5712,343.5598],[15.5348,9.5557,342.4309],[15.5218,9.5375,350.8483],[15.5058,9.5346,355.7574],[15.494,9.523,357.0409],[15.5024,9.5102,356.5349],[15.5037,9.4913,360.0744],[15.5101,9.4802,362.6314],[15.5218,9.4464,363.9421],[15.532,9.4136,371.1324],[15.5376,9.3843,373.7596]]]]}}