{"type": "Feature","bbox": [17.4767,7.8676,17.7187,8.1239],"geometry": {"type": "MultiPolygon","coordinates": [[[[17.7131,7.9775,379.5706],[17.7092,8.005,392.7137],[17.7187,8.0923,387.8511],[17.7169,8.1119,378.2007],[17.7081,8.1169,391.8179],[17.6931,8.1179,395.2972],[17.6676,8.1156,394.5014],[17.625,8.1239,395.0107],[17.6137,8.1104,398.5808],[17.6035,8.1056,398.4321],[17.5819,8.106,398.3035],[17.5716,8.0848,412.4761],[17.5554,8.0716,419.8982],[17.5378,8.0542,407.3276],[17.5293,8.0474,398.6074],[17.5176,8.0411,395.7599],[17.5041,8.0302,403.2594],[17.4826,8.017,412.1909],[17.4767,7.9778,399.2154],[17.4767,7.9626,409.8662],[17.4832,7.9163,412.4666],[17.4855,7.8857,390.1483],[17.5056,7.8736,388.2079],[17.5111,7.8676,398.1401],[17.5151,7.8687,402.3603],[17.5235,7.891,385.5671],[17.5269,7.8914,385.6341],[17.5308,7.8868,385.4529],[17.5368,7.8872,388.8151],[17.5387,7.8911,398.8347],[17.5385,7.904,385.3897],[17.5423,7.9147,386.3231],[17.5472,7.9213,390.3916],[17.5513,7.9232,383.8838],[17.5617,7.9226,382.9471],[17.564,7.9196,388.8587],[17.5648,7.913,392.6081],[17.5671,7.9088,397.1017],[17.5745,7.909,403.2111],[17.5787,7.9124,403.4753],[17.5852,7.9239,391.1338],[17.5965,7.9327,383.1525],[17.6014,7.9327,381.7505],[17.6101,7.926,399.9137],[17.6165,7.9269,402.7111],[17.6332,7.9454,382.7862],[17.6454,7.9435,392.3669],[17.6489,7.9457,389.1316],[17.6589,7.9624,382.2743],[17.6571,7.9695,390.7482],[17.6583,7.9741,388.739],[17.6717,7.9828,386.2894],[17.6832,7.9841,381.6224],[17.694,7.9817,389.3154],[17.6977,7.9787,387.7303],[17.7034,7.9695,387.813],[17.7073,7.9702,389.2217],[17.7131,7.9775,379.5706]]]]}
,"properties": {"GID_3": "TCD.13.1.11_1","GID_0": "TCD","country": "Chad","GID_1": "TCD.13_1","province": "Mandoul","NL_NAME_1": "NA","GID_2": "TCD.13.1_1","county": "BarhSara","NL_NAME_2": "NA","city": "Gon","VARNAME_3": "NA","NL_NAME_3": "NA","TYPE_3": "Sub-prefecture","ENGTYPE_3": "Sub-prefecture","CC_3": "NA","HASC_3": "NA","name": "Gon.city","area_km2": 454.8022,"hist_schema_id": "Elevation0-9000","hist_area_km2": {"375": 33.7028,"400": 318.4528,"425": 102.6466}}}