{"type": "Feature","bbox": [18.8352,8.9943,19.9854,9.5243],"geometry": {"type": "MultiPolygon","coordinates": [[[[19.9854,9.0953,383.4006],[19.8338,9.5243,390.7258],[19.7915,9.5185,390.8575],[19.7452,9.5071,389.3743],[19.7153,9.4857,387.7037],[19.6889,9.4521,386.6424],[19.6699,9.4356,387.0073],[19.6505,9.4257,385.7516],[19.6182,9.4126,385.0573],[19.5948,9.4055,384.7921],[19.5399,9.3945,383.2673],[19.4985,9.3964,382.3802],[19.464,9.4004,382.2209],[19.4359,9.3988,381.5836],[19.382,9.4037,380.468],[19.3389,9.4033,379.9546],[19.2226,9.3763,378.405],[19.2062,9.3738,378.8402],[19.1568,9.3698,376.8392],[19.1059,9.3692,377.275],[19.0883,9.3704,376.9326],[19.0632,9.366,376.258],[19.0452,9.366,375.6855],[19.0084,9.3706,374.7459],[19.0002,9.3662,374.0179],[18.9809,9.3644,375.1691],[18.9503,9.3783,372.3208],[18.9316,9.3826,374.2737],[18.9152,9.3722,372.5057],[18.8806,9.3614,371.8488],[18.8688,9.3548,372.8087],[18.8559,9.3529,370.2901],[18.8474,9.3465,370.9129],[18.8472,9.3227,372.1503],[18.839,9.2764,372.6173],[18.8352,9.2404,374.4268],[18.8366,9.1827,371.3875],[18.8392,9.1451,373.3746],[18.8426,9.1273,371.9526],[18.8551,9.1134,372.3795],[18.8719,9.1006,371.3459],[18.8968,9.09,373.9454],[18.9142,9.0793,373.2345],[18.9333,9.0727,372.5318],[18.9758,9.0511,373.3156],[18.9964,9.0303,375.7739],[19.0233,8.9951,369.2812],[19.0283,8.9972,367.7607],[19.0432,8.9943,371.9266],[19.0507,8.9976,370.3224],[19.0586,8.9957,370.306],[19.0665,9.0046,370.4716],[19.0698,9.0054,370.3457],[19.076,9.0039,371.3222],[19.0777,9.0149,370.8008],[19.0917,9.0205,371.418],[19.0956,9.0196,371.9673],[19.1011,9.0098,371.4981],[19.1046,9.0085,371.5219],[19.1245,9.0054,375.6811],[19.1273,9.0069,375.3621],[19.1352,9.0045,375.6779],[19.1508,9.0089,372.1602],[19.157,9.0138,372.3773],[19.1699,9.0171,372.0154],[19.175,9.0245,372.2098],[19.1803,9.0248,371.8369],[19.1878,9.0215,372.4751],[19.1924,9.0216,372.704],[19.2184,9.0315,372.7316],[19.2224,9.0276,372.4788],[19.2254,9.027,373.0547],[19.2355,9.0288,372.0064],[19.2409,9.0259,374.4746],[19.2527,9.0259,373.1107],[19.2618,9.0208,373.2982],[19.2637,9.0178,374.4696],[19.2705,9.0133,375.7724],[19.275,9.0118,376.9483],[19.2897,9.0115,374.9906],[19.3023,9.0079,375.8348],[19.3092,9.0078,378.6562],[19.3216,9.0113,377.1829],[19.3379,9.0203,373.1978],[19.3546,9.0156,373.6954],[19.3579,9.0134,373.8097],[19.3657,9.0131,376.5263],[19.379,9.018,376.0339],[19.3888,9.0168,375.615],[19.3957,9.0183,375.97],[19.4011,9.026,374.8134],[19.414,9.0249,375.9639],[19.4207,9.0278,377.2301],[19.4316,9.0258,376.9438],[19.4391,9.0312,377.3656],[19.4508,9.025,376.4974],[19.4582,9.0255,379.4794],[19.4592,9.0178,375.0016],[19.4738,9.0182,377.1373],[19.4791,9.0144,377.5745],[19.4826,9.0152,376.1047],[19.4883,9.0205,376.9096],[19.4909,9.0181,376.2871],[19.4941,9.0183,376.4734],[19.4973,9.0212,375.8692],[19.4989,9.032,376.8417],[19.501,9.0338,378.4157],[19.5068,9.0342,379.0178],[19.5119,9.0315,379.6845],[19.5146,9.0198,377.2158],[19.5172,9.0171,376.6018],[19.523,9.0163,379.4776],[19.5352,9.0186,378.0024],[19.5425,9.0231,377.3156],[19.5544,9.0352,377.551],[19.5592,9.0367,378.8621],[19.5687,9.0364,379.1453],[19.5728,9.0392,377.8661],[19.5776,9.04,376.4353],[19.5818,9.037,377.1929],[19.5859,9.0309,377.3127],[19.602,9.0194,381.7672],[19.6144,9.0215,379.8368],[19.6314,9.0184,384.5641],[19.647,9.0239,377.732],[19.659,9.0239,379.2249],[19.6667,9.0204,379.898],[19.672,9.0208,380.8565],[19.6836,9.0292,379.2973],[19.7019,9.0275,381.5639],[19.7199,9.0406,378.8408],[19.7215,9.0445,378.4378],[19.7349,9.0443,379.1546],[19.7437,9.0489,379.0939],[19.7596,9.0493,379.9825],[19.7633,9.0503,379.7454],[19.7729,9.0574,379.7303],[19.78,9.0586,380.2889],[19.7893,9.0585,379.9509],[19.7981,9.0561,380.584],[19.8043,9.0567,382.2842],[19.8124,9.0587,380.2262],[19.8225,9.0643,382.7977],[19.8287,9.0495,382.3941],[19.8355,9.0434,385.2724],[19.842,9.044,386.5018],[19.8494,9.0537,379.8566],[19.8565,9.0601,380.1914],[19.8645,9.0645,381.1396],[19.8717,9.0658,382.5341],[19.878,9.0631,381.06],[19.8829,9.0636,381.6692],[19.8862,9.061,379.7805],[19.8944,9.0621,380.3935],[19.9049,9.0683,382.319],[19.9271,9.0608,387.8663],[19.9307,9.0679,381.1779],[19.9327,9.0793,382.9929],[19.9354,9.0844,383.4012],[19.9394,9.0871,383.3427],[19.9803,9.092,382.2083],[19.9854,9.0953,383.4006]]]]}
,"properties": {"GID_3": "TCD.16.3.12_1","GID_0": "TCD","country": "Chad","GID_1": "TCD.16_1","province": "Moyen-Chari","NL_NAME_1": "NA","GID_2": "TCD.16.3_1","county": "LacIro","NL_NAME_2": "NA","city": "Ndjokou","VARNAME_3": "NA","NL_NAME_3": "NA","TYPE_3": "Sub-prefecture","ENGTYPE_3": "Sub-prefecture","CC_3": "NA","HASC_3": "NA","name": "Ndjokou.city","area_km2": 4951.682,"hist_schema_id": "Elevation0-9000","hist_area_km2": {"375": 4395.148,"400": 556.534}}}