{"type":"Feature","properties":{"GID_3":"TCD.9.1.8_1","GID_0":"TCD","country":"Chad","GID_1":"TCD.9_1","province":"Kanem","NL_NAME_1":"NA","GID_2":"TCD.9.1_1","county":"Kanem","NL_NAME_2":"NA","city":"Sultanat","VARNAME_3":"NA","NL_NAME_3":"NA","TYPE_3":"Sub-prefecture","ENGTYPE_3":"Sub-prefecture","CC_3":"NA","HASC_3":"NA","name":"Sultanat.city"},
"geometry":{"type": "MultiPolygon","coordinates": [[[[15.962,14.315,305.4407],[16.102,14.47,312.6013],[16.143,14.545,312.3877],[15.938,14.538,317.7545],[15.888,14.527,315.4994],[15.791,14.454,305.6315],[15.725,14.48,327.4613],[15.623,14.457,310.7888],[15.567,14.403,330.0685],[15.478,14.419,347.3959],[15.381,14.466,335.4349],[15.313,14.534,351.1848],[15.203,14.586,351.1453],[15.135,14.576,350.1138],[14.996,14.611,350.3865],[14.963,14.478,345.264],[14.898,14.386,343.8632],[14.741,14.149,330.7694],[14.623,14.049,314.2307],[14.554,13.996,301.0393],[14.66,13.876,307.6376],[14.793,13.635,293.3503],[14.851,13.672,290.6373],[14.96,13.665,298.8449],[15.016,13.674,302.6261],[15.196,13.718,311.3332],[15.393,13.742,300.9968],[15.499,13.747,294.7729],[15.522,13.808,305.96],[15.558,13.847,305.2236],[15.607,13.878,296.8043],[15.619,14.032,310.8295],[15.711,14.066,312.9636],[15.804,14.145,315.4813],[15.911,14.263,316.0648],[15.962,14.315,305.4407]]]]}}