{"type": "Feature","bbox": [21.322,14.718,21.777,15.358],"geometry": {"type": "MultiPolygon","coordinates": [[[[21.469,14.718,658.7634],[21.496,14.777,639.6626],[21.553,14.81,826.4775],[21.653,14.88,775.4323],[21.777,14.96,930.4042],[21.774,15.014,827.3629],[21.748,15.077,764.6881],[21.709,15.126,804.8644],[21.655,15.189,653.7043],[21.595,15.238,624.5457],[21.553,15.282,648.4578],[21.518,15.334,599.6587],[21.479,15.358,585.3672],[21.443,15.294,563.1599],[21.402,15.244,581.7827],[21.368,15.219,590.9688],[21.387,15.196,605.1336],[21.389,15.171,602.582],[21.377,15.077,614.0126],[21.322,14.834,611.61],[21.391,14.787,610.7646],[21.438,14.74,594.3723],[21.469,14.718,658.7634]]]]}
,"properties": {"GID_3": "TCD.23.3.1_1","GID_0": "TCD","country": "Chad","GID_1": "TCD.23_1","province": "WadiFira","NL_NAME_1": "NA","GID_2": "TCD.23.3_1","county": "Kobé","NL_NAME_2": "NA","city": "Dourene","VARNAME_3": "NA","NL_NAME_3": "NA","TYPE_3": "Sub-prefecture","ENGTYPE_3": "Sub-prefecture","CC_3": "NA","HASC_3": "NA","name": "Dourene.city","area_km2": 1953.249,"hist_schema_id": "Elevation0-9000","hist_area_km2": {"550": 8.039,"575": 124.724,"600": 338.403,"625": 379.545,"650": 236.725,"675": 216.551,"700": 193.61,"725": 133.088,"750": 104.959,"775": 63.568,"800": 36.334,"825": 33.956,"850": 28.487,"875": 20.11,"900": 10.422,"925": 7.063,"950": 4.279,"975": 3.541,"1000": 2.538,"1025": 2.415,"1050": 1.945,"1075": 1.023,"1100": 0.757,"1125": 0.491,"1150": 0.307,"1175": 0.143,"1200": 0.082,"1225": 0.082,"1250": 0.041,"1275": 0.02}}}