{"type":"Feature","properties":{"GID_3":"TCD.20.2.13_1","GID_0":"TCD","country":"Chad","GID_1":"TCD.20_1","province":"Tandjilé","NL_NAME_1":"NA","GID_2":"TCD.20.2_1","county":"TandjiléEst","NL_NAME_2":"NA","city":"Ngamongo","VARNAME_3":"NA","NL_NAME_3":"NA","TYPE_3":"Sub-prefecture","ENGTYPE_3":"Sub-prefecture","CC_3":"NA","HASC_3":"NA","name":"Ngamongo.city"},
"geometry":{"type": "MultiPolygon","coordinates": [[[[16.5606,9.1517,428.3193],[16.5573,9.1681,408.085],[16.5402,9.1938,384.5345],[16.5359,9.2186,376.041],[16.5318,9.2295,371.1021],[16.5281,9.2318,369.9415],[16.5202,9.2332,371.7516],[16.5006,9.2439,365.0182],[16.4946,9.2551,367.2067],[16.4886,9.2609,363.7097],[16.4693,9.2381,364.778],[16.4592,9.2164,366.9912],[16.4572,9.1976,369.0429],[16.4725,9.1621,379.452],[16.4818,9.1361,378.7386],[16.543,9.153,414.5497],[16.5606,9.1517,428.3193]]]]}}