{"type":"Feature","properties":{"GID_3":"TCD.14.2.1_1","GID_0":"TCD","country":"Chad","GID_1":"TCD.14_1","province":"Mayo-KebbiEst","NL_NAME_1":"NA","GID_2":"TCD.14.2_1","county":"Mayo-Boneye","NL_NAME_2":"NA","city":"Bongor","VARNAME_3":"NA","NL_NAME_3":"NA","TYPE_3":"Sub-prefecture","ENGTYPE_3":"Sub-prefecture","CC_3":"NA","HASC_3":"NA","name":"Bongor.city"},
"geometry":{"type": "MultiPolygon","coordinates": [[[[15.4224,10.2144,327.6004],[15.448,10.2163,328.2114],[15.51,10.2258,327.9829],[15.5661,10.2066,329.2622],[15.5905,10.2052,329.9043],[15.624,10.2074,328.1846],[15.7032,10.2377,333.3936],[15.7294,10.2499,330.7462],[15.8012,10.2884,330.8745],[15.8189,10.3019,331.0318],[15.8198,10.3089,330.9351],[15.7873,10.3464,330.5767],[15.7561,10.3897,329.1201],[15.7418,10.4058,327.6238],[15.7193,10.4228,326.2851],[15.685,10.4117,326.5316],[15.6618,10.4279,327.2724],[15.5857,10.45,323.4423],[15.5497,10.4472,322.7863],[15.535,10.4426,322.2893],[15.4657,10.4421,322.4259],[15.4663,10.4173,321.7285],[15.4417,10.3547,321.5008],[15.4247,10.3351,321.6035],[15.4007,10.3256,320.9301],[15.3595,10.3208,322.6794],[15.3363,10.3222,322.8917],[15.3122,10.3168,323.981],[15.312,10.308,321.0],[15.3142,10.3055,321.6281],[15.3273,10.3058,324.5827],[15.3394,10.301,323.715],[15.3402,10.2984,322.0],[15.3444,10.2961,323.2466],[15.3562,10.2927,326.1701],[15.3581,10.2907,325.0354],[15.359,10.2832,323.2969],[15.3669,10.2775,330.1458],[15.3691,10.2692,331.7903],[15.3842,10.2561,325.8772],[15.3867,10.2519,323.0],[15.3988,10.2468,324.1149],[15.4032,10.2432,325.0856],[15.4094,10.2294,326.5879],[15.4096,10.2222,323.5],[15.4151,10.2175,325.5049],[15.4224,10.2144,327.6004]]]]}}