{"type": "Feature","bbox": [18.9283,9.8113,19.2954,10.224],"geometry": {"type": "MultiPolygon","coordinates": [[[[19.0354,9.988,383.0174],[19.0189,9.947,382.3051],[19.0035,9.9291,380.5641],[18.9797,9.8958,383.495],[18.9283,9.8327,380.2074],[18.9388,9.8151,382.2103],[18.9631,9.8212,381.979],[18.985,9.823,381.5503],[19.004,9.8113,380.0859],[19.0357,9.8127,383.7027],[19.0562,9.8185,382.4591],[19.0856,9.8302,383.7252],[19.1034,9.8427,384.8378],[19.1173,9.8648,384.7327],[19.1488,9.8831,386.4196],[19.1698,9.8832,385.2],[19.1948,9.9001,386.7675],[19.2201,9.9226,387.671],[19.2445,9.9316,388.3721],[19.2701,9.9477,389.2593],[19.2954,9.9542,387.6415],[19.2926,9.9696,389.1695],[19.286,9.9904,388.0408],[19.291,10.0497,390.1566],[19.2861,10.079,388.086],[19.2917,10.1,388.8704],[19.2935,10.1256,395.7502],[19.2902,10.1454,411.3498],[19.2842,10.1678,426.0009],[19.282,10.1849,416.2144],[19.284,10.2008,407.1819],[19.284,10.224,426.2546],[19.241,10.209,403.0311],[19.215,10.187,391.0424],[19.208,10.146,390.9069],[19.161,10.155,389.1475],[19.138,10.129,389.4442],[19.126,10.084,387.2957],[19.084,10.015,384.6064],[19.078,9.988,386.5224],[19.0354,9.988,383.0174]]]]}
,"properties": {"GID_3": "TCD.16.3.11_1","GID_0": "TCD","country": "Chad","GID_1": "TCD.16_1","province": "Moyen-Chari","NL_NAME_1": "NA","GID_2": "TCD.16.3_1","county": "LacIro","NL_NAME_2": "NA","city": "Moufa","VARNAME_3": "NA","NL_NAME_3": "NA","TYPE_3": "Sub-prefecture","ENGTYPE_3": "Sub-prefecture","CC_3": "NA","HASC_3": "NA","name": "Moufa.city","area_km2": 832.2585,"hist_schema_id": "Elevation0-9000","hist_area_km2": {"375": 472.3724,"400": 346.8015,"425": 13.0846}}}