{"type":"Feature","properties":{"GID_2":"TCD.18.2_1","GID_0":"TCD","country":"Chad","GID_1":"TCD.18_1","province":"Salamat","NL_NAME_1":"NA","county":"BarhAzoum","VARNAME_2":"AmTiman","NL_NAME_2":"NA","TYPE_2":"Department","ENGTYPE_2":"Department","CC_2":"NA","HASC_2":"TD.SA.AT","name":"Barh_Azoum.county"},
"geometry":{"type": "MultiPolygon","coordinates": [[[[20.8366,10.4171,423.9173],[20.8695,10.4775,426.4127],[20.8758,10.5101,427.3757],[20.8991,10.5826,430.0368],[20.907,10.6022,430.9635],[20.9181,10.6257,432.3643],[20.9304,10.6441,434.3935],[20.9416,10.6647,434.6757],[20.9472,10.6878,435.3753],[20.9665,10.7378,438.3935],[21.003,10.8879,444.0115],[21.0369,10.9507,447.8792],[21.0716,11.032,451.5992],[21.0815,11.0639,453.8193],[21.1143,11.1189,457.5855],[21.1378,11.1624,460.7797],[21.1498,11.1902,460.5155],[21.1686,11.2165,461.9894],[21.2063,11.2624,464.2861],[21.2538,11.3284,466.1643],[21.2834,11.3561,468.223],[21.3163,11.3938,471.4113],[21.3417,11.4306,475.4543],[21.3653,11.4594,475.9853],[21.3743,11.4746,476.6377],[21.3801,11.5024,478.1026],[21.3903,11.5331,480.7924],[21.4015,11.5999,484.5715],[21.1671,11.56,478.2081],[21.096,11.546,475.1965],[21.099,11.64,480.9221],[21.056,11.664,479.5275],[20.974,11.715,486.5415],[20.303,12.035,449.437],[20.266,12.029,458.5164],[20.237,12.042,450.0596],[20.1481,12.0359,448.9471],[20.1414,11.9995,465.7468],[20.1328,11.9715,477.9044],[20.1191,11.9328,456.1414],[20.1024,11.901,458.523],[20.0772,11.8593,480.3649],[20.038,11.8027,458.6017],[20.027,11.7811,465.8402],[19.996,11.7488,449.0673],[19.974,11.699,446.027],[19.972,11.6779,448.929],[19.9716,11.6483,450.8181],[19.9772,11.6222,443.4659],[19.9889,11.602,465.3884],[20.0086,11.576599999999999,453.1613],[20.0518,11.5371,450.0291],[20.0668,11.5189,444.9986],[20.0872,11.4685,432.3222],[20.1077,11.4431,430.9186],[20.1285,11.3909,431.0343],[20.1183,11.3231,428.0617],[20.1239,11.2974,430.5741],[20.15,11.2444,427.2462],[20.1519,11.2195,427.4196],[20.1647,11.1948,430.4515],[20.1594,11.1786,429.6739],[20.1426,11.1652,431.5939],[20.0897,11.136,427.9138],[20.0661,11.1248,427.1936],[20.0465,11.119,425.4001],[20.0129,11.1187,425.5287],[19.93,11.0764,421.1754],[19.8806,11.0464,420.8948],[19.8507,11.0386,418.1381],[19.8029,11.0154,417.1644],[19.7624,11.0013,417.7283],[19.694,11.001,417.0071],[19.706,10.942,417.922],[19.737,10.911,415.1917],[19.707,10.873,414.8757],[19.726,10.717,411.8536],[19.703,10.588,406.3282],[19.635,10.289,404.1219],[19.692,10.267,400.4955],[19.681,10.213,400.1369],[19.648,10.156,397.7988],[19.654,10.097,398.7444],[19.613,10.067,396.4634],[19.681,9.962,393.9996],[19.6984,9.9121,392.3088],[19.727,9.9179,393.0842],[19.7726,9.9304,395.9817],[19.8325,9.9584,395.0765],[19.8749,9.9677,397.2239],[19.9197,9.9729,398.7906],[19.9802,9.9868,400.4309],[19.9999,9.9806,398.9891],[20.0311,9.9753,399.2697],[20.0549,9.9815,403.3517],[20.0818,9.9762,402.3128],[20.1091,9.9864,399.7737],[20.1459,10.0094,395.0913],[20.1673,10.0133,403.7257],[20.1893,10.0136,403.243],[20.2256,10.0081,400.3068],[20.2943,10.0014,409.338],[20.327,10.0042,406.9348],[20.4107,10.003,410.0977],[20.4541,9.9995,408.9957],[20.4704,9.9939,408.9583],[20.4848,9.9946,408.151],[20.5366,9.9905,409.5794],[20.5481,9.9873,409.1811],[20.6126,9.9792,410.4951],[20.6325,9.9796,410.6039],[20.6547,9.9877,411.0921],[20.6757,9.9889,409.7937],[20.7038,10.0046,412.0244],[20.7234,10.0178,414.0292],[20.7402,10.0347,412.9529],[20.7491,10.1026,411.1696],[20.7533,10.1643,418.2363],[20.7669,10.2101,417.5974],[20.7746,10.256,417.9474],[20.789,10.3098,420.5403],[20.8067,10.3391,420.7775],[20.814,10.3684,421.7377],[20.8366,10.4171,423.9173]]]]}}