{"type": "Feature","bbox": [20.988,13.145,21.699,13.597],"geometry": {"type": "MultiPolygon","coordinates": [[[[21.65,13.527,739.2111],[21.58,13.597,707.9219],[21.537,13.58,674.8381],[21.488,13.563,658.3807],[21.401,13.559,628.9155],[21.359,13.548,619.8478],[21.236,13.565,625.6866],[21.11,13.533,581.4635],[21.027,13.549,563.775],[20.988,13.516,543.7473],[21.024,13.421,597.2231],[21.044,13.385,597.54],[21.052,13.34,575.0145],[21.118,13.332,592.8578],[21.215,13.343,605.285],[21.271,13.308,570.6087],[21.347,13.246,571.2856],[21.376,13.209,611.8629],[21.414,13.194,636.6278],[21.408,13.145,572.3458],[21.446,13.146,579.2441],[21.524,13.162,641.376],[21.57,13.184,648.2061],[21.632,13.209,687.6026],[21.646,13.254,738.676],[21.681,13.277,793.7144],[21.699,13.336,734.1941],[21.65,13.527,739.2111]]]]}
,"properties": {"GID_3": "TCD.17.3.7_1","GID_0": "TCD","country": "Chad","GID_1": "TCD.17_1","province": "Ouaddaï","NL_NAME_1": "NA","GID_2": "TCD.17.3_1","county": "Ouara","NL_NAME_2": "NA","city": "Ouadi-Hamra","VARNAME_3": "NA","NL_NAME_3": "NA","TYPE_3": "Sub-prefecture","ENGTYPE_3": "Sub-prefecture","CC_3": "NA","HASC_3": "NA","name": "Ouadi-Hamra.city","area_km2": 2383.143,"hist_schema_id": "Elevation0-9000","hist_area_km2": {"550": 14.821,"575": 156.33,"600": 454.004,"625": 550.927,"650": 378.6,"675": 262.863,"700": 231.784,"725": 163.175,"750": 71.331,"775": 41.264,"800": 26.947,"825": 14.114,"850": 8.501,"875": 4.333,"900": 2.332,"925": 0.908,"950": 0.289,"975": 0.289,"1000": 0.268,"1025": 0.062}}}