{"type":"Feature","properties":{"GID_3":"TCD.16.3.2_1","GID_0":"TCD","country":"Chad","GID_1":"TCD.16_1","province":"Moyen-Chari","NL_NAME_1":"NA","GID_2":"TCD.16.3_1","county":"LacIro","NL_NAME_2":"NA","city":"Bale","VARNAME_3":"NA","NL_NAME_3":"NA","TYPE_3":"Sub-prefecture","ENGTYPE_3":"Sub-prefecture","CC_3":"NA","HASC_3":"NA","name":"Bale.city"},
"geometry":{"type": "MultiPolygon","coordinates": [[[[18.7731,9.7227,375.5075],[18.7595,9.7122,375.2077],[18.7471,9.7068,375.0508],[18.7344,9.7056,374.7466],[18.7248,9.7009,374.5043],[18.6996,9.6932,373.1756],[18.7141,9.6596,389.0452],[18.7131,9.6422,397.6566],[18.702,9.6027,432.4517],[18.7004,9.5922,434.0188],[18.7032,9.5708,445.9862],[18.7094,9.5771,451.5427],[18.8045,9.6118,453.4601],[18.8203,9.6165,442.0712],[18.8354,9.6146,453.5184],[18.8437,9.6008,479.3091],[18.8556,9.5312,486.7427],[18.8588,9.5228,474.5521],[18.8616,9.5076,454.7734],[18.874,9.4867,433.8048],[18.8971,9.4549,418.0762],[18.9071,9.4501,404.2815],[18.9145,9.4512,400.8991],[18.9253,9.4407,383.8477],[18.9274,9.4836,413.4892],[18.9268,9.5023,428.9989],[18.9191,9.5526,473.016],[18.9222,9.5657,485.2513],[18.9261,9.5685,483.4604],[18.9361,9.5628,470.618],[18.9396,9.5459,452.1803],[18.9472,9.5292,435.3489],[18.9624,9.5124,429.3009],[18.9911,9.5024,420.653],[19.0049,9.5123,420.903],[19.0347,9.5171,409.501],[19.039,9.527,413.9915],[19.0457,9.5539,428.1826],[19.049,9.5614,426.4398],[19.0576,9.5566,429.0981],[19.1126,9.5426,390.6277],[19.1233,9.5385,383.9994],[19.134,9.544,383.263],[19.143,9.5584,388.6605],[19.1502,9.5744,402.2526],[19.1703,9.5952,407.2733],[19.1893,9.6071,388.7165],[19.1995,9.61,384.3694],[19.2076,9.6148,383.7292],[19.2269,9.616,382.4811],[19.2198,9.6306,379.9669],[19.2154,9.6521,382.8194],[19.2231,9.6749,382.8714],[19.224,9.6879,380.8393],[19.2123,9.7099,386.0173],[19.1922,9.7006,381.2675],[19.1644,9.7038,383.7334],[19.0535,9.7273,385.4776],[19.0253,9.7225,399.7384],[18.9838,9.7217,379.957],[18.9689,9.7032,388.5355],[18.9236,9.6852,394.7954],[18.8864,9.6863,403.0504],[18.8356,9.7078,402.4836],[18.807,9.7004,396.7482],[18.7731,9.7227,375.5075]]]]}}