{"type":"Feature","properties":{"GID_3":"TCD.17.3.5_1","GID_0":"TCD","country":"Chad","GID_1":"TCD.17_1","province":"Ouaddaï","NL_NAME_1":"NA","GID_2":"TCD.17.3_1","county":"Ouara","NL_NAME_2":"NA","city":"Marfa","VARNAME_3":"NA","NL_NAME_3":"NA","TYPE_3":"Sub-prefecture","ENGTYPE_3":"Sub-prefecture","CC_3":"NA","HASC_3":"NA","name":"Marfa.city"},
"geometry":{"type": "MultiPolygon","coordinates": [[[[21.408,13.145,572.3458],[21.414,13.194,636.6278],[21.376,13.209,611.8629],[21.347,13.246,571.2856],[21.271,13.308,570.6087],[21.215,13.343,605.285],[21.118,13.332,592.8578],[21.052,13.34,575.0145],[21.044,13.385,597.54],[21.024,13.421,597.2231],[20.997,13.423,582.6417],[20.956,13.437,576.6384],[20.907,13.49,560.9125],[20.839,13.522,528.4035],[20.794,13.518,515.6245],[20.753,13.495,500.9803],[20.677,13.434,553.9393],[20.64,13.351,514.5645],[20.633,13.267,464.5878],[20.615,13.2,511.4965],[20.624,13.148,467.5203],[20.627,13.091,472.3776],[20.616,13.043,473.6292],[20.613,13.009,463.9875],[20.662,13.009,480.5301],[20.763,13.017,486.0927],[20.874,13.041,562.8983],[20.964,13.045,547.9667],[21.095,13.081,549.267],[21.152,13.094,525.7267],[21.303,13.136,561.7341],[21.408,13.145,572.3458]]]]}}