{"type": "Feature","bbox": [16.1842,7.6067,16.3755,8.0098],"geometry": {"type": "MultiPolygon","coordinates": [[[[16.2485,7.6121,451.4511],[16.2618,7.6235,451.7202],[16.2777,7.6278,453.5432],[16.2865,7.6326,454.5904],[16.2922,7.6369,462.2826],[16.2967,7.6479,456.7013],[16.3015,7.6518,439.7374],[16.3119,7.6511,446.7176],[16.3414,7.662,434.037],[16.3476,7.661,443.6511],[16.3541,7.667,440.4896],[16.3571,7.6674,434.8517],[16.361,7.6644,438.1801],[16.3723,7.6669,435.4667],[16.3755,7.6659,435.6104],[16.3637,7.7016,466.5237],[16.3567,7.7451,459.6431],[16.3501,7.8011,463.1923],[16.3409,7.8476,463.5966],[16.3311,7.9129,447.7731],[16.3135,7.9659,456.1684],[16.307,7.9773,450.053],[16.3039,7.9881,456.287],[16.2932,8.0098,458.3032],[16.2589,7.9793,475.3866],[16.241,7.9673,464.5343],[16.232,7.9634,466.1423],[16.2089,7.9454,456.8951],[16.1963,7.9265,470.7451],[16.1932,7.8996,472.9738],[16.1949,7.844,482.7823],[16.1855,7.8115,491.8406],[16.1891,7.7804,489.8016],[16.1886,7.7646,509.1194],[16.1842,7.7369,495.5633],[16.1971,7.6612,491.1861],[16.1964,7.6158,471.6907],[16.2042,7.6151,470.56],[16.2111,7.6114,465.566],[16.2332,7.6083,457.1518],[16.2355,7.6067,464.6093],[16.2485,7.6121,451.4511]]]]}
,"properties": {"GID_3": "TCD.12.2.8_1","GID_0": "TCD","country": "Chad","GID_1": "TCD.12_1","province": "LogoneOriental","NL_NAME_1": "NA","GID_2": "TCD.12.2_1","county": "MontsdeLam","NL_NAME_2": "NA","city": "Oudoumian","VARNAME_3": "NA","NL_NAME_3": "NA","TYPE_3": "Sub-prefecture","ENGTYPE_3": "Sub-prefecture","CC_3": "NA","HASC_3": "NA","name": "Oudoumian.city","area_km2": 642.4793,"hist_schema_id": "Elevation0-9000","hist_area_km2": {"425": 6.8053,"450": 183.4896,"475": 295.7757,"500": 147.3114,"525": 7.7735,"550": 0.5673,"575": 0.2942,"600": 0.1891,"625": 0.1891,"650": 0.042,"675": 0.042}}}