{"type":"Feature","properties":{"GID_3":"TCD.7.3.4_1","GID_0":"TCD","country":"Chad","GID_1":"TCD.7_1","province":"Guéra","NL_NAME_1":"NA","GID_2":"TCD.7.3_1","county":"Guéra","NL_NAME_2":"NA","city":"Melfi","VARNAME_3":"NA","NL_NAME_3":"NA","TYPE_3":"Sub-prefecture","ENGTYPE_3":"Sub-prefecture","CC_3":"NA","HASC_3":"NA","name":"Melfi.city"},
"geometry":{"type": "MultiPolygon","coordinates": [[[[18.577,10.893,593.7831],[18.595,10.934,450.732],[18.612,10.995,457.1565],[18.605,11.054,430.0852],[18.58,11.088,436.9264],[18.467,11.118,453.2996],[18.386,11.124,444.7631],[18.29,11.151,443.2266],[18.2727,11.136,433.071],[18.2423,11.1244,439.6231],[18.2067,11.1201,430.8691],[18.1271,11.0955,392.0097],[18.0474,11.0955,383.2011],[17.9983,11.0897,372.5243],[17.9475,11.0883,398.7397],[17.8967,11.0825,623.6876],[17.8509,11.0695,482.4724],[17.821,10.915,360.6956],[17.806,10.881,357.3281],[17.815,10.862,355.5068],[17.83,10.842,355.1183],[17.852,10.771,363.443],[17.829,10.745,355.6454],[17.802,10.721,355.0424],[17.764,10.678,351.9246],[17.743,10.63,351.9298],[17.732,10.576,351.8949],[17.72,10.559,352.884],[17.725,10.477,351.2595],[17.864,10.497,396.2153],[17.962,10.397,356.0126],[18.013,10.381,358.4543],[18.067,10.35,358.4732],[18.104,10.365,359.2461],[18.155,10.394,364.4857],[18.203,10.405,370.8496],[18.242,10.449,372.2565],[18.291,10.46,376.2529],[18.322,10.452,372.5119],[18.353,10.437,390.8782],[18.399,10.424,383.4507],[18.431,10.421,383.0368],[18.461,10.452,383.7601],[18.468,10.525,391.6544],[18.471,10.586,404.8222],[18.49,10.677,427.6579],[18.522,10.748,431.7858],[18.553,10.804,427.0411],[18.562,10.853,452.0255],[18.577,10.893,593.7831]]]]}}