{"type":"Feature","properties":{"GID_3":"TCD.20.2.17_1","GID_0":"TCD","country":"Chad","GID_1":"TCD.20_1","province":"Tandjilé","NL_NAME_1":"NA","GID_2":"TCD.20.2_1","county":"TandjiléEst","NL_NAME_2":"NA","city":"Tchedoum","VARNAME_3":"NA","NL_NAME_3":"NA","TYPE_3":"Sub-prefecture","ENGTYPE_3":"Sub-prefecture","CC_3":"NA","HASC_3":"NA","name":"Tchedoum.city"},
"geometry":{"type": "MultiPolygon","coordinates": [[[[16.6127,9.3715,359.437],[16.6034,9.3521,355.8661],[16.5945,9.3152,357.6179],[16.5945,9.305,355.3652],[16.6021,9.2956,358.6062],[16.6373,9.2711,367.4052],[16.6477,9.2715,367.5114],[16.6614,9.2765,367.2757],[16.6706,9.2779,371.579],[16.6874,9.2739,368.841],[16.6978,9.2762,369.2567],[16.712,9.2687,371.9521],[16.7252,9.2655,371.1302],[16.7398,9.2563,369.3783],[16.7554,9.2431,365.4802],[16.7623,9.235,365.8934],[16.769,9.2308,368.1435],[16.785,9.2245,371.0806],[16.8012,9.2241,371.9147],[16.7958,9.2355,366.3929],[16.7969,9.2558,359.9776],[16.7931,9.3277,359.3458],[16.7888,9.3423,360.6293],[16.7943,9.3669,354.5509],[16.7767,9.3851,351.5596],[16.7665,9.3867,352.0757],[16.749,9.385,353.5453],[16.7258,9.3878,356.9439],[16.7058,9.3876,358.993],[16.6547,9.3821,357.7799],[16.6216,9.3697,359.9507],[16.6127,9.3715,359.437]]]]}}