{"type": "Feature","bbox": [20.1183,11.0647,21.1686,11.3231],"geometry": {"type": "MultiPolygon","coordinates": [[[[20.1647,11.1948,430.4515],[20.1982,11.1815,431.9382],[20.2238,11.1756,430.3293],[20.2497,11.1609,431.4575],[20.2751,11.1524,434.7894],[20.2913,11.1494,436.6617],[20.3096,11.1384,436.2549],[20.3436,11.1311,437.3833],[20.4006,11.128,440.4371],[20.4209,11.1173,441.2361],[20.4682,11.1064,441.412],[20.5041,11.0945,441.9504],[20.5442,11.0861,443.895],[20.5838,11.0752,443.9511],[20.5974,11.0647,442.513],[20.6355,11.0701,442.9852],[20.6544,11.0788,445.2283],[20.6779,11.1006,447.9334],[20.7142,11.1297,448.5687],[20.7182,11.1348,448.9218],[20.7642,11.1749,451.908],[20.8089,11.2096,454.6058],[20.8442,11.2314,457.4882],[20.8743,11.2428,457.2814],[20.8959,11.2478,457.1305],[20.9424,11.2487,458.9692],[20.972,11.2313,459.215],[20.9947,11.2233,459.1579],[21.0122,11.2104,459.5114],[21.0419,11.1833,457.4713],[21.0566,11.1727,457.8558],[21.0885,11.1611,459.2047],[21.1043,11.1497,460.0729],[21.1143,11.1189,457.5855],[21.1378,11.1624,460.7797],[21.1498,11.1902,460.5155],[21.1686,11.2165,461.9894],[21.1534,11.2316,462.0937],[21.1107,11.2506,462.7782],[21.0982,11.2618,463.3895],[21.0705,11.2646,463.2741],[21.0483,11.2692,462.8475],[20.9894,11.2851,462.2346],[20.9587,11.2918,465.5707],[20.8527,11.3093,458.7204],[20.8132,11.2947,455.4876],[20.7079,11.2768,453.3613],[20.6649,11.2722,450.2892],[20.6204,11.2758,450.1044],[20.5804,11.2762,448.5516],[20.5336,11.2711,450.281],[20.4424,11.2737,442.9728],[20.3631,11.2727,439.5431],[20.3095,11.2762,437.0774],[20.2559,11.2853,432.0013],[20.2285,11.2922,431.5673],[20.2204,11.2964,430.9311],[20.1716,11.3031,432.6628],[20.1379,11.3102,430.5486],[20.1183,11.3231,428.0617],[20.1239,11.2974,430.5741],[20.15,11.2444,427.2462],[20.1519,11.2195,427.4196],[20.1647,11.1948,430.4515]]]]}
,"properties": {"GID_3": "TCD.18.2.6_1","GID_0": "TCD","country": "Chad","GID_1": "TCD.18_1","province": "Salamat","NL_NAME_1": "NA","GID_2": "TCD.18.2_1","county": "BarhAzoum","NL_NAME_2": "NA","city": "Kibet-Angreb","VARNAME_3": "NA","NL_NAME_3": "NA","TYPE_3": "Sub-prefecture","ENGTYPE_3": "Sub-prefecture","CC_3": "NA","HASC_3": "NA","name": "Kibet-Angreb.city","area_km2": 1531.718,"hist_schema_id": "Elevation0-9000","hist_area_km2": {"425": 278.091,"450": 1236.535,"475": 17.092}}}