{"type": "Feature","bbox": [17.108,7.8035,17.4855,8.2151],"geometry": {"type": "MultiPolygon","coordinates": [[[[17.4855,7.8857,390.1483],[17.4832,7.9163,412.4666],[17.4767,7.9626,409.8662],[17.4767,7.9778,399.2154],[17.4826,8.017,412.1909],[17.4772,8.0226,414.9558],[17.4748,8.029,415.3329],[17.4645,8.0392,417.4099],[17.454,8.0433,414.8909],[17.4378,8.0624,414.2753],[17.4203,8.0713,413.1214],[17.4076,8.0732,412.2203],[17.3763,8.0865,403.9601],[17.3609,8.0904,399.9149],[17.3522,8.0954,396.5865],[17.3326,8.1109,400.3505],[17.325,8.1342,397.8784],[17.325,8.1458,391.9145],[17.3208,8.1572,390.3792],[17.3227,8.1731,388.3536],[17.3062,8.1719,391.5764],[17.2836,8.177,390.2668],[17.2755,8.1817,389.5544],[17.2595,8.1957,387.9749],[17.2473,8.2151,387.1145],[17.213,8.157,380.1679],[17.156,8.146,388.7861],[17.108,8.131,393.5346],[17.2839,7.8035,402.2545],[17.301,7.8055,399.2929],[17.3042,7.8094,399.1029],[17.3034,7.8174,400.2716],[17.3045,7.8236,400.7129],[17.3087,7.8277,395.1078],[17.3147,7.8284,391.5564],[17.328,7.821,399.6955],[17.3328,7.8205,400.2615],[17.3358,7.8223,401.3826],[17.3412,7.8374,391.3479],[17.3454,7.8411,391.8109],[17.3592,7.8403,399.5441],[17.3652,7.8488,389.9378],[17.3687,7.8496,390.7848],[17.3763,7.8466,391.0416],[17.3936,7.8509,390.2219],[17.3984,7.8437,390.1263],[17.403,7.843,407.0503],[17.4049,7.8474,403.4744],[17.4035,7.8524,400.6407],[17.4044,7.8579,396.0219],[17.4089,7.8662,388.9843],[17.4119,7.8666,388.3701],[17.4153,7.8613,403.8821],[17.4236,7.8585,407.6741],[17.4243,7.8631,398.9565],[17.4193,7.8682,389.2159],[17.4181,7.8714,389.6133],[17.4211,7.8755,388.3406],[17.4331,7.8773,389.1638],[17.4356,7.8756,388.9219],[17.4388,7.8676,396.9483],[17.4411,7.866,399.205],[17.4457,7.8662,402.4138],[17.4494,7.8691,399.8034],[17.4499,7.8719,397.4597],[17.4472,7.8776,392.0238],[17.4491,7.8834,395.9579],[17.4555,7.8822,394.3829],[17.4596,7.8838,395.1679],[17.4678,7.894,388.0129],[17.4728,7.8947,388.2242],[17.4855,7.8857,390.1483]]]]}
,"properties": {"GID_3": "TCD.13.1.12_1","GID_0": "TCD","country": "Chad","GID_1": "TCD.13_1","province": "Mandoul","NL_NAME_1": "NA","GID_2": "TCD.13.1_1","county": "BarhSara","NL_NAME_2": "NA","city": "Koldaga","VARNAME_3": "NA","NL_NAME_3": "NA","TYPE_3": "Sub-prefecture","ENGTYPE_3": "Sub-prefecture","CC_3": "NA","HASC_3": "NA","name": "Koldaga.city","area_km2": 1010.7521,"hist_schema_id": "Elevation0-9000","hist_area_km2": {"375": 25.6504,"400": 393.9913,"425": 496.6959,"450": 94.4146}}}