{"type": "Feature","bbox": [16.427,8.9881,16.7131,9.153],"geometry": {"type": "MultiPolygon","coordinates": [[[[16.4486,9.0831,364.3308],[16.5099,9.0679,364.7192],[16.5715,9.0479,366.5574],[16.5806,9.0424,365.6999],[16.589,9.0345,364.9904],[16.6052,9.01,368.5528],[16.6206,8.9957,368.1494],[16.6333,8.9881,369.7918],[16.6399,8.9923,367.8259],[16.6618,9.0215,416.0515],[16.6713,9.0299,429.3442],[16.6768,9.0421,441.6883],[16.7131,9.0991,473.1663],[16.684,9.113,499.8199],[16.654,9.106,494.6443],[16.624,9.125,460.9213],[16.596,9.149,432.51369999999997],[16.543,9.153,414.5497],[16.467,9.132,371.9079],[16.427,9.118,362.8237],[16.4486,9.0831,364.3308]]]]}
,"properties": {"GID_3": "TCD.12.4.10_1","GID_0": "TCD","country": "Chad","GID_1": "TCD.12_1","province": "LogoneOriental","NL_NAME_1": "NA","GID_2": "TCD.12.4_1","county": "Pendé","NL_NAME_2": "NA","city": "Sama","VARNAME_3": "NA","NL_NAME_3": "NA","TYPE_3": "Sub-prefecture","ENGTYPE_3": "Sub-prefecture","CC_3": "NA","HASC_3": "NA","name": "Sama.city","area_km2": 280.9422,"hist_schema_id": "Elevation0-9000","hist_area_km2": {"350": 5.5899,"375": 50.626,"400": 54.8959,"425": 63.2481,"450": 57.3007,"475": 39.3584,"500": 9.8815,"525": 0.0419}}}