{"type": "Feature","id": "4857","bbox": [15.01183,12.05565,15.1253,12.18092],"geometry": {"type": "Polygon","coordinates": [[[15.04056,12.05565,294.3572],[15.06902,12.05822,293.5052],[15.08848,12.06146,293.5758],[15.10469,12.07119,294.5648],[15.12253,12.09064,296.2881],[15.1253,12.11357,294.6944],[15.11881,12.13464,293.9196],[15.10746,12.1541,294.5234],[15.08892,12.16795,292.3941],[15.07433,12.1793,292.0145],[15.05001,12.18092,292.8268],[15.03619,12.17454,293.4917],[15.0216,12.15508,294.0748],[15.01349,12.13401,292.2508],[15.01183,12.10862,293.0529],[15.03043,12.10092,292.7556],[15.04945,12.08459,288.2617],[15.04459,12.07839,292.481],[15.04087,12.06758,294.448],[15.04056,12.05565,294.3572]]]}
,"properties": {"ISO3166-1-Alpha-3": "TCD","country": "Chad","fill": "#00F","name": "Ville de N'Djamena","area_km2": 120.48073,"hist_schema_id": "Elevation0-9000","hist_area_km2": {"275": 0.33164,"300": 120.1491}}}