{"type":"Feature","properties":{"GID_2":"TCD.14.3_1","GID_0":"TCD","country":"Chad","GID_1":"TCD.14_1","province":"Mayo-KebbiEst","NL_NAME_1":"NA","county":"MontIlli","VARNAME_2":"Fianga","NL_NAME_2":"NA","TYPE_2":"Department","ENGTYPE_2":"Department","CC_2":"NA","HASC_2":"TD.MK.FI","name":"Mont_Illi.county"},
"geometry":{"type": "MultiPolygon","coordinates": [[[[15.1669,9.7108,341.2938],[15.1782,9.7252,339.4519],[15.1938,9.7277,339.7565],[15.2197,9.7263,341.4466],[15.2582,9.737,340.3015],[15.2849,9.7467,339.5845],[15.3529,9.7655,335.2945],[15.3986,9.7733,334.4644],[15.4353,9.7762,333.9669],[15.4722,9.776,335.3521],[15.4936,9.7905,333.4876],[15.5147,9.7966,332.8655],[15.5255,9.7913,333.8113],[15.5384,9.788,333.2453],[15.5508,9.7818,333.5296],[15.5653,9.7827,333.9818],[15.5807,9.7798,334.359],[15.6238,9.7851,336.0833],[15.6372,9.7881,336.4828],[15.655,9.7866,337.1435],[15.6838,9.7975,337.9337],[15.7006,9.8007,338.8094],[15.7249,9.816,338.7702],[15.7419,9.8355,338.9403],[15.7537,9.8414,338.4355],[15.7655,9.8526,338.4025],[15.7485,9.8688,338.7277],[15.7366,9.8772,337.6997],[15.7163,9.8954,337.0102],[15.6914,9.9293,336.2075],[15.6637,9.9632,334.5179],[15.6581,9.9762,334.4301],[15.6837,9.9851,333.8017],[15.6812,9.9933,334.4968],[15.5278,9.9547,335.1746],[15.4133,9.9349,336.7717],[15.3641,9.962,337.2533],[15.2484,9.9915,327.9322],[15.2148,9.988,322.6547],[15.2093,9.9939,323.6416],[15.18,9.9885,325.4566],[15.1525,9.997,323.745],[15.1128,9.9867,337.834],[15.1099,9.9809,339.4048],[15.1095,9.9737,337.363],[15.1063,9.9667,333.6249],[15.0619,9.9487,342.9724],[15.0363,9.9689,343.7762],[15.0007,9.9697,347.4743],[14.9615,9.9849,349.0097],[14.8024,9.9357,346.0812],[14.7381,9.9503,373.5205],[14.7281,9.951,368.4204],[14.7416,9.916,355.0446],[14.7396,9.9045,354.8116],[14.735,9.8945,362.9116],[14.7262,9.8842,359.7389],[14.7248,9.8746,348.9044],[14.7322,9.8712,345.6685],[14.7349,9.8657,338.5095],[14.7332,9.8593,342.0872],[14.7261,9.852,350.6707],[14.7212,9.8389,330.3869],[14.7282,9.8226,315.0141],[14.735,9.8197,316.1326],[14.7382,9.774,346.1921],[14.7486,9.7236,368.2724],[14.7455,9.7017,387.2202],[14.749,9.6698,398.1679],[14.7673,9.6641,412.9937],[14.7932,9.6682,399.3229],[14.8178,9.668,407.244],[14.8419,9.6759,388.2907],[14.8605,9.6739,389.8013],[14.8909,9.6818,390.7883],[14.9072,9.6894,383.8256],[14.9304,9.6965,381.4464],[14.9501,9.6984,375.2188],[14.9663,9.6891,367.0896],[14.9898,9.683,354.0428],[14.9982,9.6742,355.4137],[15.0179,9.6656,357.9576],[15.034,9.6615,368.6919],[15.0389,9.6575,372.6299],[15.0446,9.6494,377.2192],[15.0472,9.6423,381.6293],[15.0466,9.6292,369.4775],[15.0381,9.6183,350.911],[15.0284,9.6101,357.0199],[15.026,9.5995,363.9825],[15.0272,9.5965,366.5066],[15.0362,9.5911,365.9734],[15.0412,9.5854,375.6231],[15.0487,9.5716,366.3104],[15.0577,9.5633,373.5349],[15.0708,9.5604,373.9364],[15.0912,9.5749,399.9774],[15.1031,9.5764,397.4771],[15.1212,9.5918,390.8176],[15.1354,9.599,373.3644],[15.1404,9.6108,366.0857],[15.1501,9.6179,366.6922],[15.1504,9.6687,359.1029],[15.1526,9.6835,335.7766],[15.1669,9.7108,341.2938]]]]}}