{"type":"Feature","properties":{"GID_3":"TCD.16.1.4_1","GID_0":"TCD","country":"Chad","GID_1":"TCD.16_1","province":"Moyen-Chari","NL_NAME_1":"NA","GID_2":"TCD.16.1_1","county":"BarhKöh","NL_NAME_2":"NA","city":"Kokaga","VARNAME_3":"NA","NL_NAME_3":"NA","TYPE_3":"Sub-prefecture","ENGTYPE_3":"Sub-prefecture","CC_3":"NA","HASC_3":"NA","name":"Kokaga.city"},
"geometry":{"type": "MultiPolygon","coordinates": [[[[18.3671,9.1557,365.9636],[18.3828,9.171,358.1053],[18.3917,9.1833,362.8268],[18.4021,9.1919,357.4768],[18.4173,9.1972,359.9315],[18.3905,9.2267,361.6682],[18.3731,9.234,359.63869999999997],[18.3602,9.254,365.4659],[18.3561,9.2686,368.9179],[18.355,9.2791,369.3577],[18.3544,9.3163,366.5764],[18.3566,9.341,364.3271],[18.3622,9.3618,362.6743],[18.3617,9.3694,363.2727],[18.355,9.3832,364.38],[18.3465,9.3901,363.731],[18.3425,9.3971,363.5938],[18.3303,9.431,367.928],[18.3206,9.4476,367.5298],[18.3087,9.5014,372.554],[18.2998,9.5169,371.8026],[18.2953,9.5358,365.8579],[18.277,9.5213,366.6291],[18.2546,9.511,367.6927],[18.2171,9.4773,363.5344],[18.1947,9.4638,363.3269],[18.1601,9.4535,361.2542],[18.1405,9.4354,362.4986],[18.1313,9.4296,353.6941],[18.1431,9.4194,351.6196],[18.1594,9.414,364.5126],[18.1668,9.4002,358.5639],[18.17,9.389,357.927],[18.1821,9.3783,359.4206],[18.1996,9.3661,360.8422],[18.2163,9.359,361.7709],[18.2271,9.352,360.6987],[18.2331,9.3458,361.2333],[18.2388,9.3311,361.6454],[18.2519,9.2858,361.1091],[18.2555,9.2537,357.3329],[18.2513,9.2428,358.2637],[18.2449,9.2332,363.0856],[18.2424,9.1985,361.4891],[18.2467,9.1942,361.7856],[18.2572,9.1922,362.8999],[18.2712,9.1926,361.083],[18.2824,9.1889,362.0786],[18.319,9.1873,357.9265],[18.3493,9.1888,364.6464],[18.3592,9.1745,363.9282],[18.3594,9.1609,365.2713],[18.3671,9.1557,365.9636]]]]}}