{"type": "Feature","bbox": [16.3437,8.8649,16.4559,9.0449],"geometry": {"type": "MultiPolygon","coordinates": [[[[16.3918,8.8659,495.1772],[16.4068,8.8753,493.3919],[16.428,8.8956,471.7104],[16.4374,8.9239,451.8876],[16.4506,8.9539,422.1801],[16.4506,8.9616,413.0706],[16.4559,8.9761,395.6511],[16.4555,8.9888,383.6212],[16.4425,9.0449,366.1585],[16.4139,9.0293,374.3839],[16.3877,9.0039,405.9918],[16.3582,8.9484,479.8188],[16.3519,8.9258,499.2179],[16.3437,8.8649,506.2834],[16.3541,8.8693,496.7645],[16.3918,8.8659,495.1772]]]]}
,"properties": {"GID_3": "TCD.11.3.1_1","GID_0": "TCD","country": "Chad","GID_1": "TCD.11_1","province": "LogoneOccidental","NL_NAME_1": "NA","GID_2": "TCD.11.3_1","county": "Ngourkosso","NL_NAME_2": "NA","city": "Bebalem","VARNAME_3": "NA","NL_NAME_3": "NA","TYPE_3": "Sub-prefecture","ENGTYPE_3": "Sub-prefecture","CC_3": "NA","HASC_3": "NA","name": "Bebalem.city","area_km2": 150.3796,"hist_schema_id": "Elevation0-9000","hist_area_km2": {"375": 17.9876,"400": 23.2872,"425": 17.3617,"450": 21.363,"475": 34.1622,"500": 36.2178}}}