{"type": "Feature","bbox": [17.2541,8.5291,17.4424,8.6716],"geometry": {"type": "MultiPolygon","coordinates": [[[[17.4424,8.55,372.0674],[17.4344,8.5599,369.4628],[17.4265,8.5769,369.4113],[17.4236,8.5885,368.5075],[17.4131,8.5999,367.1063],[17.4054,8.6122,366.9919],[17.4029,8.6192,367.0935],[17.3892,8.6263,368.3705],[17.3804,8.6328,368.9379],[17.3781,8.6367,370.8724],[17.359,8.6476,379.528],[17.3421,8.6519,393.1548],[17.3265,8.6606,410.1148],[17.3202,8.6603,415.2037],[17.3133,8.6648,422.2424],[17.3043,8.6652,423.3784],[17.2802,8.6716,407.2454],[17.2614,8.6452,416.3884],[17.2541,8.638,414.4606],[17.2657,8.6276,440.2229],[17.2687,8.6215,435.5167],[17.3377,8.5823,370.01],[17.358,8.567,369.6203],[17.3733,8.5583,368.5887],[17.3807,8.5506,368.723],[17.396,8.5416,373.8842],[17.4022,8.5361,370.7955],[17.4066,8.5291,369.8529],[17.4216,8.5394,369.4437],[17.4358,8.5453,372.4875],[17.4424,8.55,372.0674]]]]}
,"properties": {"GID_3": "TCD.13.2.1_1","GID_0": "TCD","country": "Chad","GID_1": "TCD.13_1","province": "Mandoul","NL_NAME_1": "NA","GID_2": "TCD.13.2_1","county": "MandoulOccidental","NL_NAME_2": "NA","city": "Bangoul","VARNAME_3": "NA","NL_NAME_3": "NA","TYPE_3": "Sub-prefecture","ENGTYPE_3": "Sub-prefecture","CC_3": "NA","HASC_3": "NA","name": "Bangoul.city","area_km2": 140.2035,"hist_schema_id": "Elevation0-9000","hist_area_km2": {"375": 94.2345,"400": 19.2431,"425": 23.9379,"450": 2.7879}}}