{"type":"Feature","properties":{"GID_2":"TCD.19.2_1","GID_0":"TCD","country":"Chad","GID_1":"TCD.19_1","province":"Sila","NL_NAME_1":"NA","county":"Sila","VARNAME_2":"Goz-Beida|GozBéïda","NL_NAME_2":"NA","TYPE_2":"Department","ENGTYPE_2":"Department","CC_2":"NA","HASC_2":"TD.OD.SI","name":"Sila.county"},
"geometry":{"type": "MultiPolygon","coordinates": [[[[22.8478,10.9339,497.8423],[22.8532,10.9312,500.7098],[22.8658,10.9322,501.7856],[22.8813,10.9309,500.8848],[22.8882,10.9472,502.5485],[22.8888,10.9552,501.7006],[22.9041,10.9926,517.8801],[22.9072,11.0057,523.0959],[22.9105,11.0098,524.0093],[22.938,11.0875,521.2301],[22.945,11.091,518.4415],[22.9658,11.1422,526.8984],[22.9777,11.1814,543.8061],[22.9861,11.1996,555.0748],[22.9821,11.2961,584.7581],[22.9652,11.3061,593.1419],[22.9636,11.3096,590.6487],[22.9533,11.312,585.3878],[22.9514,11.3228,575.0333],[22.9453,11.4172,601.8982],[22.9385,11.4181,602.7569],[22.8712,11.4148,606.8188],[22.789,11.4032,585.0231],[22.7878,11.4383,611.1888],[22.7776,11.4514,625.4238],[22.7542,11.4751,626.671],[22.7415,11.4794,628.4275],[22.6622,11.5155,663.7197],[22.6422,11.5365,673.7973],[22.6363,11.5399,676.4929],[22.6026,11.5757,712.6349],[22.6003,11.5814,707.5672],[22.5661,11.6207,692.7234],[22.5541,11.6872,677.4397],[22.5547,11.6941,671.1043],[22.5563,11.696,670.6647],[22.5623,11.729,667.0068],[22.5774,11.7872,657.7064],[22.5976,11.8775,619.6995],[22.635,12.0268,601.137],[22.6391,12.0478,593.4768],[22.6381,12.0556,586.3914],[22.635,12.0578,586.6383],[22.611,12.0505,585.6654],[22.5864,12.0558,575.8605],[22.5771,12.0516,578.9459],[22.5638,12.051,570.5996],[22.5582,12.0537,569.3737],[22.5514,12.053,569.8398],[22.5312,12.045,567.5859],[22.5242,12.0392,567.0861],[22.5179,12.0371,568.0331],[22.5128,12.0319,569.0889],[22.4917,12.0205,563.9884],[22.4713,12.0194,564.3583],[22.4573,12.0264,562.1479],[22.4715,12.0297,561.8441],[22.4821,12.059,562.9],[22.4834,12.0703,563.5594],[22.4887,12.0804,564.0039],[22.4865,12.0921,564.9167],[22.4906,12.1124,565.2958],[22.4925,12.1485,566.335],[22.4862,12.1822,571.9489],[22.4831,12.1919,572.3965],[22.4772,12.2027,573.5967],[22.4755,12.2196,572.6979],[22.4656,12.2286,575.0827],[22.444,12.272,577.7491],[22.4426,12.2888,575.1906],[22.4257,12.3387,580.8741],[22.4257,12.3483,581.973],[22.4198,12.3561,580.8749],[22.4188,12.3607,585.0902],[22.4238,12.3789,585.8458],[22.4219,12.3878,585.2733],[22.4087,12.4016,587.1725],[22.3938,12.4203,589.3087],[22.388,12.4233,590.5554],[22.3781,12.4237,591.4955],[22.3751,12.426,595.132],[22.3718,12.4335,589.1506],[22.3721,12.4415,592.0913],[22.3954,12.4778,603.5391],[22.4074,12.4917,611.4884],[22.413,12.4952,618.2363],[22.4202,12.5091,619.9083],[22.4414,12.5654,672.4693],[22.4589,12.6198,713.1742],[22.4584,12.6241,721.7143],[22.451,12.6312,737.0472],[22.4166,12.6382,702.04],[22.3594,12.6614,683.214],[22.2874,12.6966,828.1241],[22.2858,12.6998,895.0944],[22.2771,12.7034,917.3643],[22.2544,12.719,781.3915],[22.1979,12.7502,718.8933],[22.1951,12.7069,714.9714],[22.1839,12.693,663.0554],[22.1645,12.6788,652.2588],[22.1362,12.6659,656.5955],[22.0328,12.6372,630.2532],[21.9605,12.6394,639.3041],[21.9411,12.6355,625.8176],[21.9342,12.6394,626.8422],[21.9155,12.6647,628.4179],[21.8878,12.6864,631.2678],[21.8853,12.7014,632.9537],[21.8803,12.7091,633.4927],[21.8659,12.7195,640.3567],[21.858,12.7341,637.1611],[21.8598,12.7549,639.03],[21.8533,12.7716,641.6465],[21.8433,12.7859,643.1234],[21.8389,12.7983,657.3719],[21.8391,12.8017,656.0579],[21.826,12.806,647.3782],[21.776,12.816,708.4246],[21.743,12.826,695.4113],[21.681,12.861,649.6697],[21.645,12.845,634.4429],[21.598,12.827,604.7829],[21.539,12.808,587.5849],[21.484,12.778,562.1451],[21.44,12.734,568.9501],[21.42,12.721,555.5839],[21.387,12.678,676.6882],[21.358,12.647,591.0487],[21.353,12.556,581.7805],[21.339,12.521,566.1274],[21.31,12.49,570.6098],[21.303,12.443,549.4873],[21.281,12.402,545.6621],[21.229,12.373,549.2668],[21.201,12.265,528.8616],[21.237,12.194,541.0773],[21.259,12.124,571.3291],[21.273,12.091,582.8481],[21.244,12.022,505.9414],[21.216,11.942,524.3896],[21.188,11.906,514.4379],[21.136,11.857,498.7985],[21.119,11.793,493.8984],[21.114,11.761,488.1098],[21.065,11.693,479.2683],[21.056,11.664,479.5275],[21.099,11.64,480.9221],[21.096,11.546,475.1965],[21.1671,11.56,478.2081],[21.561,11.627,487.4825],[21.949,11.704,514.0073],[22.02,11.658,528.8553],[22.163,11.634,553.8942],[22.465,10.9951,481.4527],[22.4686,10.9992,481.3175],[22.477,11.0006,479.4532],[22.494,10.9973,481.0013],[22.4972,11.0031,482.9739],[22.509,11.0073,481.517],[22.5207,11.0076,483.5858],[22.5527,10.9937,484.5282],[22.5687,10.9842,487.0281],[22.573,10.9844,487.2421],[22.5771,10.9877,487.1703],[22.6044,10.9967,489.3611],[22.6123,10.997,488.9082],[22.632,10.9904,488.5721],[22.6558,10.9795,493.0092],[22.6829,10.9802,495.7921],[22.7031,10.9723,499.3162],[22.7108,10.9716,497.1628],[22.7343,10.9745,500.5612],[22.7446,10.9711,501.3253],[22.756,10.962,501.4205],[22.7612,10.9496,501.2645],[22.7687,10.9441,500.6867],[22.7757,10.9453,501.4402],[22.8174,10.9345,500.5877],[22.8478,10.9339,497.8423]]]]}}