{"type": "Feature","bbox": [15.2458,8.1238,15.537,8.482],"geometry": {"type": "MultiPolygon","coordinates": [[[[15.3057,8.283,550.6779],[15.3805,8.1238,536.6713],[15.393,8.1308,515.6312],[15.4103,8.1449,514.8091],[15.4164,8.1519,511.3008],[15.4591,8.1834,491.1451],[15.4783,8.1991,485.2946],[15.4954,8.216,473.0872],[15.5083,8.2305,470.2676],[15.5191,8.2466,453.0672],[15.537,8.29,437.9861],[15.526,8.304,433.3526],[15.49,8.29,460.4266],[15.488,8.328,451.8398],[15.455,8.352,458.5453],[15.446,8.376,457.8954],[15.417,8.37,477.928],[15.383,8.378,473.123],[15.342,8.403,496.4581],[15.323,8.427,480.2214],[15.295,8.445,505.8051],[15.2805,8.4657,518.2931],[15.2724,8.482,528.7414],[15.2458,8.4702,539.4794],[15.2623,8.4106,544.6965],[15.2794,8.339,556.7823],[15.3057,8.283,550.6779]]]]}
,"properties": {"GID_3": "TCD.12.2.4_1","GID_0": "TCD","country": "Chad","GID_1": "TCD.12_1","province": "LogoneOriental","NL_NAME_1": "NA","GID_2": "TCD.12.2_1","county": "MontsdeLam","NL_NAME_2": "NA","city": "Loumbogo","VARNAME_3": "NA","NL_NAME_3": "NA","TYPE_3": "Sub-prefecture","ENGTYPE_3": "Sub-prefecture","CC_3": "NA","HASC_3": "NA","name": "Loumbogo.city","area_km2": 553.4852,"hist_schema_id": "Elevation0-9000","hist_area_km2": {"425": 3.8815,"450": 65.735,"475": 130.5443,"500": 165.1997,"525": 145.7659,"550": 41.939,"575": 0.4197}}}