{"type":"Feature","properties":{"GID_3":"TCD.20.2.4_1","GID_0":"TCD","country":"Chad","GID_1":"TCD.20_1","province":"Tandjilé","NL_NAME_1":"NA","GID_2":"TCD.20.2_1","county":"TandjiléEst","NL_NAME_2":"NA","city":"Gabri-Ngolo","VARNAME_3":"NA","NL_NAME_3":"NA","TYPE_3":"Sub-prefecture","ENGTYPE_3":"Sub-prefecture","CC_3":"NA","HASC_3":"NA","name":"Gabri-Ngolo.city"},
"geometry":{"type": "MultiPolygon","coordinates": [[[[16.427,9.118,362.8237],[16.4818,9.1361,378.7386],[16.4725,9.1621,379.452],[16.4572,9.1976,369.0429],[16.4592,9.2164,366.9912],[16.4693,9.2381,364.778],[16.4886,9.2609,363.7097],[16.5058,9.269,362.969],[16.5028,9.2783,361.9969],[16.4847,9.2975,357.9995],[16.4758,9.3213,360.3896],[16.4756,9.3562,356.7522],[16.4797,9.372,356.8343],[16.4795,9.4109,356.0915],[16.4704,9.4124,355.9772],[16.4153,9.4067,358.226],[16.3848,9.4086,360.1124],[16.3621,9.4143,357.2358],[16.349,9.4047,358.0305],[16.3322,9.3883,358.3994],[16.3222,9.3689,358.8047],[16.3172,9.3458,358.4222],[16.314,9.317,357.1415],[16.3474,9.2836,358.4701],[16.381,9.21,359.8554],[16.411,9.181,360.4333],[16.414,9.15,362.1847],[16.427,9.118,362.8237]]]]}}