{"type": "Feature","bbox": [20.486,14.367,21.322,14.917],"geometry": {"type": "MultiPolygon","coordinates": [[[[20.767,14.367,483.1189],[20.891,14.547,500.1953],[20.993,14.582,527.9532],[21.118,14.584,550.5341],[21.193,14.547,650.3294],[21.25,14.65,612.5853],[21.265,14.704,756.6737],[21.3,14.771,644.1896],[21.322,14.834,611.61],[21.241,14.876,552.3905],[21.157,14.889,602.5052],[21.082,14.915,504.8307],[21.006,14.917,484.9277],[20.923,14.907,481.1778],[20.851,14.875,478.333],[20.779,14.823,469.0363],[20.68,14.757,466.6839],[20.587,14.633,452.0253],[20.526,14.502,445.5326],[20.486,14.376,436.6702],[20.533,14.398,449.0348],[20.606,14.414,458.6089],[20.662,14.395,465.7358],[20.718,14.379,476.427],[20.767,14.367,483.1189]]]]}
,"properties": {"GID_3": "TCD.23.1.6_1","GID_0": "TCD","country": "Chad","GID_1": "TCD.23_1","province": "WadiFira","NL_NAME_1": "NA","GID_2": "TCD.23.1_1","county": "Biltine","NL_NAME_2": "NA","city": "Mimi","VARNAME_3": "NA","NL_NAME_3": "NA","TYPE_3": "Sub-prefecture","ENGTYPE_3": "Sub-prefecture","CC_3": "NA","HASC_3": "NA","name": "Mimi.city","area_km2": 2977.931,"hist_schema_id": "Elevation0-9000","hist_area_km2": {"425": 0.082,"450": 376.235,"475": 973.451,"500": 634.661,"525": 312.407,"550": 200.144,"575": 140.653,"600": 92.685,"625": 70.993,"650": 50.764,"675": 48.471,"700": 37.072,"725": 21.551,"750": 10.232,"775": 6.315,"800": 1.538,"825": 0.513,"850": 0.123,"875": 0.041}}}