{"type": "Feature","bbox": [16.7486,8.6775,16.8353,8.7915],"geometry": {"type": "MultiPolygon","coordinates": [[[[16.7902,8.6775,382.986],[16.7952,8.6854,381.8901],[16.8139,8.7027,387.9415],[16.823,8.7165,385.6038],[16.8336,8.7387,386.6568],[16.8353,8.754,386.187],[16.8328,8.7671,386.9185],[16.8271,8.7761,382.124],[16.8161,8.7872,379.1047],[16.8097,8.7915,379.4596],[16.8044,8.7867,379.671],[16.792,8.7801,379.0026],[16.7791,8.7769,371.7707],[16.771,8.7689,379.7255],[16.7593,8.7477,380.8815],[16.7509,8.7384,380.1562],[16.7486,8.7321,380.0404],[16.7553,8.7248,380.5445],[16.7677,8.7162,382.1716],[16.7712,8.7113,381.7946],[16.7743,8.7004,381.819],[16.7902,8.6775,382.986]]]]}
,"properties": {"GID_3": "TCD.12.4.8_1","GID_0": "TCD","country": "Chad","GID_1": "TCD.12_1","province": "LogoneOriental","NL_NAME_1": "NA","GID_2": "TCD.12.4_1","county": "Pendé","NL_NAME_2": "NA","city": "Nankesse","VARNAME_3": "NA","NL_NAME_3": "NA","TYPE_3": "Sub-prefecture","ENGTYPE_3": "Sub-prefecture","CC_3": "NA","HASC_3": "NA","name": "Nankesse.city","area_km2": 69.32266,"hist_schema_id": "Elevation0-9000","hist_area_km2": {"375": 64.41893,"400": 4.90372}}}