{"type":"Feature","properties":{"GID_3":"TCD.4.3.1_1","GID_0":"TCD","country":"Chad","GID_1":"TCD.4_1","province":"Chari-Baguirmi","NL_NAME_1":"NA","GID_2":"TCD.4.3_1","county":"N'Djamena","NL_NAME_2":"NA","city":"El-Fass","VARNAME_3":"NA","NL_NAME_3":"NA","TYPE_3":"Sub-prefecture","ENGTYPE_3":"Sub-prefecture","CC_3":"NA","HASC_3":"NA","name":"El-Fass.city"},
"geometry":{"type": "MultiPolygon","coordinates": [[[[15.458,12.176,294.0763],[15.299,12.066,295.63],[15.251,12.05,296.2842],[15.192,12.057,293.8967],[15.16,12.069,290.8649],[15.147,12.044,294.615],[15.138,12.011,294.7869],[15.137,11.9831,296.101],[15.1661,11.9471,296.4635],[15.2101,11.9171,295.9055],[15.2491,11.8661,296.1797],[15.3061,11.7801,298.6371],[15.3421,11.7601,298.9937],[15.3761,11.731,299.3842],[15.421,11.727,299.0824],[15.449,11.759,299.3731],[15.465,11.814,298.5034],[15.443,11.872,296.077],[15.4,11.938,296.3771],[15.403,12.006,296.1461],[15.418,12.064,294.059],[15.429,12.119,294.8395],[15.458,12.176,294.0763]]]]}}