{"type": "Feature","bbox": [21.433,13.916,22.5791,14.982],"geometry": {"type": "MultiPolygon","coordinates": [[[[22.018,13.989,916.128],[22.089,13.968,933.8953],[22.13,13.947,953.6545],[22.172,13.918,958.5833],[22.2096,13.916,1023.1913],[22.2319,13.9474,1077.9568],[22.2635,13.9635,1086.4592],[22.2917,13.9748,1118.4348],[22.32,14.0045,1157.1252],[22.3281,14.011,1138.4257],[22.3519,14.0172,1139.1527],[22.3584,14.0175,1101.595],[22.3669,14.0229,1098.938],[22.3927,14.05,1074.967],[22.4261,14.0498,1070.6296],[22.431,14.0511,1067.4977],[22.4529,14.0656,1040.2036],[22.5037,14.1096,996.1745],[22.5364,14.1186,995.2775],[22.5763,14.1761,979.0762],[22.5791,14.1844,976.8922],[22.5534,14.209,1013.5748],[22.5582,14.2297,1003.1247],[22.5168,14.2438,943.2528],[22.5086,14.244,934.4799],[22.4792,14.232,965.688],[22.4376,14.2757,987.1871],[22.4316,14.2842,1001.4701],[22.4283,14.2922,1040.2388],[22.4291,14.3025,1051.6038],[22.4354,14.3125,1020.5233],[22.4459,14.3201,1023.2845],[22.4595,14.3239,1000.2334],[22.4618,14.329,1012.724],[22.4554,14.3567,968.1611],[22.45,14.3594,959.5049],[22.4436,14.3654,962.1785],[22.4412,14.4193,958.2303],[22.4435,14.426,951.6795],[22.4429,14.4308,946.7843],[22.4496,14.4724,937.4321],[22.4476,14.4825,934.6079],[22.4286,14.4968,919.8228],[22.418,14.5006,924.3042],[22.4101,14.5054,925.1917],[22.4007,14.5083,923.6896],[22.3873,14.5045,929.3622],[22.3842,14.5067,929.6164],[22.3974,14.5526,940.5271],[22.4025,14.5625,944.5594],[22.408,14.585,924.0171],[22.348,14.622,933.1236],[22.238,14.698,978.5652],[22.157,14.795,962.8562],[22.079,14.905,976.9131],[22.022,14.976,963.542],[21.924,14.982,963.4553],[21.777,14.96,930.4042],[21.653,14.88,775.4323],[21.553,14.81,826.4775],[21.496,14.777,639.6626],[21.469,14.718,658.7634],[21.494,14.672,711.488],[21.502,14.629,659.3231],[21.508,14.555,836.04],[21.478,14.44,905.164],[21.444,14.33,894.6216],[21.433,14.25,846.8389],[21.437,14.126,764.2476],[21.504,14.115,827.9267],[21.555,14.101,855.3551],[21.671,14.092,908.6443],[21.778,14.06,872.8749],[21.983,14.002,930.0735],[22.018,13.989,916.128]]]]}
,"properties": {"GID_2": "TCD.23.2_1","GID_0": "TCD","country": "Chad","GID_1": "TCD.23_1","province": "WadiFira","NL_NAME_1": "NA","county": "DarTama","VARNAME_2": "Guereda|Guéréda","NL_NAME_2": "NA","TYPE_2": "Department","ENGTYPE_2": "Department","CC_2": "NA","HASC_2": "TD.BI.DT","name": "Dar_Tama.county","area_km2": 9575.468,"hist_schema_id": "Elevation0-9000","hist_area_km2": {"600": 2.625,"625": 26.313,"650": 25.408,"675": 28.913,"700": 34.511,"725": 39.35,"750": 45.704,"775": 103.881,"800": 186.579,"825": 310.17,"850": 510.259,"875": 622.76,"900": 682.0,"925": 852.386,"950": 1234.028,"975": 1403.636,"1000": 1279.232,"1025": 824.782,"1050": 533.758,"1075": 360.764,"1100": 246.259,"1125": 126.967,"1150": 47.086,"1175": 26.898,"1200": 20.255,"1225": 0.431,"1250": 0.226,"1275": 0.205}}}