{"type":"Feature","properties":{"GID_3":"TCD.12.2.7_1","GID_0":"TCD","country":"Chad","GID_1":"TCD.12_1","province":"LogoneOriental","NL_NAME_1":"NA","GID_2":"TCD.12.2_1","county":"MontsdeLam","NL_NAME_2":"NA","city":"Mont-De-Lam","VARNAME_3":"NA","NL_NAME_3":"NA","TYPE_3":"Sub-prefecture","ENGTYPE_3":"Sub-prefecture","CC_3":"NA","HASC_3":"NA","name":"Mont-De-Lam.city"},
"geometry":{"type": "MultiPolygon","coordinates": [[[[16.1185,7.5912,496.6344],[16.1195,7.6323,538.6493],[16.1121,7.6885,538.4435],[16.0928,7.7274,492.4607],[16.0739,7.7411,504.9694],[16.0439,7.754,532.5253],[16.0172,7.7583,539.7128],[15.9775,7.7701,589.035],[15.9365,7.7777,590.0769],[15.9081,7.7852,559.3655],[15.8575,7.8005,513.5995],[15.8288,7.8138,468.5853],[15.8134,7.8244,474.6673],[15.8025,7.8397,468.7255],[15.8043,7.8562,449.4907],[15.8134,7.8701,451.494],[15.7936,7.8703,469.31],[15.7854,7.8717,479.7397],[15.7796,7.8747,487.2633],[15.7664,7.8724,451.7678],[15.7532,7.8555,443.8329],[15.7342,7.8248,436.5],[15.735,7.791,462.571],[15.7392,7.7809,469.3555],[15.7615,7.7433,558.2921],[15.7757,7.7265,523.6963],[15.8037,7.7001,534.7307],[15.8195,7.6774,657.8028],[15.834,7.6621,811.2274],[15.8451,7.6443,690.8492],[15.864,7.6091,750.4646],[15.8819,7.5705,740.5942],[15.8918,7.5287,695.9718],[15.9053,7.4967,881.4758],[15.9104,7.4889,830.9904],[15.9186,7.4707,821.5076],[15.931,7.4787,807.096],[15.9511,7.4837,766.7122],[15.9748,7.4833,686.0883],[15.981,7.4893,646.0237],[15.99,7.4904,641.6502],[15.9979,7.4986,628.5394],[16.0103,7.5057,596.7491],[16.0175,7.5199,586.9627],[16.0231,7.5229,581.137],[16.027,7.5299,569.5862],[16.0358,7.5308,561.5076],[16.039,7.5338,563.8173],[16.039,7.5435,571.1703],[16.0432,7.56,569.144],[16.0493,7.5707,549.3575],[16.0567,7.5776,534.8154],[16.0878,7.5892,510.4957],[16.1046,7.5916,501.0223],[16.1185,7.5912,496.6344]]]]}}