{"type": "Feature","bbox": [16.1939,9.9173,16.648,10.265],"geometry": {"type": "MultiPolygon","coordinates": [[[[16.1939,10.2092,334.0323],[16.238,10.18,335.2886],[16.243,10.086,337.7897],[16.263,10.031,338.642],[16.2428,10.0026,339.3091],[16.2578,9.9964,339.4758],[16.2834,9.9954,339.3433],[16.3079,10.0049,339.3029],[16.3345,10.0279,338.4742],[16.348,10.0105,339.3906],[16.3608,9.9815,339.8079],[16.3805,9.9692,340.3744],[16.3962,9.9637,339.9642],[16.4044,9.957,340.0677],[16.424,9.9489,342.0543],[16.4639,9.9222,340.2225],[16.4784,9.9173,340.4288],[16.4865,9.9399,339.6437],[16.5125,9.9652,338.2091],[16.5307,9.9906,336.8713],[16.5458,10.0148,336.5237],[16.5718,10.0735,336.3324],[16.5946,10.0896,336.37],[16.6233,10.095,335.6968],[16.646,10.095,335.7249],[16.648,10.117,334.3327],[16.639,10.134,335.8983],[16.626,10.146,331.8474],[16.619,10.171,331.1797],[16.617,10.193,330.7089],[16.623,10.234,333.2465],[16.602,10.236,333.7292],[16.584,10.265,333.5002],[16.483,10.2,337.5361],[16.23,10.202,337.0044],[16.1939,10.2092,334.0323]]]]}
,"properties": {"GID_3": "TCD.20.2.16_1","GID_0": "TCD","country": "Chad","GID_1": "TCD.20_1","province": "Tandjilé","NL_NAME_1": "NA","GID_2": "TCD.20.2_1","county": "TandjiléEst","NL_NAME_2": "NA","city": "Tchaguine-Ngolo","VARNAME_3": "NA","NL_NAME_3": "NA","TYPE_3": "Sub-prefecture","ENGTYPE_3": "Sub-prefecture","CC_3": "NA","HASC_3": "NA","name": "Tchaguine-Ngolo.city","area_km2": 1021.0098,"hist_schema_id": "Elevation0-9000","hist_area_km2": {"325": 717.1883,"350": 303.8216}}}