{"type": "Feature","bbox": [17.619,8.2676,17.7523,8.4401],"geometry": {"type": "MultiPolygon","coordinates": [[[[17.6208,8.4223,384.578],[17.619,8.401,386.1528],[17.6222,8.3654,386.6236],[17.6254,8.3436,388.2192],[17.6337,8.3082,391.4028],[17.6428,8.2973,391.2137],[17.6634,8.2872,389.1029],[17.675,8.2834,388.71],[17.689,8.276,390.0445],[17.7267,8.2676,387.0213],[17.7337,8.2859,390.6231],[17.7379,8.2918,388.7406],[17.747,8.2997,388.8388],[17.7523,8.3112,388.381],[17.7086,8.3348,390.462],[17.6924,8.3575,389.6064],[17.678,8.3731,387.6355],[17.6585,8.4146,379.7213],[17.6511,8.427,379.9442],[17.6521,8.4401,379.7303],[17.6473,8.4296,381.3244],[17.6344,8.4239,382.1338],[17.6208,8.4223,384.578]]]]}
,"properties": {"GID_3": "TCD.13.1.6_1","GID_0": "TCD","country": "Chad","GID_1": "TCD.13_1","province": "Mandoul","NL_NAME_1": "NA","GID_2": "TCD.13.1_1","county": "BarhSara","NL_NAME_2": "NA","city": "Bessara","VARNAME_3": "NA","NL_NAME_3": "NA","TYPE_3": "Sub-prefecture","ENGTYPE_3": "Sub-prefecture","CC_3": "NA","HASC_3": "NA","name": "Bessara.city","area_km2": 130.3995,"hist_schema_id": "Elevation0-9000","hist_area_km2": {"375": 56.741,"400": 73.6585}}}