{"type": "Feature","bbox": [18.9846,9.366,19.3389,9.616],"geometry": {"type": "MultiPolygon","coordinates": [[[[18.9911,9.5024,420.653],[19.0032,9.5014,409.6549],[19.012,9.4934,395.3992],[19.0098,9.4803,383.1022],[18.9986,9.4666,376.4492],[18.985,9.4555,375.8704],[18.9846,9.446,374.5217],[18.9865,9.4275,374.0281],[18.9918,9.4129,374.8136],[19.0064,9.3824,368.7146],[19.0084,9.3706,374.7459],[19.0452,9.366,375.6855],[19.0632,9.366,376.258],[19.0883,9.3704,376.9326],[19.1059,9.3692,377.275],[19.1568,9.3698,376.8392],[19.2062,9.3738,378.8402],[19.2226,9.3763,378.405],[19.3389,9.4033,379.9546],[19.3281,9.4526,381.4962],[19.3232,9.4634,381.2559],[19.2969,9.4811,374.5496],[19.2253,9.5209,381.1967],[19.221,9.5337,380.1358],[19.2221,9.5436,380.7708],[19.2258,9.5539,381.6747],[19.2304,9.5865,379.8149],[19.2292,9.6068,381.6269],[19.2269,9.616,382.4811],[19.2076,9.6148,383.7292],[19.1995,9.61,384.3694],[19.1893,9.6071,388.7165],[19.1703,9.5952,407.2733],[19.1502,9.5744,402.2526],[19.143,9.5584,388.6605],[19.134,9.544,383.263],[19.1233,9.5385,383.9994],[19.1126,9.5426,390.6277],[19.0576,9.5566,429.0981],[19.049,9.5614,426.4398],[19.0457,9.5539,428.1826],[19.039,9.527,413.9915],[19.0347,9.5171,409.501],[19.0049,9.5123,420.903],[18.9911,9.5024,420.653]]]]}
,"properties": {"GID_3": "TCD.16.3.7_1","GID_0": "TCD","country": "Chad","GID_1": "TCD.16_1","province": "Moyen-Chari","NL_NAME_1": "NA","GID_2": "TCD.16.3_1","county": "LacIro","NL_NAME_2": "NA","city": "Koskobo","VARNAME_3": "NA","NL_NAME_3": "NA","TYPE_3": "Sub-prefecture","ENGTYPE_3": "Sub-prefecture","CC_3": "NA","HASC_3": "NA","name": "Koskobo.city","area_km2": 663.6537,"hist_schema_id": "Elevation0-9000","hist_area_km2": {"375": 610.9417,"400": 42.2365,"425": 10.4754}}}