{"type": "Feature","bbox": [16.8006,8.5751,17.0992,8.7074],"geometry": {"type": "MultiPolygon","coordinates": [[[[16.8493,8.5751,383.6793],[16.8652,8.5856,386.6933],[16.9683,8.6103,388.0183],[17.0079,8.6273,386.0666],[17.0263,8.631,385.8879],[17.046,8.631,385.2645],[17.0992,8.7036,383.0157],[17.0701,8.7074,383.6857],[17.0434,8.7057,381.7012],[17.0121,8.7004,384.3947],[16.9912,8.6917,385.2338],[16.9675,8.6881,386.9575],[16.9438,8.6873,387.6142],[16.9046,8.6952,388.9413],[16.895,8.6914,389.2457],[16.8809,8.6816,389.5947],[16.8591,8.6771,389.4123],[16.8288,8.6671,379.1785],[16.8078,8.6645,382.7249],[16.8013,8.6386,384.5244],[16.8006,8.6062,387.1796],[16.8325,8.5919,386.5879],[16.8401,8.579,381.1992],[16.8493,8.5751,383.6793]]]]}
,"properties": {"GID_3": "TCD.12.4.4_1","GID_0": "TCD","country": "Chad","GID_1": "TCD.12_1","province": "LogoneOriental","NL_NAME_1": "NA","GID_2": "TCD.12.4_1","county": "Pendé","NL_NAME_2": "NA","city": "Doba","VARNAME_3": "NA","NL_NAME_3": "NA","TYPE_3": "Sub-prefecture","ENGTYPE_3": "Sub-prefecture","CC_3": "NA","HASC_3": "NA","name": "Doba.city","area_km2": 270.2523,"hist_schema_id": "Elevation0-9000","hist_area_km2": {"375": 168.0659,"400": 102.1864}}}