{"type": "Feature","bbox": [16.571,12.398,16.894,12.563],"geometry": {"type": "MultiPolygon","coordinates": [[[[16.894,12.429,298.4892],[16.877,12.472,297.249],[16.86,12.491,295.5099],[16.823,12.526,293.1393],[16.771,12.563,291.8873],[16.709,12.549,291.9256],[16.653,12.524,291.2542],[16.621,12.492,292.4622],[16.594,12.444,293.6598],[16.571,12.399,295.182],[16.604,12.399,293.6031],[16.653,12.406,293.9586],[16.683,12.398,295.6217],[16.857,12.405,298.5887],[16.894,12.429,298.4892]]]]}
,"properties": {"GID_3": "TCD.8.1.4_1","GID_0": "TCD","country": "Chad","GID_1": "TCD.8_1","province": "Hadjer-Lamis","NL_NAME_1": "NA","GID_2": "TCD.8.1_1","county": "Dababa","NL_NAME_2": "NA","city": "Mayakne","VARNAME_3": "NA","NL_NAME_3": "NA","TYPE_3": "Sub-prefecture","ENGTYPE_3": "Sub-prefecture","CC_3": "NA","HASC_3": "NA","name": "Mayakne.city","area_km2": 432.6578,"hist_schema_id": "Elevation0-9000","hist_area_km2": {"300": 432.6578}}}