{"type": "Feature","bbox": [15.3805,8.0515,15.6947,8.286],"geometry": {"type": "MultiPolygon","coordinates": [[[[15.3949,8.0554,537.2308],[15.4272,8.0583,520.8083],[15.4627,8.059,497.3101],[15.4851,8.0563,496.7873],[15.5313,8.0584,555.7662],[15.5759,8.053,555.3499],[15.6527,8.0515,508.3942],[15.6784,8.0546,499.334],[15.6947,8.0584,508.8603],[15.688,8.0828,525.3541],[15.6832,8.1204,499.2009],[15.679,8.1329,483.5267],[15.6763,8.1605,456.6719],[15.6678,8.1849,441.6128],[15.6566,8.1956,436.856],[15.6484,8.206,446.3096],[15.6258,8.2418,433.8499],[15.6159,8.2605,433.3633],[15.607,8.286,466.4526],[15.581,8.281,466.2848],[15.553,8.271,438.43],[15.529,8.273,434.1033],[15.5191,8.2466,453.0672],[15.5083,8.2305,470.2676],[15.4954,8.216,473.0872],[15.4783,8.1991,485.2946],[15.4591,8.1834,491.1451],[15.4164,8.1519,511.3008],[15.4103,8.1449,514.8091],[15.393,8.1308,515.6312],[15.3805,8.1238,536.6713],[15.3967,8.0913,490.6112],[15.3949,8.0554,537.2308]]]]}
,"properties": {"GID_3": "TCD.12.2.6_1","GID_0": "TCD","country": "Chad","GID_1": "TCD.12_1","province": "LogoneOriental","NL_NAME_1": "NA","GID_2": "TCD.12.2_1","county": "MontsdeLam","NL_NAME_2": "NA","city": "Mbouroum","VARNAME_3": "NA","NL_NAME_3": "NA","TYPE_3": "Sub-prefecture","ENGTYPE_3": "Sub-prefecture","CC_3": "NA","HASC_3": "NA","name": "Mbouroum.city","area_km2": 584.6733,"hist_schema_id": "Elevation0-9000","hist_area_km2": {"425": 41.0018,"450": 142.702,"475": 150.4852,"500": 136.3945,"525": 81.5729,"550": 23.4692,"575": 6.1718,"600": 1.1966,"625": 0.6508,"650": 0.4618,"675": 0.4408,"700": 0.084,"725": 0.042}}}