{"type":"Feature","properties":{"GID_3":"TCD.11.2.10_1","GID_0":"TCD","country":"Chad","GID_1":"TCD.11_1","province":"LogoneOccidental","NL_NAME_1":"NA","GID_2":"TCD.11.2_1","county":"LacWey","NL_NAME_2":"NA","city":"Mballa","VARNAME_3":"NA","NL_NAME_3":"NA","TYPE_3":"Sub-prefecture","ENGTYPE_3":"Sub-prefecture","CC_3":"NA","HASC_3":"NA","name":"Mballa.city"},
"geometry":{"type": "MultiPolygon","coordinates": [[[[16.1625,8.8626,517.2426],[16.1424,8.8445,481.6453],[16.1004,8.7807,486.1196],[16.0828,8.7488,454.7158],[16.0635,8.695,430.0226],[16.0639,8.6739,443.9573],[16.068,8.6305,432.0934],[16.0744,8.6159,415.1031],[16.0941,8.5857,401.3825],[16.117,8.608,390.5021],[16.203,8.634,391.0815],[16.273,8.66,391.6723],[16.351,8.655,383.8521],[16.369,8.685,381.7602],[16.3648,8.7099,407.5217],[16.3597,8.7236,426.1757],[16.3569,8.7371,438.3495],[16.3522,8.7474,446.7303],[16.3497,8.7685,462.2604],[16.3561,8.7841,471.2579],[16.3685,8.8034,486.148],[16.3757,8.8112,477.2092],[16.3779,8.8235,475.5075],[16.3918,8.8659,495.1772],[16.3541,8.8693,496.7645],[16.3437,8.8649,506.2834],[16.3213,8.8591,522.8636],[16.3034,8.8718,525.6646],[16.2832,8.8919,526.6238],[16.2081,8.8786,517.5581],[16.2021,8.8807,524.8164],[16.1826,8.8768,529.9752],[16.1698,8.8724,523.6298],[16.1625,8.8626,517.2426]]]]}}