{"type": "Feature","bbox": [16.8224,7.6056,17.2839,7.9644],"geometry": {"type": "MultiPolygon","coordinates": [[[[17.2839,7.8035,402.2545],[17.1981,7.9629,426.9897],[17.165,7.9644,450.0337],[17.0379,7.9559,478.8367],[17.0037,7.9597,462.6683],[16.9715,7.9569,489.4374],[16.8954,7.9424,505.8017],[16.8559,7.9273,462.7596],[16.8246,7.9217,489.6604],[16.8323,7.9107,499.5677],[16.8406,7.9028,507.7607],[16.8425,7.8927,504.8837],[16.855,7.868,479.2786],[16.8596,7.862,475.0794],[16.8568,7.8466,464.1536],[16.8498,7.8277,445.7521],[16.8449,7.8187,469.0882],[16.8439,7.8113,479.8956],[16.8295,7.7929,496.0362],[16.8224,7.7898,503.0507],[16.8309,7.7574,485.1933],[16.8324,7.7386,468.0565],[16.8429,7.6981,459.5135],[16.8499,7.6806,455.1745],[16.8743,7.6368,429.9877],[16.8981,7.6103,421.0854],[16.8986,7.614,421.2998],[16.9009,7.6165,420.5358],[16.9053,7.6163,416.4568],[16.9225,7.6056,427.458],[16.9269,7.606,430.1749],[16.9278,7.6076,427.175],[16.9246,7.6178,421.6334],[16.9284,7.6228,416.6018],[16.9374,7.6289,411.4121],[16.957,7.6359,414.0136],[16.9634,7.6355,413.8506],[16.9751,7.6278,415.6048],[16.9781,7.6283,424.9468],[16.9818,7.6342,415.329],[16.9871,7.6356,412.7183],[16.9936,7.6318,417.5288],[17.0053,7.6348,413.0283],[17.0403,7.635,424.3865],[17.0424,7.6382,418.9891],[17.0441,7.6504,405.4407],[17.0492,7.6552,404.1755],[17.063,7.651,412.7471],[17.0673,7.6514,417.1665],[17.0791,7.6576,404.8902],[17.0856,7.658,416.0855],[17.0906,7.6605,431.2977],[17.0918,7.6683,417.7117],[17.0873,7.6864,410.7612],[17.0883,7.6903,409.7912],[17.0913,7.6922,409.8104],[17.0966,7.6919,411.5393],[17.1021,7.6884,409.694],[17.1106,7.6893,400.8531],[17.1157,7.6877,409.6555],[17.1259,7.6674,400.504],[17.1321,7.6632,406.5307],[17.1392,7.6618,405.2189],[17.1604,7.6667,415.8418],[17.1625,7.6702,420.8568],[17.1616,7.6764,413.8545],[17.1628,7.6812,416.7928],[17.1742,7.6885,416.6032],[17.1659,7.6995,401.0483],[17.1657,7.7028,398.524],[17.1692,7.7069,405.9494],[17.1983,7.7196,398.0471],[17.2091,7.7209,415.9114],[17.2137,7.7259,422.6235],[17.2186,7.7266,427.2448],[17.2202,7.7298,421.6482],[17.217,7.7422,408.8175],[17.2201,7.7465,408.1923],[17.2254,7.7499,404.6898],[17.2284,7.7589,403.2256],[17.2326,7.7634,396.6208],[17.2379,7.7639,396.9059],[17.2441,7.7595,395.5303],[17.2546,7.7463,407.1706],[17.2601,7.7452,412.7986],[17.2627,7.747,413.2941],[17.2694,7.7616,418.0508],[17.269,7.7669,416.5812],[17.2638,7.7798,401.0119],[17.2647,7.7841,401.0912],[17.2668,7.7857,398.8977],[17.2707,7.7853,403.2292],[17.2742,7.791,401.2809],[17.2816,7.7914,401.1724],[17.2836,7.7939,401.2275],[17.2818,7.8013,402.7578],[17.2839,7.8035,402.2545]]]]}
,"properties": {"GID_3": "TCD.12.3.10_1","GID_0": "TCD","country": "Chad","GID_1": "TCD.12_1","province": "LogoneOriental","NL_NAME_1": "NA","GID_2": "TCD.12.3_1","county": "NyaPendé","NL_NAME_2": "NA","city": "Yamodo","VARNAME_3": "NA","NL_NAME_3": "NA","TYPE_3": "Sub-prefecture","ENGTYPE_3": "Sub-prefecture","CC_3": "NA","HASC_3": "NA","name": "Yamodo.city","area_km2": 1455.915,"hist_schema_id": "Elevation0-9000","hist_area_km2": {"400": 101.623,"425": 434.105,"450": 418.383,"475": 284.726,"500": 204.727,"525": 12.35}}}