{"type":"Feature","properties":{"ISO3166-1-Alpha-3":"TCD","country":"Chad","fill":"#F0F","id":"5578","name":"Tibesti"},
"geometry":{"type": "Polygon","coordinates": [[[18.91712,21.99685,1682.1099],[18.79361,22.05788,1368.6748],[18.67011,22.11881,1036.1914],[18.5466,22.17984,779.3549],[18.42299,22.24087,900.6599],[18.29959,22.30184,771.9866],[18.17598,22.36282,738.9727],[18.05247,22.42385,782.4955],[17.92896,22.48478,698.9805],[17.80546,22.54576,677.9983],[17.68195,22.60679,625.7587],[17.55844,22.66776,624.2804],[17.43483,22.72879,633.2355],[17.31143,22.7898,656.8169],[17.18792,22.85075,657.0046],[17.06431,22.91176,645.3688],[16.94091,22.97273,616.9612],[16.8173,23.03366,599.0338],[16.69379,23.09466,605.2134],[16.57029,23.15572,618.8847],[16.44678,23.21672,614.3079],[16.32317,23.27773,640.6088],[16.19977,23.33871,627.0479],[16.07616,23.39963,618.6609],[15.9851,23.44472,618.5377],[15.96464,23.44221,618.9988],[15.9202,23.42203,629.8366],[15.86252,23.39594,637.1038],[15.80485,23.36979,649.0634],[15.74718,23.34364,691.4508],[15.68962,23.31752,711.325],[15.63194,23.29134,724.6544],[15.57427,23.2652,733.2294],[15.5165,23.23905,763.3486],[15.45883,23.2129,793.9508],[15.40116,23.18675,850.4581],[15.34349,23.16058,936.1169],[15.28582,23.13445,943.4989],[15.22814,23.10836,1011.6327],[15.17037,23.08226,919.291],[15.11291,23.05611,875.0651],[15.05524,23.02996,876.034],[14.99746,23.00382,758.8849],[14.97991,22.99566,739.4774],[14.99198,22.9331,753.959],[15.00397,22.87044,775.9998],[15.01586,22.80778,777.9681],[15.02795,22.74518,840.5833],[15.03994,22.68254,765.4175],[15.05193,22.61986,820.8455],[15.06402,22.55718,793.4829],[15.07591,22.4946,830.1646],[15.088,22.43191,771.697],[15.09999,22.36928,802.3063],[15.11208,22.3066,773.012],[15.12407,22.24397,764.1821],[15.13606,22.18133,694.5056],[15.14815,22.11865,695.9377],[15.15631,22.07617,714.3233],[15.16448,22.03369,779.927],[15.17202,21.99339,901.1925],[15.17244,21.97365,793.3625],[15.17326,21.92156,728.2874],[15.17461,21.84792,667.223],[15.17606,21.76343,709.2439],[15.1775,21.67899,672.0299],[15.17885,21.6053,598.9521],[15.17978,21.55321,606.6918],[15.18009,21.53347,593.895],[15.1804,21.50727,565.1311],[15.18453,21.4912,577.1597],[15.20024,21.47647,680.9501],[15.24747,21.45327,582.9019],[15.26659,21.44066,571.8093],[15.30101,21.40133,580.5196],[15.32478,21.36671,580.0588],[15.34142,21.34216,582.5513],[15.35827,21.31772,593.9798],[15.37501,21.29322,596.3212],[15.39175,21.26873,593.7115],[15.4085,21.24423,603.7659],[15.42534,21.21979,617.8663],[15.44198,21.19519,594.7162],[15.45883,21.17075,600.4443],[15.47557,21.14626,594.5411],[15.49221,21.12176,603.1577],[15.50906,21.09727,594.671],[15.5258,21.07277,625.4269],[15.54254,21.04828,601.9464],[15.55929,21.02378,611.7671],[15.57613,20.99934,601.6938],[15.59277,20.97479,608.1791],[15.60931,20.95066,642.9766],[15.569,20.9289,600.991],[15.5443,20.8903,604.9956],[15.53603,20.84405,572.2791],[15.5442,20.79899,612.6005],[15.55608,20.77367,589.4717],[15.57024,20.75191,616.5881],[15.58812,20.73279,625.9525],[15.66946,20.67187,622.0795],[15.69726,20.64288,806.9324],[15.75555,20.582,592.833],[15.81385,20.52107,583.0809],[15.87203,20.4602,605.4633],[15.93032,20.39932,604.1637],[15.95399,20.37457,630.7869],[15.96815,20.35282,628.5026],[15.97032,20.33633,632.4542],[15.96298,20.31923,676.7254],[15.94252,20.28396,659.4048],[15.90242,20.21494,670.8751],[15.86232,20.14595,641.4489],[15.82232,20.07699,613.0549],[15.78232,20.00803,582.5952],[15.76723,19.98204,580.8367],[15.73602,19.90354,605.0518],[15.7324,19.86184,589.8384],[15.72837,19.81626,555.9854],[15.72434,19.77058,531.2959],[15.72021,19.725,520.675],[15.71618,19.67932,513.9015],[15.71215,19.63376,535.0119],[15.70812,19.58811,525.8157],[15.70408,19.54253,515.6245],[15.70005,19.49687,562.7894],[15.69602,19.45124,543.5806],[15.6921,19.40564,535.7421],[15.68796,19.36001,510.9583],[15.68393,19.3144,479.7968],[15.6799,19.26875,502.9306],[15.67587,19.22317,508.522],[15.67184,19.17754,497.1026],[15.66781,19.13188,491.6736],[15.66378,19.0863,483.4908],[15.65975,19.04065,476.8222],[15.65572,18.99507,463.0202],[15.65158,18.94939,452.3227],[15.64755,18.90383,435.9775],[15.64352,18.85818,421.7447],[15.63959,18.8126,406.2645],[15.63556,18.76694,411.1555],[15.63153,18.72131,421.0356],[15.6275,18.67571,413.093],[15.62347,18.63008,409.6299],[15.61944,18.58447,384.4045],[15.6153,18.53882,385.9144],[15.61127,18.49324,387.2382],[15.60724,18.44758,387.4551],[15.60321,18.402,391.5148],[15.59918,18.35635,391.9113],[15.59515,18.31072,392.0912],[15.59112,18.26509,390.5724],[15.58719,18.21948,386.6378],[15.58316,18.17388,385.3654],[15.57903,18.12825,376.9346],[15.575,18.08264,375.4215],[15.57097,18.03704,368.3578],[15.5677,18.00004,375.4987],[15.56694,17.99141,375.3699],[15.5629,17.94578,368.3364],[15.55887,17.90015,375.5087],[15.55484,17.85457,369.0143],[15.55081,17.80889,374.9766],[15.54678,17.76331,367.1351],[15.54265,17.71768,354.1887],[15.53862,17.67205,349.1522],[15.53469,17.62637,347.4448],[15.53066,17.58074,350.8203],[15.52663,17.53511,343.6219],[15.5226,17.48953,321.9039],[15.51857,17.44385,320.1143],[15.51454,17.39827,314.3724],[15.51051,17.35264,310.7848],[15.50637,17.30706,308.8428],[15.50234,17.26138,309.2141],[15.49831,17.21575,304.9059],[15.49428,17.17012,289.2478],[15.49025,17.12454,281.5412],[16.27139,18.49992,408.329],[16.81791,19.46219,558.6266],[17.35984,20.41638,1267.1083],[17.40927,20.68824,2288.5891],[17.70584,20.68824,1275.426],[17.82941,20.71295,2427.8],[17.95299,20.83652,1966.7681],[18.1507,20.93538,1605.0909],[18.52142,21.05895,2086.5779],[18.74385,21.1331,1465.4517],[18.76856,21.35553,1529.7363],[18.74385,21.60267,1688.1764],[18.71913,21.84981,1173.6577],[18.91712,21.99685,1682.1099]]]}}