{"type": "Feature","bbox": [14.9959,17.0755,19.071,23.4504],"geometry": {"type": "MultiPolygon","coordinates": [[[[19.071,21.9987,1718.2142],[18.7261,22.1677,1123.5488],[18.6872,22.1841,1046.6362],[18.6707,22.1941,976.6994],[18.586,22.2331,782.6086],[18.5134,22.2696,746.3583],[18.5075,22.2712,736.8047],[18.423,22.3114,861.364],[18.402,22.3229,847.3822],[18.3946,22.3245,823.4741],[18.2439,22.3959,721.4943],[18.2264,22.4067,685.3886],[18.219,22.4081,774.9672],[18.1168,22.4572,799.0905],[18.0877,22.469,707.5667],[17.9896,22.5176,758.3573],[17.7391,22.6362,615.0994],[17.7356,22.6394,613.761],[17.5573,22.7225,612.2905],[17.3996,22.7982,634.8643],[17.3701,22.8107,633.1798],[17.3664,22.8141,631.2274],[17.2689,22.8587,633.1636],[17.2366,22.8746,639.9752],[17.2284,22.8803,643.2573],[17.0953,22.9407,627.9109],[17.0334,22.9713,642.412],[17.0096,22.9804,636.6263],[16.9819,22.9972,619.8492],[16.9715,23.0003,613.3795],[16.9384,23.0155,603.7499],[16.8471,23.0585,596.1187],[16.8302,23.068,595.8619],[16.8272,23.068,595.8437],[16.8155,23.0753,595.0824],[16.7386,23.1094,598.7029],[16.7219,23.1184,601.3087],[16.7174,23.1193,602.4745],[16.6026,23.1732,611.4774],[16.5802,23.1813,613.2102],[16.5789,23.184,611.3625],[16.5667,23.1901,600.2214],[16.56,23.1915,599.3462],[16.547,23.1987,599.4138],[16.4567,23.2401,608.4667],[16.4495,23.2449,608.5034],[16.3941,23.2694,613.3925],[16.3784,23.278199999999998,614.8888],[16.3137,23.306,638.1791],[16.2988,23.3141,649.4618],[16.2633,23.328,677.2867],[16.2331,23.3451,658.8173],[16.2264,23.3464,650.388],[16.1721,23.3704,631.1048],[15.9982,23.4504,623.5682],[15.9858,23.4445,619.637],[15.9809,23.4438,618.9261],[15.9715,23.4375,621.7481],[15.9673,23.4372,620.6244],[15.9497,23.4299,626.558],[15.8808,23.3986,635.8782],[15.8612,23.3933,636.973],[15.8566,23.388,637.5104],[15.7282,23.3303,709.3251],[15.6961,23.3166,708.4363],[15.689,23.3151,712.7611],[15.6648,23.3034,717.1566],[15.6537,23.3012,722.8577],[15.6453,23.2956,725.5443],[15.5427,23.2509,747.3887],[15.506,23.2327,770.2597],[15.4951,23.2296,775.0332],[15.4414,23.2061,808.9119],[15.4382,23.2029,814.6094],[15.4008,23.1872,850.2308],[15.3735,23.1735,871.5976],[15.3609,23.169,904.5859],[15.2521,23.1183,959.5459],[15.2442,23.1161,975.285],[15.151,23.0725,950.4203],[15.1421,23.0698,942.7806],[15.1197,23.0596,894.1534],[15.1156,23.0561,882.1747],[15.09,23.0461,922.373],[15.0866,23.043,913.6546],[15.0087,23.0079,773.8424],[15.0012,23.0061,761.2839],[14.9959,23.0019,755.8972],[14.9979,22.9992,757.9513],[15.0065,22.9656,819.4357],[15.0053,22.9606,786.3845],[15.0296,22.8449,812.9176],[15.029,22.841,807.5428],[15.0504,22.729,850.1327],[15.1144,22.4048,821.3529],[15.1222,22.3718,763.3842],[15.1237,22.3581,842.0844],[15.1381,22.2881,793.8499],[15.1437,22.2485,787.7001],[15.1479,22.2383,762.3818],[15.1503,22.2137,742.9043],[15.1919,21.9897,822.631],[15.1906,21.9787,800.0378],[15.194,21.8452,714.4485],[15.193,21.7807,639.4171],[15.1944,21.7694,694.1812],[15.1972,21.5322,593.1],[15.1948,21.528,586.0834],[15.1975,21.5145,639.986],[15.1984,21.4913,619.0214],[15.2886,21.4323,589.5396],[15.3012,21.4119,585.1067],[15.4551,21.1988,600.6281],[15.4729,21.1738,601.678],[15.4737,21.1703,608.9989],[15.4842,21.1595,611.9183],[15.4995,21.1362,602.203],[15.6256,20.9632,640.0429],[15.62,20.9577,638.9873],[15.576,20.9251,613.9215],[15.5611,20.91,605.4603],[15.552,20.8961,615.041],[15.5462,20.8804,601.4144],[15.5488,20.8669,587.8947],[15.5565,20.8473,572.8192],[15.5901,20.7745,593.011],[15.618,20.7427,620.2054],[15.6405,20.7228,628.8083],[15.6968,20.6801,632.491],[15.7457,20.6296,648.8749],[15.8652,20.4625,599.6952],[15.8879,20.4418,606.0358],[15.9236,20.4136,615.8993],[15.9956,20.3485,622.0847],[15.8373,20.082,625.926],[15.7536,19.9478,571.1207],[15.7498,19.9229,559.0736],[15.7458,19.9107,606.728],[15.7469,19.9018,578.4239],[15.7402,19.8438,587.0102],[15.7314,19.7844,542.2769],[15.7286,19.772,533.9198],[15.7246,19.7637,529.4614],[15.7276,19.7582,537.0492],[15.7191,19.6926,516.2527],[15.7153,19.6845,513.795],[15.7169,19.6772,513.9603],[15.7158,19.6676,513.3792],[15.711,19.6519,515.3402],[15.7132,19.6494,514.5936],[15.7081,19.6176,538.6151],[15.7006,19.5484,559.062],[15.6981,19.5387,514.858],[15.6974,19.5178,516.3411],[15.69,19.4791,537.1368],[15.6792,19.385,557.4402],[15.6763,19.3712,534.6983],[15.6762,19.359,517.0749],[15.6584,19.2244,509.2556],[15.6545,19.2115,496.6845],[15.6536,19.1909,519.4193],[15.6559,19.1817,500.9122],[15.6503,19.1626,515.3702],[15.6403,19.094,489.4698],[15.6387,19.0705,486.4532],[15.6343,19.0408,475.9738],[15.6313,19.0316,477.5572],[15.6153,18.8913,436.8978],[15.6118,18.8786,432.6044],[15.612,18.8688,429.4183],[15.6025,18.7977,419.0822],[15.6009,18.7742,424.0726],[15.5983,18.7661,420.9974],[15.5938,18.7319,430.2132],[15.5897,18.6388,403.5923],[15.5859,18.6167,404.9612],[15.5877,18.6121,401.1503],[15.5877,18.5963,393.0094],[15.5839,18.5129,390.4794],[15.5736,18.3189,393.9567],[15.5697,18.2144,389.8834],[15.565,18.1464,380.1611],[15.5594,18.0062,371.7046],[15.5534,17.9146,378.4601],[15.5534,17.8838,372.743],[15.5512,17.8562,367.3506],[15.5531,17.8425,371.7227],[15.5504,17.827,372.5868],[15.5444,17.7191,352.7439],[15.5451,17.7076,360.9526],[15.5384,17.61,350.717],[15.5393,17.5999,351.6044],[15.5247,17.31,307.7773],[15.525,17.2921,307.6854],[15.5202,17.2413,307.6089],[15.5216,17.2338,296.5224],[15.5184,17.1736,283.0305],[15.5206,17.1702,281.7401],[15.5184,17.1612,281.4102],[15.5135,17.0755,276.7193],[17.2411,20.0531,1003.2633],[17.3451,20.2551,1028.7297],[17.3891,20.3351,1106.1436],[17.4061,20.4891,1333.9846],[17.442,20.555,1989.177],[17.482,20.573,2909.1453],[17.527,20.552,2367.6191],[17.593,20.509,1796.0944],[17.593,20.454,1342.0532],[17.574,20.428,1402.4152],[17.522,20.384,1558.095],[17.518,20.326,1352.9026],[17.541,20.248,1128.7375],[17.582,20.205,1112.9058],[17.624,20.192,1019.6205],[17.654,20.128,1077.401],[17.724,20.083,970.3022],[17.749,20.005,966.0681],[17.784,19.969,971.468],[17.822,19.94,837.5638],[17.865,19.879,1500.9082],[17.923,19.909,1057.3027],[17.9551,19.9541,766.4766],[17.9771,20.0031,816.2998],[17.9791,20.0621,918.6017],[17.9561,20.1261,1021.9089],[17.9471,20.2011,1015.2852],[17.9171,20.2551,968.831],[17.9271,20.3301,1057.8373],[17.9531,20.3651,976.3228],[17.9361,20.4261,972.9066],[17.8941,20.5341,1087.5706],[17.8521,20.5641,1119.1786],[17.8161,20.6091,1138.4313],[17.7971,20.6981,1839.3116],[17.8051,20.7411,2321.0889],[17.8491,20.7981,2300.8765],[17.8931,20.8311,1932.153],[17.9591,20.8701,1997.6078],[17.984,20.9,1630.9253],[18.026,20.984,1530.5278],[18.0591,21.0261,1706.184],[18.117,21.062,1802.8074],[18.176,21.086,1682.7637],[18.253,21.104,1926.7617],[18.327,21.111,2131.6252],[18.376,21.11,2206.2332],[18.408,21.138,2354.4185],[18.458,21.16,2386.1436],[18.504,21.167,2342.2852],[18.575,21.227,2109.8633],[18.6181,21.295,2060.969],[18.677,21.336,2626.4155],[18.7501,21.3901,1987.6659],[18.7641,21.4461,1578.3579],[18.7681,21.6051,1699.9651],[18.7911,21.6671,1759.97],[18.7821,21.7121,1806.927],[18.7991,21.7331,1809.8623],[18.864,21.839,1762.7856],[18.888,21.839,1758.1405],[18.9161,21.8851,1736.8164],[18.9171,21.9361,1773.7094],[18.9741,21.9761,1956.854],[19.071,21.9987,1718.2142]]]]}
,"properties": {"GID_1": "TCD.21_1","GID_0": "TCD","country": "Chad","province": "Tibesti","VARNAME_1": "NA","NL_NAME_1": "NA","TYPE_1": "Région","ENGTYPE_1": "Region","CC_1": "NA","HASC_1": "TD.TI","ISO_1": "NA","name": "Tibesti.province","area_km2": 126423.9,"hist_schema_id": "Elevation0-9000","hist_area_km2": {"275": 109.91,"300": 337.72,"325": 509.32,"350": 1949.55,"375": 2759.28,"400": 1816.04,"425": 1761.39,"450": 2008.25,"475": 1918.5,"500": 1240.47,"525": 1351.21,"550": 1906.0,"575": 2317.19,"600": 2885.73,"625": 4959.78,"650": 5492.17,"675": 5746.14,"700": 5256.29,"725": 4946.92,"750": 4864.34,"775": 4798.7,"800": 4664.81,"825": 4415.0,"850": 4322.93,"875": 4093.33,"900": 3626.68,"925": 3255.46,"950": 2879.23,"975": 2586.46,"1000": 2254.35,"1025": 2084.11,"1050": 1920.11,"1075": 1893.08,"1100": 1824.66,"1125": 1643.95,"1150": 1460.96,"1175": 1309.91,"1200": 1201.57,"1225": 1133.08,"1250": 993.89,"1275": 899.33,"1300": 833.58,"1325": 787.35,"1350": 774.21,"1375": 746.68,"1400": 733.12,"1425": 739.79,"1450": 739.54,"1475": 666.41,"1500": 588.87,"1525": 525.05,"1550": 476.15,"1575": 453.78,"1600": 483.45,"1625": 480.47,"1650": 458.29,"1675": 441.67,"1700": 420.29,"1725": 431.77,"1750": 471.01,"1775": 465.88,"1800": 433.15,"1825": 394.51,"1850": 382.57,"1875": 359.38,"1900": 325.6,"1925": 287.29,"1950": 268.38,"1975": 249.09,"2000": 234.55,"2025": 256.91,"2050": 238.15,"2075": 219.42,"2100": 206.74,"2125": 203.15,"2150": 202.02,"2175": 193.0,"2200": 220.52,"2225": 258.57,"2250": 260.12,"2275": 250.71,"2300": 212.37,"2325": 186.6,"2350": 179.56,"2375": 162.9,"2400": 159.5,"2425": 161.53,"2450": 155.57,"2475": 116.88,"2500": 87.46,"2525": 76.43,"2550": 69.54,"2575": 48.92,"2600": 38.57,"2625": 37.76,"2650": 37.69,"2675": 31.3,"2700": 20.35,"2725": 14.93,"2750": 13.7,"2775": 10.52,"2800": 9.29,"2825": 6.9,"2850": 6.35,"2875": 5.56,"2900": 3.86,"2925": 2.61,"2950": 2.41,"2975": 1.29,"3000": 1.03}}}