{"type": "Feature","bbox": [15.7291,8.6269,15.9382,8.8181],"geometry": {"type": "MultiPolygon","coordinates": [[[[15.7292,8.6992,454.3034],[15.7291,8.6886,452.1965],[15.7323,8.6735,442.8105],[15.7316,8.6656,445.0744],[15.7366,8.6517,459.05],[15.7378,8.6363,458.7763],[15.7526,8.6402,462.381],[15.756,8.6356,461.6754],[15.7661,8.6347,452.7996],[15.7718,8.6354,447.0143],[15.7869,8.6414,436.5964],[15.8262,8.637,445.0402],[15.8474,8.6313,464.7469],[15.8948,8.6269,480.3069],[15.9036,8.629,469.8146],[15.9164,8.6356,458.2071],[15.9232,8.6433,458.3532],[15.9382,8.6698,473.5016],[15.9283,8.6819,463.2066],[15.922,8.6943,456.151],[15.9239,8.695,457.9023],[15.9228,8.7086,469.8337],[15.9239,8.7287,486.5009],[15.933,8.7598,508.3085],[15.9341,8.8085,477.2957],[15.9327,8.8178,479.1235],[15.9177,8.8147,490.539],[15.8957,8.8181,484.9973],[15.87,8.8155,452.19],[15.8506,8.8062,424.5772],[15.8265,8.7914,426.8326],[15.7911,8.7806,404.7886],[15.7817,8.7804,411.1766],[15.7697,8.7437,443.1909],[15.7441,8.7115,437.9657],[15.7332,8.704,449.2393],[15.7292,8.6992,454.3034]]]]}
,"properties": {"GID_3": "TCD.11.2.5_1","GID_0": "TCD","country": "Chad","GID_1": "TCD.11_1","province": "LogoneOccidental","NL_NAME_1": "NA","GID_2": "TCD.11.2_1","county": "LacWey","NL_NAME_2": "NA","city": "Deli","VARNAME_3": "NA","NL_NAME_3": "NA","TYPE_3": "Sub-prefecture","ENGTYPE_3": "Sub-prefecture","CC_3": "NA","HASC_3": "NA","name": "Deli.city","area_km2": 362.6681,"hist_schema_id": "Elevation0-9000","hist_area_km2": {"400": 14.9197,"425": 99.4805,"450": 144.8647,"475": 90.9567,"500": 12.4465}}}