{"type": "Feature","bbox": [18.846,13.375,20.062,15.661],"geometry": {"type": "MultiPolygon","coordinates": [[[[20.062,14.082,410.3776],[20.044,15.661,395.8506],[20.028,15.572,393.8312],[19.899,15.316,384.1512],[19.804,15.137,378.2955],[19.662,14.929,370.6092],[19.504,14.74,364.6904],[19.372,14.622,360.3961],[18.99,14.215,347.6998],[18.974,14.064,350.9891],[18.943,13.885,348.5945],[18.909,13.674,349.1914],[18.896,13.551,350.7895],[18.846,13.423,349.3728],[18.933,13.395,353.8954],[18.983,13.388,356.3456],[19.021,13.398,357.1619],[19.062,13.375,359.5117],[19.08,13.411,358.5103],[19.089,13.449,359.3134],[19.113,13.481,359.4317],[19.129,13.512,359.4435],[19.157,13.62,361.1139],[19.158,13.674,359.301],[19.164,13.724,360.2904],[19.166,13.769,357.7456],[19.229,13.761,360.7022],[19.297,13.737,364.8822],[19.416,13.669,369.1869],[19.441,13.65,370.3167],[19.474,13.673,370.4957],[19.585,13.727,376.0692],[19.564,13.769,375.7044],[19.6,13.81,378.0354],[19.625,13.82,378.9474],[19.676,13.808,382.1492],[19.746,13.831,385.3871],[19.818,13.858,390.4183],[19.9,13.903,399.7794],[19.969,13.951,404.806],[20.006,13.987,398.3452],[20.062,14.082,410.3776]]]]}
,"properties": {"GID_3": "TCD.2.1.5_1","GID_0": "TCD","country": "Chad","GID_1": "TCD.2_1","province": "Batha","NL_NAME_1": "NA","GID_2": "TCD.2.1_1","county": "BathaEst","NL_NAME_2": "NA","city": "Ratanine-Har-Djombo","VARNAME_3": "NA","NL_NAME_3": "NA","TYPE_3": "Sub-prefecture","ENGTYPE_3": "Sub-prefecture","CC_3": "NA","HASC_3": "NA","name": "Ratanine-Har-Djombo.city","area_km2": 14283.24,"hist_schema_id": "Elevation0-9000","hist_area_km2": {"350": 4363.74,"375": 6969.13,"400": 2949.34,"425": 0.82,"450": 0.14}}}