{"type":"Feature","properties":{"GID_3":"TCD.7.4.1_1","GID_0":"TCD","country":"Chad","GID_1":"TCD.7_1","province":"Guéra","NL_NAME_1":"NA","GID_2":"TCD.7.4_1","county":"Mangalmé","NL_NAME_2":"NA","city":"Dadjo-Ii","VARNAME_3":"NA","NL_NAME_3":"NA","TYPE_3":"Sub-prefecture","ENGTYPE_3":"Sub-prefecture","CC_3":"NA","HASC_3":"NA","name":"Dadjo-Ii.city"},
"geometry":{"type": "MultiPolygon","coordinates": [[[[19.103,12.694,384.5175],[19.09,12.562,387.7583],[19.101,12.434,393.703],[19.118,12.337,404.9278],[19.18,12.164,431.0522],[19.181,12.076,474.2282],[19.147,12.023,484.4825],[19.061,11.937,500.901],[18.967,11.852,526.885],[18.915,11.754,522.4895],[18.902,11.692,498.0441],[19.055,11.689,509.9269],[19.088,11.6,500.8874],[19.215,11.638,474.1238],[19.256,11.726,465.2962],[19.341,11.855,452.2736],[19.313,11.982,461.8651],[19.465,12.123,465.6407],[19.496,12.109,458.2919],[19.493,12.136,466.1024],[19.497,12.17,457.8655],[19.479,12.198,460.2944],[19.456,12.228,462.2914],[19.465,12.32,459.1036],[19.502,12.407,469.4487],[19.553,12.474,432.9182],[19.58,12.558,426.7791],[19.55,12.615,418.6556],[19.496,12.689,390.7884],[19.424,12.75,379.265],[19.36,12.798,373.4059],[19.215,12.713,385.7573],[19.2,12.711,381.7095],[19.184,12.687,372.9362],[19.103,12.694,384.5175]]]]}}