{"type": "Feature","bbox": [16.958,12.125,20.369,16.109],"geometry": {"type": "MultiPolygon","coordinates": [[[[18.095,12.486,359.7856],[18.33,12.618,355.2905],[18.475,12.692,350.2663],[18.501,12.693,354.9444],[18.99,12.689,409.2924],[19.103,12.694,384.5175],[19.184,12.687,372.9362],[19.2,12.711,381.7095],[19.215,12.713,385.7573],[19.601,12.939,401.1452],[19.777,13.031,421.7097],[19.993,12.957,432.989],[20.045,12.935,452.4562],[20.331,13.001,437.0029],[20.357,13.02,428.6777],[20.369,13.331,439.2808],[20.364,13.421,442.8461],[20.314,13.529,441.1026],[20.276,13.586,431.6429],[20.267,13.613,436.5262],[20.276,13.671,428.6974],[20.295,13.755,436.8947],[20.268,13.829,429.9197],[20.056,13.956,413.7078],[20.062,14.082,410.3776],[20.043,15.742,393.0444],[19.865,15.773,388.1422],[19.749,15.813,377.6882],[19.705,15.816,378.4165],[19.626,15.827,373.6362],[19.559,15.843,368.4338],[19.483,15.92,362.0444],[19.433,16.007,362.2748],[19.402,16.081,350.8624],[19.355,16.109,351.312],[19.2741,16.097,347.8762],[19.2811,16.0091,358.307],[19.2701,15.9161,356.5922],[19.2531,15.8291,352.2906],[19.2191,15.7361,352.3477],[19.1561,15.6291,351.988],[19.09,15.545,348.2359],[19.027,15.488,347.4782],[18.926,15.415,347.5593],[18.801,15.354,336.8184],[18.651,15.314,332.1689],[18.497,15.309,308.1888],[18.341,15.328,293.9366],[18.238,15.363,279.404],[18.143,15.414,269.2956],[18.051,15.476,254.0689],[17.586,13.76,302.0954],[17.271,13.662,301.1361],[17.234,13.427,300.5247],[17.241,13.21,292.3882],[17.161,13.099,288.7693],[17.13,13.046,287.5225],[17.077,13.007,287.8844],[16.997,12.937,288.4872],[16.958,12.88,288.6144],[16.974,12.857,288.722],[17.016,12.832,289.6426],[17.054,12.816,289.5462],[17.092,12.783,289.5598],[17.113,12.735,290.3555],[17.15,12.609,295.0515],[17.254,12.501,295.9987],[17.293,12.487,297.0349],[17.295,12.406,299.3244],[17.31,12.346,302.7043],[17.34,12.3,304.9272],[17.388,12.27,306.7254],[17.408,12.229,312.0338],[17.411,12.184,315.6617],[17.446,12.155,317.6791],[17.504,12.158,319.8728],[17.552,12.133,328.4498],[17.598,12.125,335.4867],[17.567,12.199,319.247],[17.608,12.239,327.8034],[17.665,12.256,327.3107],[17.671,12.279,335.0955],[17.882,12.446,358.1155],[18.018,12.452,388.6741],[18.065,12.452,368.0968],[18.095,12.486,359.7856]]]]}
,"properties": {"GID_1": "TCD.2_1","GID_0": "TCD","country": "Chad","province": "Batha","VARNAME_1": "NA","NL_NAME_1": "NA","TYPE_1": "Région","ENGTYPE_1": "Region","CC_1": "NA","HASC_1": "TD.BA","ISO_1": "NA","name": "Batha.province","area_km2": 90746.13,"hist_schema_id": "Elevation0-9000","hist_area_km2": {"250": 3.39,"275": 1890.26,"300": 19499.58,"325": 15461.92,"350": 25487.73,"375": 17576.57,"400": 7385.63,"425": 3062.12,"450": 365.38,"475": 3.57,"500": 2.81,"525": 2.46,"550": 2.19,"575": 1.01}}}