{"type": "Feature","id": "1472","bbox": [16.93957,12.15564,20.30479,16.18196],"geometry": {"type": "Polygon","coordinates": [[[19.27059,16.16051,345.3645],[19.26004,16.16113,346.5865],[19.25348,16.16496,346.7083],[19.23782,16.17922,344.9366],[19.22775,16.18196,345.2968],[19.22077,16.1818,345.0507],[19.21643,16.1787,342.6286],[19.21503,16.17328,344.2002],[19.21922,16.07287,334.4527],[19.20961,15.95231,352.1235],[19.20744,15.94006,347.4218],[19.13044,15.73072,347.8148],[19.10067,15.67491,349.4716],[19.04698,15.61465,348.2677],[18.93541,15.522,345.081],[18.89242,15.49508,342.6201],[18.79124,15.45053,335.749],[18.59218,15.39048,323.2583],[18.56283,15.38449,316.9016],[18.47999,15.38387,292.7788],[18.27065,15.43146,278.3012],[18.20905,15.45725,270.1096],[18.08492,15.53166,259.7354],[17.99289,15.61641,279.9272],[17.55141,13.82009,293.9532],[17.24962,13.72769,296.0577],[17.23815,13.72061,295.2395],[17.23252,13.70934,296.0928],[17.22911,13.69648,296.6919],[17.19779,13.5107,303.3532],[17.19702,13.50062,302.5103],[17.20384,13.27082,287.2473],[17.20213,13.25097,292.6932],[17.19562,13.23526,292.1346],[17.1317,13.144,288.6817],[17.08824,13.08101,289.3859],[17.07268,13.06396,289.0182],[17.05873,13.05378,287.6623],[16.96985,12.97058,287.9653],[16.9436,12.93342,288.4714],[16.94127,12.9281,288.4474],[16.93988,12.922,287.7129],[16.93957,12.91404,288.7328],[16.94112,12.90841,287.7568],[16.9436,12.90371,286.9052],[16.94701,12.89999,287.2006],[16.97822,12.87508,288.032],[17.00178,12.86144,288.2468],[17.03222,12.83725,289.2874],[17.03889,12.82991,289.3],[17.08188,12.74925,290.6281],[17.08591,12.73969,290.334],[17.10219,12.67489,292.664],[17.11583,12.63913,292.8856],[17.12235,12.62714,293.091],[17.12529,12.62311,293.0606],[17.1287,12.61949,293.4828],[17.13278,12.61639,294.0539],[17.13728,12.6136,294.7641],[17.14751,12.60967,295.002],[17.15216,12.60729,295.4906],[17.15604,12.60419,295.034],[17.1596,12.59794,295.0702],[17.1686,12.57386,293.9862],[17.17294,12.56595,296.481],[17.17743,12.56042,297.0936],[17.18565,12.55288,296.9149],[17.19361,12.54239,293.5252],[17.19717,12.53846,295.8414],[17.2012,12.53546,297.9024],[17.20616,12.53324,297.9299],[17.21175,12.53185,294.3655],[17.2181,12.53154,297.4919],[17.23081,12.53257,296.2167],[17.23733,12.53236,295.9437],[17.2442,12.53014,295.2665],[17.25071,12.5259,294.0832],[17.25753,12.51552,295.851],[17.25955,12.50637,296.1048],[17.25986,12.49376,295.4059],[17.28528,12.36875,300.6196],[17.28947,12.3547,301.2258],[17.30797,12.3316,302.7458],[17.31153,12.32824,302.9006],[17.31587,12.32555,303.1085],[17.34052,12.31687,304.0965],[17.34424,12.31418,304.4924],[17.34771,12.30979,304.3091],[17.35112,12.30375,304.6209],[17.35747,12.28783,305.6827],[17.36073,12.28287,305.8499],[17.3705,12.27315,306.7061],[17.37747,12.26344,306.7577],[17.38057,12.25615,306.9056],[17.3815,12.24866,307.7716],[17.38026,12.22117,310.8774],[17.38197,12.21435,312.426],[17.38445,12.20907,313.3487],[17.39825,12.19497,315.7511],[17.40212,12.19171,315.5553],[17.40693,12.18939,315.9774],[17.41241,12.18758,315.8422],[17.4245,12.18551,316.3856],[17.43659,12.18458,316.6472],[17.44264,12.18494,316.9239],[17.44837,12.18597,316.5177],[17.45891,12.18892,316.9817],[17.4647,12.18995,316.7632],[17.47059,12.19006,315.0208],[17.47617,12.18892,317.2648],[17.48067,12.18659,316.728],[17.48873,12.18055,317.8877],[17.49338,12.17859,317.0695],[17.49834,12.17745,318.2452],[17.51979,12.17517,319.0723],[17.52552,12.17373,318.7994],[17.5308,12.17176,319.5939],[17.53932,12.16613,322.9622],[17.54335,12.16298,327.8903],[17.55188,12.15859,324.2158],[17.5601,12.15564,330.1768],[17.54537,12.20887,319.3761],[17.56475,12.23626,323.6288],[17.82592,12.45717,334.882],[17.84375,12.4642,334.5306],[17.86023,12.46818,343.8925],[17.97382,12.47903,366.5478],[17.98669,12.48244,364.313],[18.00017,12.49381,361.7685],[18.04611,12.54983,353.171],[18.07526,12.56967,340.5911],[18.43529,12.76377,341.7269],[18.45544,12.76863,343.3565],[18.4727,12.77059,343.9036],[19.0814,12.74785,385.9101],[19.09618,12.74868,382.5002],[19.11261,12.75173,376.3684],[19.16723,12.77648,371.1635],[19.47088,12.95346,393.538],[19.70575,13.05557,407.8151],[19.99028,12.97058,429.0668],[19.98233,12.97792,425.2047],[19.98062,12.98267,422.891],[19.98765,12.98603,423.0039],[20.24536,13.03786,421.1075],[20.25575,13.04117,420.972],[20.2604,13.04355,420.4896],[20.26804,13.05088,421.6545],[20.29455,13.09233,417.8516],[20.30091,13.1069,417.4442],[20.30432,13.11832,419.078],[20.30479,13.22322,429.7293],[20.28153,13.40275,441.5096],[20.28324,13.56315,432.239],[20.2806,13.57225,431.5175],[20.24489,13.62682,436.2653],[20.23699,13.64651,430.7199],[20.23172,13.66976,423.8684],[20.23854,13.88623,423.3595],[20.23497,13.89249,420.9269],[20.2249,13.89931,422.3604],[20.00005,14.01062,399.4828],[20.00005,14.15598,390.6917],[20.00005,15.78384,387.9533],[19.86378,15.79867,381.0406],[19.81117,15.81278,378.6732],[19.77242,15.83056,376.4435],[19.6503,15.86694,370.261],[19.5716,15.87996,365.758],[19.55501,15.88637,364.9786],[19.42345,15.96807,358.5717],[19.40975,15.98259,358.0467],[19.40153,15.9951,357.3444],[19.39921,16.00021,356.9049],[19.3975,16.00585,357.8715],[19.38448,16.09897,353.5605],[19.37937,16.12052,352.2289],[19.37549,16.12677,352.6475],[19.36939,16.13349,352.4492],[19.35714,16.14423,355.7571],[19.34939,16.1494,350.5682],[19.34242,16.15281,351.4106],[19.30826,16.16284,348.4155],[19.2957,16.16449,347.4662],[19.2895,16.16428,346.2967],[19.27059,16.16051,345.3645]]]}
,"properties": {"ISO3166-1-Alpha-3": "TCD","country": "Chad","fill": "#FF0","name": "Batha","area_km2": 91221.28,"hist_schema_id": "Elevation0-9000","hist_area_km2": {"250": 73.78,"275": 2917.08,"300": 21255.81,"325": 15608.89,"350": 25472.49,"375": 17179.08,"400": 6008.77,"425": 2578.45,"450": 118.25,"475": 2.73,"500": 2.09,"525": 1.26,"550": 0.97}}}