{"type": "Feature","bbox": [15.553,13.154,15.935,13.425],"geometry": {"type": "MultiPolygon","coordinates": [[[[15.935,13.339,290.5335],[15.854,13.356,294.8979],[15.828,13.377,290.5972],[15.781,13.4,293.8043],[15.737,13.425,298.9387],[15.684,13.396,301.5285],[15.619,13.375,294.6496],[15.553,13.362,297.5637],[15.576,13.247,293.9448],[15.736,13.179,293.3441],[15.755,13.163,290.146],[15.862,13.154,286.2017],[15.91,13.173,285.6227],[15.929,13.207,291.7246],[15.935,13.339,290.5335]]]]}
,"properties": {"GID_3": "TCD.9.1.1_1","GID_0": "TCD","country": "Chad","GID_1": "TCD.9_1","province": "Kanem","NL_NAME_1": "NA","GID_2": "TCD.9.1_1","county": "Kanem","NL_NAME_2": "NA","city": "Amdobak","VARNAME_3": "NA","NL_NAME_3": "NA","TYPE_3": "Sub-prefecture","ENGTYPE_3": "Sub-prefecture","CC_3": "NA","HASC_3": "NA","name": "Amdobak.city","area_km2": 852.3232,"hist_schema_id": "Elevation0-9000","hist_area_km2": {"275": 45.9662,"300": 806.357}}}