{"type": "Feature","bbox": [20.302,11.664,21.358,12.697],"geometry": {"type": "MultiPolygon","coordinates": [[[[21.224,12.67,531.0534],[21.139,12.649,521.149],[21.111,12.649,509.887],[21.087,12.635,508.6494],[21.022,12.658,482.7336],[20.932,12.694,471.8859],[20.847,12.697,465.5226],[20.782,12.683,467.5707],[20.779,12.583,462.7729],[20.76,12.526,467.8607],[20.712,12.505,479.2611],[20.673,12.468,464.7399],[20.639,12.458,456.798],[20.589,12.449,461.0326],[20.547,12.451,461.3989],[20.531,12.461,461.8607],[20.49,12.538,445.7251],[20.493,12.492,451.7672],[20.439,12.494,466.1517],[20.399,12.512,455.2961],[20.352,12.456,452.5953],[20.348,12.361,467.4272],[20.322,12.24,469.4235],[20.316,12.18,454.9539],[20.302,12.074,458.1285],[20.303,12.035,449.437],[20.974,11.715,486.5415],[21.056,11.664,479.5275],[21.065,11.693,479.2683],[21.114,11.761,488.1098],[21.119,11.793,493.8984],[21.136,11.857,498.7985],[21.188,11.906,514.4379],[21.216,11.942,524.3896],[21.244,12.022,505.9414],[21.273,12.091,582.8481],[21.259,12.124,571.3291],[21.237,12.194,541.0773],[21.201,12.265,528.8616],[21.229,12.373,549.2668],[21.281,12.402,545.6621],[21.303,12.443,549.4873],[21.31,12.49,570.6098],[21.339,12.521,566.1274],[21.353,12.556,581.7805],[21.358,12.647,591.0487],[21.313,12.665,577.0409],[21.269,12.672,552.4709],[21.224,12.67,531.0534]]]]}
,"properties": {"GID_3": "TCD.19.1.5_1","GID_0": "TCD","country": "Chad","GID_1": "TCD.19_1","province": "Sila","NL_NAME_1": "NA","GID_2": "TCD.19.1_1","county": "DjourfAlAhmar","NL_NAME_2": "NA","city": "Kadjeske-Am-Dam","VARNAME_3": "NA","NL_NAME_3": "NA","TYPE_3": "Sub-prefecture","ENGTYPE_3": "Sub-prefecture","CC_3": "NA","HASC_3": "NA","name": "Kadjeske-Am-Dam.city","area_km2": 8343.664,"hist_schema_id": "Elevation0-9000","hist_area_km2": {"450": 520.222,"475": 2858.44,"500": 1894.834,"525": 1481.01,"550": 884.851,"575": 462.733,"600": 179.047,"625": 29.474,"650": 14.105,"675": 8.491,"700": 5.115,"725": 2.402,"750": 1.284,"775": 0.704,"800": 0.373,"825": 0.373,"850": 0.145}}}