{"type": "Feature","bbox": [18.4116,9.4432,18.7281,9.6946],"geometry": {"type": "MultiPolygon","coordinates": [[[[18.6996,9.6932,373.1756],[18.688,9.6946,373.6263],[18.6655,9.6927,373.2383],[18.641,9.6885,372.8712],[18.6201,9.6821,370.6351],[18.5822,9.6669,373.5762],[18.5647,9.6574,373.2004],[18.5523,9.6476,375.2659],[18.5314,9.635,377.6186],[18.5156,9.6225,375.0203],[18.4936,9.6126,376.33],[18.4528,9.5891,370.5521],[18.4347,9.5848,368.7686],[18.4246,9.5774,368.6106],[18.4176,9.5748,368.4544],[18.4116,9.5662,367.1076],[18.4169,9.5551,374.0315],[18.4354,9.5508,374.9828],[18.4634,9.547,378.1486],[18.4802,9.5424,381.8166],[18.5054,9.5317,406.2489],[18.5131,9.5265,416.3207],[18.5271,9.5151,434.6135],[18.5368,9.5017,437.4842],[18.5505,9.4655,442.158],[18.5709,9.452,432.8659],[18.59,9.4432,454.3286],[18.6129,9.4514,488.374],[18.6347,9.465,542.7505],[18.691,9.4861,486.9402],[18.7159,9.4996,449.5946],[18.7234,9.5085,434.2961],[18.7281,9.5217,424.5322],[18.7269,9.5333,424.2567],[18.7194,9.548,438.7615],[18.7068,9.563,452.8466],[18.7032,9.5708,445.9862],[18.7009,9.5808,440.4079],[18.7004,9.5922,434.0188],[18.702,9.6027,432.4517],[18.7131,9.6422,397.6566],[18.7141,9.6596,389.0452],[18.6996,9.6932,373.1756]]]]}
,"properties": {"GID_3": "TCD.16.3.13_1","GID_0": "TCD","country": "Chad","GID_1": "TCD.16_1","province": "Moyen-Chari","NL_NAME_1": "NA","GID_2": "TCD.16.3_1","county": "LacIro","NL_NAME_2": "NA","city": "Simegotobe","VARNAME_3": "NA","NL_NAME_3": "NA","TYPE_3": "Sub-prefecture","ENGTYPE_3": "Sub-prefecture","CC_3": "NA","HASC_3": "NA","name": "Simegotobe.city","area_km2": 543.6254,"hist_schema_id": "Elevation0-9000","hist_area_km2": {"375": 181.4065,"400": 116.1514,"425": 74.8512,"450": 68.25,"475": 60.2235,"500": 31.8267,"525": 10.6233,"550": 0.2928}}}