{"type": "Feature","bbox": [15.7826,9.7014,15.8896,9.8193],"geometry": {"type": "MultiPolygon","coordinates": [[[[15.7938,9.7247,340.7392],[15.7967,9.7192,340.777],[15.8027,9.7165,341.1225],[15.8217,9.715,341.4856],[15.8414,9.7169,342.1716],[15.8531,9.713,342.3989],[15.8654,9.7113,340.2084],[15.8809,9.7014,341.6504],[15.8896,9.7316,341.0362],[15.884,9.7623,341.8052],[15.8605,9.7892,341.0543],[15.8416,9.799,340.4227],[15.832,9.8103,335.0],[15.8156,9.8193,339.6094],[15.8006,9.8108,339.4628],[15.7854,9.797,339.6891],[15.7826,9.7626,341.0471],[15.7844,9.7504,340.2831],[15.7938,9.7247,340.7392]]]]}
,"properties": {"GID_3": "TCD.14.2.3_1","GID_0": "TCD","country": "Chad","GID_1": "TCD.14_1","province": "Mayo-KebbiEst","NL_NAME_1": "NA","GID_2": "TCD.14.2_1","county": "Mayo-Boneye","NL_NAME_2": "NA","city": "Ere","VARNAME_3": "NA","NL_NAME_3": "NA","TYPE_3": "Sub-prefecture","ENGTYPE_3": "Sub-prefecture","CC_3": "NA","HASC_3": "NA","name": "Ere.city","area_km2": 102.76387,"hist_schema_id": "Elevation0-9000","hist_area_km2": {"325": 2.75813,"350": 100.00574}}}