{"type":"Feature","properties":{"GID_3":"TCD.22.1.1_1","GID_0":"TCD","country":"Chad","GID_1":"TCD.22_1","province":"VilledeN'Djamena","NL_NAME_1":"NA","GID_2":"TCD.22.1_1","county":"N'Djamena","NL_NAME_2":"NA","city":"Ndjamena","VARNAME_3":"NA","NL_NAME_3":"NA","TYPE_3":"Sub-prefecture","ENGTYPE_3":"Sub-prefecture","CC_3":"NA","HASC_3":"NA","name":"Ndjamena.city"},
"geometry":{"type": "MultiPolygon","coordinates": [[[[14.8938,12.1719,290.1721],[14.889099999999999,12.1698,291.1591],[14.8853,12.1641,287.0],[14.885,12.1607,287.0],[14.8887,12.1547,289.2519],[14.9052,12.146,291.0279],[14.9258,12.1215,289.0867],[14.9404,12.1087,292.9454],[14.9503,12.1032,288.071],[14.9556,12.0955,289.3047],[14.9598,12.0929,294.0973],[14.9818,12.0847,293.6833],[14.9886,12.0838,294.3879],[14.9917,12.0888,288.9686],[14.9917,12.1071,291.0783],[14.9946,12.1126,291.4307],[15.0021,12.1168,292.7263],[15.0074,12.1168,293.0116],[15.0193,12.1128,293.6936],[15.0349,12.1027,290.6409],[15.0374,12.0968,289.6521],[15.0356,12.0807,288.5],[15.0368,12.0741,295.6005],[15.0412,12.0699,295.6949],[15.0523,12.0644,295.2255],[15.0583,12.0536,290.7186],[15.0592,12.0468,291.3295],[15.0558,12.0309,292.7458],[15.0536,12.0282,294.5276],[15.0447,12.0308,295.17],[15.0402,12.0286,292.1621],[15.0388,12.0266,294.9332],[15.0393,12.024,293.7233],[15.0431,12.0212,294.3023],[15.0594,11.9997,295.0058],[15.0855,11.9987,291.2697],[15.0893,11.9936,295.3937],[15.0885,11.9894,294.4312],[15.1038,11.9887,294.4821],[15.137,11.983,296.101],[15.138,12.011,294.7869],[15.147,12.044,294.615],[15.16,12.069,290.8649],[15.131,12.098,296.4846],[15.09,12.152,294.4509],[15.056,12.192,292.3517],[15.049,12.225,292.8783],[14.991,12.229,290.978],[14.961,12.244,291.793],[14.9061,12.2253,292.5177],[14.9049,12.2175,294.1061],[14.9,12.2055,291.5931],[14.9007,12.2002,292.7068],[14.9073,12.1873,291.4755],[14.911,12.1853,286.5],[14.9118,12.1821,291.2933],[14.9061,12.1744,291.8119],[14.8938,12.1719,290.1721]]]]}}