{"type": "Feature","bbox": [17.2802,8.55,17.5196,8.8328],"geometry": {"type": "MultiPolygon","coordinates": [[[[17.4956,8.6122,366.4849],[17.4873,8.6671,366.5157],[17.4719,8.6889,369.0815],[17.4654,8.7071,372.7036],[17.4812,8.724,369.055],[17.5196,8.7451,394.5746],[17.5005,8.7619,388.8502],[17.4821,8.7713,377.8693],[17.4583,8.7795,369.8648],[17.4366,8.8008,380.5331],[17.438,8.8195,380.6571],[17.4144,8.8328,381.6819],[17.3985,8.7893,369.8079],[17.3541,8.7344,380.2145],[17.3422,8.7234,383.9341],[17.3303,8.7162,390.743],[17.3119,8.711,394.4037],[17.2967,8.6988,395.0127],[17.2802,8.6716,407.2454],[17.3043,8.6652,423.3784],[17.3133,8.6648,422.2424],[17.3202,8.6603,415.2037],[17.3265,8.6606,410.1148],[17.3421,8.6519,393.1548],[17.359,8.6476,379.528],[17.3781,8.6367,370.8724],[17.3804,8.6328,368.9379],[17.3892,8.6263,368.3705],[17.4003,8.6214,367.0053],[17.4029,8.6192,367.0935],[17.4054,8.6122,366.9919],[17.4131,8.5999,367.1063],[17.4236,8.5885,368.5075],[17.4265,8.5769,369.4113],[17.4344,8.5599,369.4628],[17.4424,8.55,372.0674],[17.4458,8.5501,371.8778],[17.4597,8.5574,372.8497],[17.4707,8.5673,368.1105],[17.4881,8.5955,366.7959],[17.4956,8.6122,366.4849]]]]}
,"properties": {"GID_3": "TCD.13.2.4_1","GID_0": "TCD","country": "Chad","GID_1": "TCD.13_1","province": "Mandoul","NL_NAME_1": "NA","GID_2": "TCD.13.2_1","county": "MandoulOccidental","NL_NAME_2": "NA","city": "Bekamba-Koumra","VARNAME_3": "NA","NL_NAME_3": "NA","TYPE_3": "Sub-prefecture","ENGTYPE_3": "Sub-prefecture","CC_3": "NA","HASC_3": "NA","name": "Bekamba-Koumra.city","area_km2": 354.9791,"hist_schema_id": "Elevation0-9000","hist_area_km2": {"375": 312.0131,"400": 32.0041,"425": 10.9619}}}