{"type":"Feature","properties":{"GID_3":"TCD.15.2.8_1","GID_0":"TCD","country":"Chad","GID_1":"TCD.15_1","province":"Mayo-KebbiOuest","NL_NAME_1":"NA","GID_2":"TCD.15.2_1","county":"Mayo-Dallah","NL_NAME_2":"NA","city":"Keuni","VARNAME_3":"NA","NL_NAME_3":"NA","TYPE_3":"Sub-prefecture","ENGTYPE_3":"Sub-prefecture","CC_3":"NA","HASC_3":"NA","name":"Keuni.city"},
"geometry":{"type": "MultiPolygon","coordinates": [[[[15.2794,8.339,556.7823],[15.2623,8.4106,544.6965],[15.2458,8.4702,539.4794],[15.2724,8.482,528.7414],[15.2691,8.5002,547.1566],[15.2707,8.5179,531.1376],[15.2664,8.542,531.0745],[15.263,8.611,500.4311],[15.277,8.662,513.5436],[15.292,8.701,472.5769],[15.307,8.716,474.6984],[15.357,8.759,469.8202],[15.355,8.822,418.9467],[15.357,8.87,437.597],[15.363,8.9199,425.5462],[15.3508,8.9214,437.4398],[15.3336,8.9276,431.9365],[15.326,8.9266,432.7659],[15.297,8.9379,458.268],[15.2661,8.9547,427.1241],[15.2313,8.9537,463.2673],[15.1829,8.9555,462.0168],[15.1522,8.9588,427.5748],[15.1286,8.9589,425.7159],[15.0961,8.9647,390.64],[15.1013,8.9496,393.1201],[15.1087,8.9358,395.5459],[15.1096,8.9256,393.4317],[15.1217,8.9212,410.7091],[15.1399,8.9107,407.0129],[15.1684,8.9006,426.8967],[15.1854,8.8864,450.7414],[15.1919,8.8752,483.8511],[15.1938,8.8589,475.5179],[15.1896,8.8217,483.7885],[15.1863,8.8093,480.7657],[15.1704,8.7759,461.9493],[15.1724,8.7585,494.0266],[15.1909,8.7109,479.0621],[15.195,8.6932,502.9122],[15.1958,8.6805,488.8119],[15.1863,8.6532,472.6755],[15.1781,8.6428,463.8103],[15.1742,8.6331,464.4758],[15.1569,8.6472,454.6396],[15.1069,8.6734,461.0599],[15.0794,8.6705,458.1422],[15.0677,8.6729,445.315],[15.0791,8.6703,459.425],[15.1083,8.656,478.0247],[15.111,8.6371,485.9736],[15.1238,8.6229,493.0365],[15.1406,8.609,517.8958],[15.1515,8.6022,505.9117],[15.1536,8.576,513.8513],[15.156,8.568,526.4022],[15.1651,8.5554,532.3986],[15.1778,8.525,565.4957],[15.1825,8.5194,581.7357],[15.192,8.5135,584.4032],[15.1976,8.5124,570.4983],[15.2002,8.509,574.4048],[15.2794,8.339,556.7823]]]]}}