{"type": "Feature","bbox": [16.4486,8.5796,16.7902,9.0831],"geometry": {"type": "MultiPolygon","coordinates": [[[[16.4639,9.0606,362.8945],[16.486,9.028,368.0943],[16.504,8.995,372.7166],[16.533,8.989,367.8985],[16.538,8.966,373.2346],[16.545,8.951,376.6483],[16.567,8.959,369.246],[16.574,8.937,369.7752],[16.587,8.925,370.539],[16.594,8.899,371.2922],[16.574,8.874,397.8556],[16.558,8.83,413.9657],[16.5714,8.8141,387.5098],[16.5874,8.8004,376.0881],[16.6116,8.7693,379.4038],[16.6323,8.7535,385.2421],[16.6473,8.7161,392.317],[16.6599,8.6999,391.1639],[16.6667,8.659,393.1874],[16.6706,8.648,392.39],[16.6887,8.6171,392.6309],[16.7023,8.59,384.2402],[16.7057,8.5796,384.4736],[16.7135,8.5874,383.901],[16.7149,8.5962,384.5583],[16.7122,8.6159,391.6202],[16.714,8.6564,394.4176],[16.7151,8.6694,392.156],[16.7207,8.6908,387.8356],[16.7312,8.69,390.2392],[16.7697,8.6777,382.1183],[16.7834,8.6749,382.8291],[16.7902,8.6775,382.986],[16.7743,8.7004,381.819],[16.7712,8.7113,381.7946],[16.7677,8.7162,382.1716],[16.7553,8.7248,380.5445],[16.7486,8.7321,380.0404],[16.7509,8.7384,380.1562],[16.7593,8.7477,380.8815],[16.771,8.7689,379.7255],[16.7663,8.787,373.9391],[16.7607,8.7905,379.24],[16.7527,8.8059,377.9349],[16.7461,8.8122,379.0804],[16.7342,8.8312,378.2449],[16.7209,8.8741,377.5614],[16.715,8.9237,372.7098],[16.6826,8.946,369.4465],[16.65,8.971,372.4828],[16.6447,8.9789,365.5045],[16.6333,8.9881,369.7918],[16.6206,8.9957,368.1494],[16.6052,9.01,368.5528],[16.589,9.0345,364.9904],[16.5806,9.0424,365.6999],[16.5715,9.0479,366.5574],[16.5099,9.0679,364.7192],[16.4486,9.0831,364.3308],[16.4639,9.0606,362.8945]]]]}
,"properties": {"GID_3": "TCD.12.1.2_1","GID_0": "TCD","country": "Chad","GID_1": "TCD.12_1","province": "LogoneOriental","NL_NAME_1": "NA","GID_2": "TCD.12.1_1","county": "Lanya","NL_NAME_2": "NA","city": "Beboni","VARNAME_3": "NA","NL_NAME_3": "NA","TYPE_3": "Sub-prefecture","ENGTYPE_3": "Sub-prefecture","CC_3": "NA","HASC_3": "NA","name": "Beboni.city","area_km2": 654.5713,"hist_schema_id": "Elevation0-9000","hist_area_km2": {"350": 5.2976,"375": 514.2957,"400": 134.8943,"425": 0.0838}}}