{"type": "Feature","bbox": [21.778,14.002,22.1,14.376],"geometry": {"type": "MultiPolygon","coordinates": [[[[21.983,14.002,930.0735],[22.027,14.121,1018.0313],[22.086,14.184,1046.7478],[22.1,14.239,1102.3611],[22.1,14.278,1111.5417],[22.077,14.328,1051.9554],[22.028,14.376,1034.5671],[21.999,14.342,1051.9543],[21.954,14.298,972.5995],[21.904,14.264,934.1056],[21.853,14.241,907.6187],[21.815,14.186,889.0724],[21.795,14.137,898.5742],[21.778,14.06,872.8749],[21.983,14.002,930.0735]]]]}
,"properties": {"GID_3": "TCD.23.2.13_1","GID_0": "TCD","country": "Chad","GID_1": "TCD.23_1","province": "WadiFira","NL_NAME_1": "NA","GID_2": "TCD.23.2_1","county": "DarTama","NL_NAME_2": "NA","city": "Ouli-Koure","VARNAME_3": "NA","NL_NAME_3": "NA","TYPE_3": "Sub-prefecture","ENGTYPE_3": "Sub-prefecture","CC_3": "NA","HASC_3": "NA","name": "Ouli-Koure.city","area_km2": 814.2296,"hist_schema_id": "Elevation0-9000","hist_area_km2": {"875": 18.9557,"900": 90.3551,"925": 110.8586,"950": 144.4849,"975": 100.3942,"1000": 78.6718,"1025": 60.5494,"1050": 92.1027,"1075": 64.4047,"1100": 39.971,"1125": 12.6182,"1150": 0.6577,"1175": 0.2055}}}