{"type":"Feature","properties":{"GID_3":"TCD.7.3.7_1","GID_0":"TCD","country":"Chad","GID_1":"TCD.7_1","province":"Guéra","NL_NAME_1":"NA","GID_2":"TCD.7.3_1","county":"Guéra","NL_NAME_2":"NA","city":"Sorki","VARNAME_3":"NA","NL_NAME_3":"NA","TYPE_3":"Sub-prefecture","ENGTYPE_3":"Sub-prefecture","CC_3":"NA","HASC_3":"NA","name":"Sorki.city"},
"geometry":{"type": "MultiPolygon","coordinates": [[[[18.591,11.408,470.3335],[18.514,11.452,465.6004],[18.5,11.416,493.671],[18.467,11.395,486.2584],[18.452,11.378,497.825],[18.447,11.361,498.9131],[18.432,11.345,493.7429],[18.409,11.332,500.6271],[18.385,11.307,509.2535],[18.344,11.26,523.2523],[18.31,11.203,520.8248],[18.29,11.151,443.2266],[18.386,11.124,444.7631],[18.467,11.118,453.2996],[18.58,11.088,436.9264],[18.605,11.054,430.0852],[18.612,10.995,457.1565],[18.595,10.934,450.732],[18.577,10.893,593.7831],[18.632,10.912,455.2532],[18.689,10.924,449.9247],[18.793,10.936,431.9065],[18.905,10.956,440.0498],[18.987,10.978,449.7938],[19.059,11.022,456.7999],[19.089,11.037,450.9626],[19.117,11.04,457.1247],[19.158,11.055,460.2543],[19.181,11.073,466.0914],[19.197,11.1,458.0475],[19.238,11.179,438.206],[19.192,11.187,434.7756],[19.13,11.217,434.831],[19.056,11.245,437.6089],[19.001,11.273,439.4542],[18.967,11.313,444.1942],[18.902,11.331,444.3339],[18.74,11.38,468.8392],[18.591,11.408,470.3335]]]]}}