{"type":"Feature","properties":{"GID_3":"TCD.11.3.10_1","GID_0":"TCD","country":"Chad","GID_1":"TCD.11_1","province":"LogoneOccidental","NL_NAME_1":"NA","GID_2":"TCD.11.3_1","county":"Ngourkosso","NL_NAME_2":"NA","city":"Saar","VARNAME_3":"NA","NL_NAME_3":"NA","TYPE_3":"Sub-prefecture","ENGTYPE_3":"Sub-prefecture","CC_3":"NA","HASC_3":"NA","name":"Saar.city"},
"geometry":{"type": "MultiPolygon","coordinates": [[[[16.3262,9.0759,377.0067],[16.3302,9.1015,377.6828],[16.3475,9.1319,364.632],[16.3561,9.1436,363.4333],[16.3571,9.1506,363.0957],[16.3422,9.1527,363.2208],[16.3171,9.1613,363.3207],[16.2992,9.1766,363.3911],[16.2924,9.1843,363.0822],[16.279,9.175,365.2005],[16.2456,9.1667,368.0051],[16.2486,9.1567,370.0139],[16.2518,9.1259,393.9565],[16.2584,9.1001,403.5383],[16.257,9.0962,400.4186],[16.2732,9.0929,408.79],[16.2975,9.0846,411.5445],[16.3122,9.0832,396.2758],[16.3262,9.0759,377.0067]]]]}}