{"type":"Feature","properties":{"GID_3":"TCD.17.1.4_1","GID_0":"TCD","country":"Chad","GID_1":"TCD.17_1","province":"Ouaddaï","NL_NAME_1":"NA","GID_2":"TCD.17.1_1","county":"Assoungha","NL_NAME_2":"NA","city":"Mabrone","VARNAME_3":"NA","NL_NAME_3":"NA","TYPE_3":"Sub-prefecture","ENGTYPE_3":"Sub-prefecture","CC_3":"NA","HASC_3":"NA","name":"Mabrone.city"},
"geometry":{"type": "MultiPolygon","coordinates": [[[[21.983,14.002,930.0735],[21.778,14.06,872.8749],[21.671,14.092,908.6443],[21.555,14.101,855.3551],[21.504,14.115,827.9267],[21.437,14.126,764.2476],[21.382,14.111,780.2016],[21.314,14.068,768.5224],[21.253,14.039,753.5449],[21.318,14.004,736.842],[21.341,13.967,713.1877],[21.364,13.955,705.8216],[21.414,13.937,758.9745],[21.44,13.932,785.2327],[21.584,13.896,786.1356],[21.645,13.876,753.4919],[21.718,13.866,770.7579],[21.761,13.865,789.5165],[21.777,13.886,802.4578],[21.85,13.909,867.3173],[21.912,13.947,908.0996],[21.962,13.963,913.6677],[21.983,14.002,930.0735]]]]}}