{"type":"Feature","properties":{"GID_3":"TCD.23.2.8_1","GID_0":"TCD","country":"Chad","GID_1":"TCD.23_1","province":"WadiFira","NL_NAME_1":"NA","GID_2":"TCD.23.2_1","county":"DarTama","NL_NAME_2":"NA","city":"Kolonga","VARNAME_3":"NA","NL_NAME_3":"NA","TYPE_3":"Sub-prefecture","ENGTYPE_3":"Sub-prefecture","CC_3":"NA","HASC_3":"NA","name":"Kolonga.city"},
"geometry":{"type": "MultiPolygon","coordinates": [[[[21.478,14.44,905.164],[21.536,14.474,878.997],[21.604,14.474,916.4507],[21.674,14.444,930.5175],[21.69,14.434,947.579],[21.739,14.432,963.063],[21.796,14.4,984.2213],[21.833,14.393,1003.9409],[21.867,14.391,1017.8743],[21.865,14.476,960.3644],[21.842,14.55,920.2438],[21.824,14.624,910.3279],[21.502,14.629,659.3231],[21.508,14.555,836.04],[21.478,14.44,905.164]]]]}}