{"type":"Feature","properties":{"GID_3":"TCD.8.1.3_1","GID_0":"TCD","country":"Chad","GID_1":"TCD.8_1","province":"Hadjer-Lamis","NL_NAME_1":"NA","GID_2":"TCD.8.1_1","county":"Dababa","NL_NAME_2":"NA","city":"Dababa","VARNAME_3":"NA","NL_NAME_3":"NA","TYPE_3":"Sub-prefecture","ENGTYPE_3":"Sub-prefecture","CC_3":"NA","HASC_3":"NA","name":"Dababa.city"},
"geometry":{"type": "MultiPolygon","coordinates": [[[[16.858,11.676,327.1664],[16.913,11.858,322.8936],[16.948,11.934,316.5957],[16.959,12.084,309.7672],[16.982,12.134,308.8505],[16.954,12.157,308.3873],[16.938,12.194,306.6367],[16.927,12.231,305.1908],[16.927,12.278,303.8193],[16.932,12.316,302.5661],[16.951,12.402,299.3527],[16.969,12.423,298.5181],[16.977,12.44,297.5242],[16.894,12.429,298.4892],[16.857,12.405,298.5887],[16.683,12.398,295.6217],[16.653,12.406,293.9586],[16.604,12.399,293.6031],[16.571,12.399,295.182],[16.522,12.379,295.5106],[16.45,12.305,295.1011],[16.493,12.296,296.2957],[16.666,12.229,301.8358],[16.695,12.198,303.9737],[16.725,12.133,308.4584],[16.708,11.995,316.1006],[16.744,11.932,318.2285],[16.79,11.904,317.8187],[16.797,11.874,325.781],[16.812,11.823,325.9713],[16.826,11.726,327.0421],[16.858,11.676,327.1664]]]]}}