{"type":"Feature","properties":{"GID_3":"TCD.11.2.7_1","GID_0":"TCD","country":"Chad","GID_1":"TCD.11_1","province":"LogoneOccidental","NL_NAME_1":"NA","GID_2":"TCD.11.2_1","county":"LacWey","NL_NAME_2":"NA","city":"Kaga","VARNAME_3":"NA","NL_NAME_3":"NA","TYPE_3":"Sub-prefecture","ENGTYPE_3":"Sub-prefecture","CC_3":"NA","HASC_3":"NA","name":"Kaga.city"},
"geometry":{"type": "MultiPolygon","coordinates": [[[[15.922,8.6943,456.151],[15.944,8.6928,475.6462],[15.9741,8.6977,483.7525],[16.001,8.6937,478.397],[16.0286,8.6967,457.2581],[16.0635,8.695,430.0226],[16.0828,8.7488,454.7158],[16.0626,8.7481,429.6386],[16.0539,8.75,421.7368],[16.0091,8.7494,465.4714],[15.933,8.7598,508.3085],[15.9239,8.7287,486.5009],[15.9228,8.7086,469.8337],[15.9239,8.695,457.9023],[15.922,8.6943,456.151]]]]}}