{"type":"Feature","properties":{"GID_3":"TCD.9.1.7_1","GID_0":"TCD","country":"Chad","GID_1":"TCD.9_1","province":"Kanem","NL_NAME_1":"NA","GID_2":"TCD.9.1_1","county":"Kanem","NL_NAME_2":"NA","city":"Mourzigui","VARNAME_3":"NA","NL_NAME_3":"NA","TYPE_3":"Sub-prefecture","ENGTYPE_3":"Sub-prefecture","CC_3":"NA","HASC_3":"NA","name":"Mourzigui.city"},
"geometry":{"type": "MultiPolygon","coordinates": [[[[15.894,13.685,298.5142],[15.841,13.681,296.7317],[15.811,13.66,294.4713],[15.779,13.645,294.9619],[15.699,13.682,294.4604],[15.663,13.712,284.7412],[15.608,13.678,293.9226],[15.602,13.568,300.8354],[15.659,13.527,287.8511],[15.702,13.512,289.3572],[15.748,13.506,289.1467],[15.763,13.476,291.8921],[15.792,13.503,289.4685],[15.823,13.503,291.2926],[15.872,13.51,295.3517],[15.92,13.499,294.0384],[15.892,13.546,288.4692],[15.876,13.614,288.2764],[15.884,13.66,286.6236],[15.894,13.685,298.5142]]]]}}