{"type": "Feature","bbox": [17.2849,8.6122,17.6558,9.0555],"geometry": {"type": "MultiPolygon","coordinates": [[[[17.6558,8.7735,366.3313],[17.6459,8.7852,369.2647],[17.6259,8.7932,372.9495],[17.6237,8.8154,385.4877],[17.6175,8.8494,433.7942],[17.6356,8.8853,467.916],[17.6423,8.9035,499.0365],[17.642,8.93,498.7284],[17.6391,8.9475,501.1335],[17.635,8.9617,487.4982],[17.6262,8.9814,493.5461],[17.6212,8.9997,525.9825],[17.6181,9.0197,554.3458],[17.6235,9.0395,575.4192],[17.6189,9.0533,604.8784],[17.6122,9.0555,608.7987],[17.5902,9.0486,589.1779],[17.5733,9.0456,580.4152],[17.5171,9.0278,523.6257],[17.4333,9.0187,390.2563],[17.3871,9.0023,375.0994],[17.3472,8.9909,371.0305],[17.3308,8.9761,376.8841],[17.2937,8.9371,377.725],[17.2849,8.9227,376.5716],[17.3059,8.8936,378.0069],[17.3329,8.873,378.3602],[17.3569,8.8565,378.344],[17.3894,8.8447,379.0005],[17.3776,8.8338,378.5979],[17.3633,8.8133,381.162],[17.3621,8.7937,381.3332],[17.3666,8.782,372.1028],[17.3864,8.7751,378.6511],[17.3985,8.7893,369.8079],[17.4144,8.8328,381.6819],[17.438,8.8195,380.6571],[17.4366,8.8008,380.5331],[17.4583,8.7795,369.8648],[17.4821,8.7713,377.8693],[17.5005,8.7619,388.8502],[17.5196,8.7451,394.5746],[17.4812,8.724,369.055],[17.4654,8.7071,372.7036],[17.4719,8.6889,369.0815],[17.4873,8.6671,366.5157],[17.4956,8.6122,366.4849],[17.5143,8.6174,366.2829],[17.5447,8.6351,366.3029],[17.5654,8.6491,365.0986],[17.5838,8.6656,365.2759],[17.6371,8.7249,364.0713],[17.6526,8.7499,364.2115],[17.6558,8.7735,366.3313]]]]}
,"properties": {"GID_3": "TCD.13.3.5_1","GID_0": "TCD","country": "Chad","GID_1": "TCD.13_1","province": "Mandoul","NL_NAME_1": "NA","GID_2": "TCD.13.3_1","county": "MandoulOriental","NL_NAME_2": "NA","city": "Koumra","VARNAME_3": "NA","NL_NAME_3": "NA","TYPE_3": "Sub-prefecture","ENGTYPE_3": "Sub-prefecture","CC_3": "NA","HASC_3": "NA","name": "Koumra.city","area_km2": 1094.9312,"hist_schema_id": "Elevation0-9000","hist_area_km2": {"375": 534.2532,"400": 142.2239,"425": 135.7895,"450": 108.7801,"475": 64.6977,"500": 38.9323,"525": 25.7785,"550": 21.2334,"575": 16.8352,"600": 6.4072}}}