{"type":"Feature","properties":{"GID_3":"TCD.9.1.6_1","GID_0":"TCD","country":"Chad","GID_1":"TCD.9_1","province":"Kanem","NL_NAME_1":"NA","GID_2":"TCD.9.1_1","county":"Kanem","NL_NAME_2":"NA","city":"Motoa","VARNAME_3":"NA","NL_NAME_3":"NA","TYPE_3":"Sub-prefecture","ENGTYPE_3":"Sub-prefecture","CC_3":"NA","HASC_3":"NA","name":"Motoa.city"},
"geometry":{"type": "MultiPolygon","coordinates": [[[[15.602,13.568,300.8354],[15.608,13.678,293.9226],[15.537,13.642,297.9782],[15.453,13.586,301.1545],[15.501,13.457,291.3837],[15.551,13.534,296.7263],[15.602,13.568,300.8354]]]]}}