{"type":"Feature","properties":{"GID_3":"TCD.15.1.5_1","GID_0":"TCD","country":"Chad","GID_1":"TCD.15_1","province":"Mayo-KebbiOuest","NL_NAME_1":"NA","GID_2":"TCD.15.1_1","county":"LacLéré","NL_NAME_2":"NA","city":"Lere-Tchad","VARNAME_3":"NA","NL_NAME_3":"NA","TYPE_3":"Sub-prefecture","ENGTYPE_3":"Sub-prefecture","CC_3":"NA","HASC_3":"NA","name":"Lere-Tchad.city"},
"geometry":{"type": "MultiPolygon","coordinates": [[[[14.0161,9.7113,295.5551],[14.0486,9.692,297.5191],[14.0597,9.6833,292.2299],[14.0811,9.6702,283.4859],[14.0922,9.6566,253.6578],[14.1011,9.6409,241.2923],[14.1129,9.6135,236.4168],[14.1277,9.5849,289.3597],[14.1477,9.5568,296.4786],[14.1595,9.5525,310.6052],[14.172,9.5531,296.3579],[14.195,9.5512,308.244],[14.2053,9.5519,310.0163],[14.2135,9.5574,291.2145],[14.2181,9.5752,273.4081],[14.2181,9.5915,252.9258],[14.2219,9.604,262.67],[14.232,9.6167,267.5135],[14.2596,9.6297,253.4859],[14.2815,9.6369,254.7231],[14.3053,9.6422,243.6497],[14.3498,9.6451,247.6719],[14.3865,9.6439,248.7791],[14.402,9.646,262.6715],[14.4307,9.6552,253.5262],[14.4432,9.6552,249.9599],[14.4737,9.6683,242.9208],[14.5059,9.6859,255.5576],[14.5206,9.6909,271.6585],[14.5258,9.698,277.0026],[14.5313,9.7023,267.2099],[14.5182,9.7056,292.205],[14.4889,9.7288,316.1275],[14.4677,9.7355,338.6442],[14.441,9.7513,372.6167],[14.4254,9.7626,348.6941],[14.4082,9.7663,363.3846],[14.3782,9.7648,337.5797],[14.3592,9.7592,339.7476],[14.3243,9.7574,326.4634],[14.3095,9.7726,320.2082],[14.3018,9.7903,300.5491],[14.2848,9.8099,330.9221],[14.2299,9.8517,322.7083],[14.2089,9.8596,316.2921],[14.157,9.868,344.8199],[14.1351,9.8239,333.5571],[14.0839,9.7827,386.9814],[14.0356,9.7405,321.0158],[14.0263,9.7316,318.2659],[14.0161,9.7113,295.5551]]]]}}