{"type":"Feature","properties":{"GID_3":"TCD.7.2.3_1","GID_0":"TCD","country":"Chad","GID_1":"TCD.7_1","province":"Guéra","NL_NAME_1":"NA","GID_2":"TCD.7.2_1","county":"Bitkine","NL_NAME_2":"NA","city":"Djonkor-Guera","VARNAME_3":"NA","NL_NAME_3":"NA","TYPE_3":"Sub-prefecture","ENGTYPE_3":"Sub-prefecture","CC_3":"NA","HASC_3":"NA","name":"Djonkor-Guera.city"},
"geometry":{"type": "MultiPolygon","coordinates": [[[[18.165,11.88,909.4849],[18.171,11.823,445.6699],[18.19,11.784,449.1221],[18.206,11.739,472.5134],[18.253,11.711,483.8851],[18.31,11.708,509.7766],[18.337,11.738,513.1732],[18.372,11.799,538.9965],[18.385,11.848,554.4335],[18.391,11.885,526.0739],[18.344,11.906,548.5538],[18.28,11.913,520.0594],[18.253,11.888,500.2811],[18.201,11.876,533.6759],[18.165,11.88,909.4849]]]]}}