{"type": "Feature","bbox": [16.5525,7.7898,16.8596,8.0498],"geometry": {"type": "MultiPolygon","coordinates": [[[[16.5868,7.8515,430.1184],[16.6248,7.8399,432.9276],[16.6523,7.835,432.0408],[16.6681,7.8304,444.4047],[16.6901,7.8351,484.3848],[16.7218,7.8276,490.0837],[16.7621,7.8023,499.2115],[16.7936,7.7982,456.8549],[16.8224,7.7898,503.0507],[16.8295,7.7929,496.0362],[16.8439,7.8113,479.8956],[16.8449,7.8187,469.0882],[16.8498,7.8277,445.7521],[16.8568,7.8466,464.1536],[16.8596,7.862,475.0794],[16.855,7.868,479.2786],[16.8425,7.8927,504.8837],[16.8406,7.9028,507.7607],[16.8323,7.9107,499.5677],[16.8246,7.9217,489.6604],[16.7908,7.9212,502.689],[16.738,7.9422,486.9333],[16.7098,7.9641,474.1974],[16.6677,8.0016,436.7195],[16.6593,8.0168,409.1925],[16.6511,8.0244,405.46],[16.629,8.0361,418.1854],[16.6233,8.044,415.5588],[16.6146,8.0498,420.4038],[16.6034,8.0405,425.8638],[16.5856,8.0322,450.6555],[16.5711,8.0268,466.456],[16.5525,8.0235,491.8136],[16.5581,8.0103,473.037],[16.5568,7.9909,452.3588],[16.5577,7.9648,448.1758],[16.5606,7.9501,432.3727],[16.5707,7.9271,414.1978],[16.5737,7.9138,420.8658],[16.5742,7.9061,430.5673],[16.5726,7.8972,428.2961],[16.5636,7.8684,411.3138],[16.5774,7.87,422.9386],[16.5954,7.8784,415.0089],[16.5959,7.8802,416.9354],[16.598,7.8761,418.8564],[16.5982,7.8703,432.2984],[16.5944,7.8621,416.6892],[16.5868,7.8515,430.1184]]]]}
,"properties": {"GID_3": "TCD.12.3.4_1","GID_0": "TCD","country": "Chad","GID_1": "TCD.12_1","province": "LogoneOriental","NL_NAME_1": "NA","GID_2": "TCD.12.3_1","county": "NyaPendé","NL_NAME_2": "NA","city": "Gore","VARNAME_3": "NA","NL_NAME_3": "NA","TYPE_3": "Sub-prefecture","ENGTYPE_3": "Sub-prefecture","CC_3": "NA","HASC_3": "NA","name": "Gore.city","area_km2": 523.0206,"hist_schema_id": "Elevation0-9000","hist_area_km2": {"400": 31.2662,"425": 119.2286,"450": 105.5255,"475": 114.1471,"500": 116.6885,"525": 36.1647}}}