{"type":"Feature","properties":{"GID_3":"TCD.13.1.5_1","GID_0":"TCD","country":"Chad","GID_1":"TCD.13_1","province":"Mandoul","NL_NAME_1":"NA","GID_2":"TCD.13.1_1","county":"BarhSara","NL_NAME_2":"NA","city":"Bengoro","VARNAME_3":"NA","NL_NAME_3":"NA","TYPE_3":"Sub-prefecture","ENGTYPE_3":"Sub-prefecture","CC_3":"NA","HASC_3":"NA","name":"Bengoro.city"},
"geometry":{"type": "MultiPolygon","coordinates": [[[[17.4956,8.6122,366.4849],[17.4881,8.5955,366.7959],[17.4707,8.5673,368.1105],[17.4597,8.5574,372.8497],[17.4216,8.5394,369.4437],[17.4066,8.5291,369.8529],[17.4019,8.5246,371.0307],[17.3927,8.5103,372.3903],[17.3738,8.4648,370.9238],[17.3669,8.4401,371.0521],[17.3542,8.4064,380.5475],[17.3456,8.3911,378.5193],[17.3341,8.3564,375.1342],[17.3283,8.3461,375.9285],[17.318,8.3164,381.6139],[17.3393,8.3109,383.5214],[17.3473,8.3109,383.2487],[17.3674,8.3025,382.0046],[17.3783,8.303,374.089],[17.3841,8.3281,375.2596],[17.3929,8.3426,381.0884],[17.4042,8.3527,377.1172],[17.4108,8.3549,380.5126],[17.4545,8.3885,384.1138],[17.4615,8.4008,380.6264],[17.4639,8.4144,380.4961],[17.4688,8.4254,380.3354],[17.4715,8.4388,380.3037],[17.4785,8.4422,381.3246],[17.4822,8.4433,382.0807],[17.5541,8.4151,376.8392],[17.5641,8.4142,382.2018],[17.571,8.4164,382.6897],[17.5929,8.4152,384.0626],[17.6028,8.4161,384.5438],[17.6209,8.4224,384.578],[17.6344,8.4239,382.1338],[17.6473,8.4296,381.3244],[17.6521,8.4401,379.7303],[17.6481,8.4504,379.7332],[17.6477,8.4567,380.0888],[17.6421,8.4657,378.552],[17.6365,8.4813,377.9008],[17.6357,8.4926,377.1687],[17.6388,8.5114,379.0926],[17.6447,8.5308,378.6305],[17.6622,8.5621,377.839],[17.6663,8.5721,377.8356],[17.6651,8.5784,377.9869],[17.6575,8.5942,376.0876],[17.6511,8.5986,377.0839],[17.6439,8.6007,377.0588],[17.6294,8.6019,374.9064],[17.6112,8.5979,374.7434],[17.5869,8.5963,376.3128],[17.5523,8.5884,370.8541],[17.537,8.5874,368.5406],[17.5227,8.5903,369.7913],[17.5154,8.5946,370.4928],[17.5107,8.6008,369.6053],[17.4956,8.6122,366.4849]]]]}}