{"type":"Feature","properties":{"GID_3":"TCD.12.3.1_1","GID_0":"TCD","country":"Chad","GID_1":"TCD.12_1","province":"LogoneOriental","NL_NAME_1":"NA","GID_2":"TCD.12.3_1","county":"NyaPendé","NL_NAME_2":"NA","city":"Bekan","VARNAME_3":"NA","NL_NAME_3":"NA","TYPE_3":"Sub-prefecture","ENGTYPE_3":"Sub-prefecture","CC_3":"NA","HASC_3":"NA","name":"Bekan.city"},
"geometry":{"type": "MultiPolygon","coordinates": [[[[16.5636,7.8684,411.3138],[16.5742,7.9061,430.5673],[16.5726,7.9208,417.6304],[16.5606,7.9501,432.3727],[16.5577,7.9648,448.1758],[16.5568,7.9909,452.3588],[16.5581,8.0103,473.037],[16.5525,8.0235,491.8136],[16.5429,8.0382,482.7795],[16.53,8.0847,482.3145],[16.5169,8.0979,508.8878],[16.4886,8.1333,445.6867],[16.4625,8.1381,459.5414],[16.4349,8.1406,471.031],[16.3996,8.141,502.3334],[16.3676,8.1409,531.914],[16.3427,8.1345,535.6196],[16.3271,8.1337,533.9535],[16.3248,8.1235,529.2178],[16.3148,8.1056,510.9387],[16.3034,8.0915,492.2568],[16.3001,8.0813,485.2726],[16.2949,8.0539,469.4948],[16.2914,8.0203,460.7498],[16.2932,8.0098,458.3032],[16.3039,7.9881,456.287],[16.307,7.9773,450.053],[16.3135,7.9659,456.1684],[16.3311,7.9129,447.7731],[16.3409,7.8476,463.5966],[16.3501,7.8011,463.1923],[16.3567,7.7451,459.6431],[16.3637,7.7016,466.5237],[16.3755,7.6659,435.6104],[16.3847,7.6712,430.5442],[16.3928,7.6711,440.2163],[16.3946,7.6782,428.5108],[16.4067,7.6858,425.8055],[16.4104,7.6942,429.9259],[16.4189,7.7038,427.5327],[16.4259,7.7091,422.502],[16.4305,7.7187,422.264],[16.4278,7.7212,422.4011],[16.4252,7.721,421.9525],[16.4174,7.7277,424.972],[16.4156,7.7342,430.368],[16.4168,7.7406,422.4435],[16.4186,7.7424,422.5594],[16.4242,7.7433,436.4835],[16.4263,7.7467,438.9153],[16.4203,7.7598,430.8836],[16.4139,7.7642,424.0967],[16.4125,7.7679,420.8761],[16.4146,7.7741,428.1306],[16.4239,7.7793,428.3361],[16.439,7.8052,422.0472],[16.4422,7.8059,419.2475],[16.4475,7.8031,422.437],[16.4553,7.8024,430.4472],[16.4574,7.7987,429.0409],[16.4541,7.7925,419.7524],[16.4562,7.7879,418.9685],[16.4598,7.7849,417.2029],[16.4891,7.7903,416.2166],[16.4926,7.7921,422.8914],[16.4947,7.7971,425.2807],[16.494,7.8031,422.966],[16.4956,7.8086,414.9192],[16.5088,7.8191,414.2459],[16.5141,7.8273,417.7724],[16.5161,7.8429,414.5949],[16.5188,7.8457,414.1426],[16.5303,7.8463,423.2402],[16.535,7.8484,425.2285],[16.5421,7.8559,412.1923],[16.5465,7.8568,412.056],[16.5527,7.8542,422.4305],[16.5606,7.8547,434.8959],[16.5631,7.8595,427.4435],[16.5608,7.8648,415.7644],[16.5636,7.8684,411.3138]]]]}}