{"type": "Feature","bbox": [16.077,8.4668,16.2874,8.66],"geometry": {"type": "MultiPolygon","coordinates": [[[[16.0941,8.5857,401.3825],[16.077,8.569,401.4833],[16.1087,8.5345,420.9042],[16.1569,8.4982,470.7107],[16.2093,8.4668,499.5997],[16.2474,8.4753,505.1564],[16.2826,8.4949,505.2797],[16.2856,8.5154,496.368],[16.2874,8.5539,474.5685],[16.2863,8.5687,464.4767],[16.2766,8.6216,405.2259],[16.273,8.66,391.6723],[16.203,8.634,391.0815],[16.117,8.608,390.5021],[16.0941,8.5857,401.3825]]]]}
,"properties": {"GID_3": "TCD.12.3.7_1","GID_0": "TCD","country": "Chad","GID_1": "TCD.12_1","province": "LogoneOriental","NL_NAME_1": "NA","GID_2": "TCD.12.3_1","county": "NyaPendé","NL_NAME_2": "NA","city": "Mbaikoro","VARNAME_3": "NA","NL_NAME_3": "NA","TYPE_3": "Sub-prefecture","ENGTYPE_3": "Sub-prefecture","CC_3": "NA","HASC_3": "NA","name": "Mbaikoro.city","area_km2": 315.0983,"hist_schema_id": "Elevation0-9000","hist_area_km2": {"375": 5.3034,"400": 94.3577,"425": 61.5968,"450": 75.1245,"475": 60.9754,"500": 17.384,"525": 0.3565}}}