{"type": "Feature","bbox": [17.2473,8.1719,17.7267,8.3376],"geometry": {"type": "MultiPolygon","coordinates": [[[[17.2473,8.2151,387.1145],[17.2595,8.1957,387.9749],[17.2755,8.1817,389.5544],[17.2836,8.177,390.2668],[17.3062,8.1719,391.5764],[17.3227,8.1731,388.3536],[17.3379,8.1798,389.3257],[17.3485,8.1808,388.7668],[17.3757,8.1885,382.3246],[17.3908,8.1891,390.4534],[17.4793,8.1775,389.6674],[17.4962,8.1787,391.8289],[17.541,8.1921,393.2067],[17.5584,8.2001,390.3401],[17.5735,8.2043,392.1966],[17.5815,8.2094,394.4072],[17.6108,8.2169,392.4958],[17.6528,8.221,390.3192],[17.726,8.2144,383.2912],[17.7233,8.2511,384.8462],[17.7267,8.2676,387.0213],[17.689,8.276,390.0445],[17.675,8.2834,388.71],[17.6634,8.2872,389.1029],[17.6428,8.2973,391.2137],[17.6337,8.3082,391.4028],[17.5765,8.311,388.8683],[17.5676,8.317,386.7632],[17.5256,8.3278,388.075],[17.5191,8.3307,387.2372],[17.5113,8.337,390.5479],[17.502,8.3376,388.7576],[17.4776,8.3336,387.9086],[17.4615,8.328,393.0504],[17.4193,8.3029,386.9394],[17.4075,8.3012,385.6644],[17.3968,8.3005,380.7881],[17.3783,8.303,374.089],[17.3674,8.3025,382.0046],[17.3473,8.3109,383.2487],[17.3393,8.3109,383.5214],[17.318,8.3164,381.6139],[17.3105,8.3129,381.7901],[17.295,8.296,378.5481],[17.2473,8.2151,387.1145]]]]}
,"properties": {"GID_3": "TCD.13.1.8_1","GID_0": "TCD","country": "Chad","GID_1": "TCD.13_1","province": "Mandoul","NL_NAME_1": "NA","GID_2": "TCD.13.1_1","county": "BarhSara","NL_NAME_2": "NA","city": "Dilingala","VARNAME_3": "NA","NL_NAME_3": "NA","TYPE_3": "Sub-prefecture","ENGTYPE_3": "Sub-prefecture","CC_3": "NA","HASC_3": "NA","name": "Dilingala.city","area_km2": 633.4278,"hist_schema_id": "Elevation0-9000","hist_area_km2": {"375": 232.9042,"400": 400.5236}}}