{"type": "Feature","bbox": [17.075,9.1032,17.3956,9.371],"geometry": {"type": "MultiPolygon","coordinates": [[[[17.228,9.371,359.8567],[17.201,9.355,356.5549],[17.075,9.261,369.5257],[17.222,9.166,385.2345],[17.2142,9.1582,388.8633],[17.2251,9.1511,390.7654],[17.2406,9.1452,391.7462],[17.2565,9.1349,398.3632],[17.2865,9.1267,396.8307],[17.326,9.1032,382.9932],[17.3511,9.1051,384.6553],[17.3651,9.1096,389.3083],[17.3719,9.1134,387.7398],[17.3909,9.1138,391.8489],[17.3956,9.1214,390.0943],[17.3955,9.1286,395.502],[17.3799,9.1624,382.7788],[17.391,9.1742,389.2323],[17.3922,9.18,385.1884],[17.386,9.1868,383.2774],[17.3783,9.1898,384.5923],[17.3695,9.2007,384.4268],[17.3669,9.2141,367.0004],[17.3693,9.2304,360.375],[17.3685,9.238,368.1662],[17.3532,9.2351,380.9987],[17.3191,9.2352,380.0161],[17.3169,9.2561,378.9549],[17.3242,9.2768,370.5712],[17.3145,9.2966,363.9045],[17.2933,9.327,362.3009],[17.2624,9.3444,361.6],[17.228,9.371,359.8567]]]]}
,"properties": {"GID_3": "TCD.13.3.6_1","GID_0": "TCD","country": "Chad","GID_1": "TCD.13_1","province": "Mandoul","NL_NAME_1": "NA","GID_2": "TCD.13.3_1","county": "MandoulOriental","NL_NAME_2": "NA","city": "Mahim-Toki","VARNAME_3": "NA","NL_NAME_3": "NA","TYPE_3": "Sub-prefecture","ENGTYPE_3": "Sub-prefecture","CC_3": "NA","HASC_3": "NA","name": "Mahim-Toki.city","area_km2": 527.582,"hist_schema_id": "Elevation0-9000","hist_area_km2": {"350": 33.4554,"375": 396.8741,"400": 97.2526}}}