{"type": "Feature","bbox": [22.028,14.174,22.363,14.421],"geometry": {"type": "MultiPolygon","coordinates": [[[[22.34,14.196,996.0217],[22.363,14.242,1007.0457],[22.31,14.276,1011.0813],[22.27,14.326,1022.1744],[22.21,14.391,1068.3153],[22.131,14.421,1076.1045],[22.074,14.413,1024.2437],[22.028,14.376,1034.5671],[22.077,14.328,1051.9554],[22.1,14.278,1111.5417],[22.1,14.239,1102.3611],[22.086,14.184,1046.7478],[22.161,14.174,1044.7443],[22.206,14.2,1097.5249],[22.28,14.213,1045.6553],[22.34,14.196,996.0217]]]]}
,"properties": {"GID_3": "TCD.23.2.6_1","GID_0": "TCD","country": "Chad","GID_1": "TCD.23_1","province": "WadiFira","NL_NAME_1": "NA","GID_2": "TCD.23.2_1","county": "DarTama","NL_NAME_2": "NA","city": "Guereda","VARNAME_3": "NA","NL_NAME_3": "NA","TYPE_3": "Sub-prefecture","ENGTYPE_3": "Sub-prefecture","CC_3": "NA","HASC_3": "NA","name": "Guereda.city","area_km2": 546.7881,"hist_schema_id": "Elevation0-9000","hist_area_km2": {"1000": 24.0432,"1025": 93.3564,"1050": 113.3683,"1075": 126.0036,"1100": 116.1075,"1125": 61.3949,"1150": 10.6236,"1175": 1.233,"1200": 0.596,"1225": 0.0616}}}