{"type": "Feature","bbox": [16.117,10.171,17.327,10.767],"geometry": {"type": "MultiPolygon","coordinates": [[[[17.277,10.587,341.7987],[17.221,10.551,342.2298],[17.131,10.511,340.2456],[17.017,10.464,340.0374],[16.857,10.436,335.2056],[16.736,10.47,334.2557],[16.64,10.487,332.6577],[16.593,10.493,326.1622],[16.527,10.512,323.8175],[16.448,10.541,326.1049],[16.391,10.587,321.5933],[16.379,10.627,321.1824],[16.333,10.642,328.4072],[16.301,10.669,317.4542],[16.256,10.688,319.5746],[16.214,10.723,317.4768],[16.165,10.738,317.4625],[16.117,10.767,314.739],[16.14,10.74,327.4049],[16.149,10.707,327.5834],[16.121,10.465,327.9976],[16.123,10.382,330.0661],[16.129,10.314,330.921],[16.152,10.282,331.9988],[16.174,10.265,332.9229],[16.1939,10.2092,334.0323],[16.23,10.202,337.0044],[16.483,10.2,337.5361],[16.584,10.265,333.5002],[16.602,10.236,333.7292],[16.623,10.234,333.2465],[16.617,10.193,330.7089],[16.619,10.171,331.1797],[16.656,10.211,336.0484],[16.69,10.243,336.7704],[16.733,10.269,335.9062],[16.777,10.28,334.3339],[16.874,10.281,339.5255],[16.948,10.288,341.6605],[17.06,10.343,339.4708],[17.135,10.396,340.8625],[17.203,10.464,341.2373],[17.281,10.552,340.8213],[17.327,10.574,340.9664],[17.294,10.599,341.9048],[17.277,10.587,341.7987]]]]}
,"properties": {"GID_3": "TCD.4.2.1_1","GID_0": "TCD","country": "Chad","GID_1": "TCD.4_1","province": "Chari-Baguirmi","NL_NAME_1": "NA","GID_2": "TCD.4.2_1","county": "LougChari","NL_NAME_2": "NA","city": "Ba-Illi","VARNAME_3": "NA","NL_NAME_3": "NA","TYPE_3": "Sub-prefecture","ENGTYPE_3": "Sub-prefecture","CC_3": "NA","HASC_3": "NA","name": "Ba-Illi.city","area_km2": 3583.612,"hist_schema_id": "Elevation0-9000","hist_area_km2": {"325": 2937.672,"350": 645.94}}}