{"type": "Feature","bbox": [17.749,11.0695,18.514,11.64],"geometry": {"type": "MultiPolygon","coordinates": [[[[17.842,11.638,382.6831],[17.881,11.551,398.0526],[17.899,11.516,392.3355],[17.934,11.471,430.7945],[18.004,11.395,403.7784],[18.031,11.369,421.5413],[18.041,11.338,415.8728],[18.035,11.308,415.8152],[17.992,11.292,402.5343],[17.849,11.255,375.2106],[17.83,11.252,378.6819],[17.79,11.24,362.9427],[17.749,11.223,507.9468],[17.755,11.194,391.8722],[17.758,11.159,383.6016],[17.752,11.12,383.8873],[17.773,11.0883,377.6277],[17.812,11.0724,382.8799],[17.8509,11.0695,482.4724],[17.8967,11.0825,623.6876],[17.9475,11.0883,398.7397],[17.9983,11.0897,372.5243],[18.0474,11.0955,383.2011],[18.1271,11.0955,392.0097],[18.2067,11.1201,430.8691],[18.2423,11.1244,439.6231],[18.2727,11.136,433.071],[18.29,11.151,443.2266],[18.31,11.203,520.8248],[18.344,11.26,523.2523],[18.385,11.307,509.2535],[18.409,11.332,500.6271],[18.432,11.345,493.7429],[18.447,11.361,498.9131],[18.452,11.378,497.825],[18.467,11.395,486.2584],[18.5,11.416,493.671],[18.514,11.452,465.6004],[18.377,11.513,475.8186],[18.174,11.599,498.7552],[18.045,11.632,445.2414],[17.942,11.64,431.8292],[17.842,11.638,382.6831]]]]}
,"properties": {"GID_3": "TCD.7.3.3_1","GID_0": "TCD","country": "Chad","GID_1": "TCD.7_1","province": "Guéra","NL_NAME_1": "NA","GID_2": "TCD.7.3_1","county": "Guéra","NL_NAME_2": "NA","city": "Gogmi","VARNAME_3": "NA","NL_NAME_3": "NA","TYPE_3": "Sub-prefecture","ENGTYPE_3": "Sub-prefecture","CC_3": "NA","HASC_3": "NA","name": "Gogmi.city","area_km2": 3004.795,"hist_schema_id": "Elevation0-9000","hist_area_km2": {"350": 0.499,"375": 247.261,"400": 699.025,"425": 459.33,"450": 301.018,"475": 358.998,"500": 387.009,"525": 234.879,"550": 118.299,"575": 39.674,"600": 27.074,"625": 21.438,"650": 20.274,"675": 16.407,"700": 15.222,"725": 13.849,"750": 12.248,"775": 10.626,"800": 7.943,"825": 5.198,"850": 3.202,"875": 1.913,"900": 1.123,"925": 0.915,"950": 0.437,"975": 0.291,"1000": 0.208,"1025": 0.208,"1050": 0.146,"1100": 0.042}}}