{"type":"Feature","properties":{"GID_3":"TCD.11.3.9_1","GID_0":"TCD","country":"Chad","GID_1":"TCD.11_1","province":"LogoneOccidental","NL_NAME_1":"NA","GID_2":"TCD.11.3_1","county":"Ngourkosso","NL_NAME_2":"NA","city":"Mbaouroye","VARNAME_3":"NA","NL_NAME_3":"NA","TYPE_3":"Sub-prefecture","ENGTYPE_3":"Sub-prefecture","CC_3":"NA","HASC_3":"NA","name":"Mbaouroye.city"},
"geometry":{"type": "MultiPolygon","coordinates": [[[[16.491,8.7451,403.5429],[16.521,8.777,401.6826],[16.558,8.83,413.9657],[16.5508,8.8303,418.4378],[16.534,8.8214,421.458],[16.519,8.8106,418.7348],[16.4986,8.8003,420.6812],[16.4953,8.7928,420.0591],[16.4903,8.7712,415.1207],[16.4896,8.7493,406.7904],[16.491,8.7451,403.5429]]]]}}