{"type":"Feature","properties":{"GID_3":"TCD.12.4.7_1","GID_0":"TCD","country":"Chad","GID_1":"TCD.12_1","province":"LogoneOriental","NL_NAME_1":"NA","GID_2":"TCD.12.4_1","county":"Pendé","NL_NAME_2":"NA","city":"Mango","VARNAME_3":"NA","NL_NAME_3":"NA","TYPE_3":"Sub-prefecture","ENGTYPE_3":"Sub-prefecture","CC_3":"NA","HASC_3":"NA","name":"Mango.city"},
"geometry":{"type": "MultiPolygon","coordinates": [[[[16.8078,8.6645,382.7249],[16.8288,8.6671,379.1785],[16.8591,8.6771,389.4123],[16.8809,8.6816,389.5947],[16.895,8.6914,389.2457],[16.9046,8.6952,388.9413],[16.9006,8.7048,388.7368],[16.8975,8.7478,387.8431],[16.8934,8.7616,387.4011],[16.8912,8.765,393.6221],[16.8754,8.7733,387.9306],[16.8574,8.7866,386.8244],[16.8411,8.8003,382.7361],[16.8338,8.8097,382.9691],[16.8302,8.8052,382.2748],[16.8097,8.7915,379.4596],[16.8191,8.7845,380.7466],[16.8299,8.772,385.6775],[16.8328,8.7671,386.9185],[16.8353,8.754,386.187],[16.8336,8.7387,386.6568],[16.823,8.7165,385.6038],[16.8139,8.7027,387.9415],[16.7952,8.6854,381.8901],[16.7902,8.6775,382.986],[16.7966,8.6761,380.2494],[16.8066,8.6682,382.9855],[16.8078,8.6645,382.7249]]]]}}