{"type": "Feature","bbox": [15.9205,8.9456,16.0494,9.129],"geometry": {"type": "MultiPolygon","coordinates": [[[[16.0494,9.1248,382.9832],[16.044,9.128,382.7423],[15.984,9.129,379.4662],[15.959,9.113,387.1385],[15.929,9.061,398.0057],[15.9205,9.0028,392.0129],[15.9307,8.969,391.5161],[15.9483,8.958,400.2914],[15.9576,8.9488,407.4459],[15.9635,8.9456,417.8211],[15.9722,8.9626,415.68],[15.99,8.9788,386.27],[16.0104,8.9865,387.3489],[16.0048,8.9988,394.9833],[16.0031,9.0062,402.1461],[16.0034,9.016,403.0198],[16.0073,9.0275,401.1533],[16.0165,9.0395,393.5401],[16.0219,9.0676,390.2699],[16.0331,9.092,395.6663],[16.0454,9.1129,386.1774],[16.0494,9.1248,382.9832]]]]}
,"properties": {"GID_3": "TCD.11.2.4_1","GID_0": "TCD","country": "Chad","GID_1": "TCD.11_1","province": "LogoneOccidental","NL_NAME_1": "NA","GID_2": "TCD.11.2_1","county": "LacWey","NL_NAME_2": "NA","city": "Dadjile","VARNAME_3": "NA","NL_NAME_3": "NA","TYPE_3": "Sub-prefecture","ENGTYPE_3": "Sub-prefecture","CC_3": "NA","HASC_3": "NA","name": "Dadjile.city","area_km2": 168.0518,"hist_schema_id": "Elevation0-9000","hist_area_km2": {"375": 84.0022,"400": 83.0653,"425": 0.9843}}}