{"type": "Feature","bbox": [18.6579,9.3294,18.9316,9.6165],"geometry": {"type": "MultiPolygon","coordinates": [[[[18.8474,9.3465,370.9129],[18.8559,9.3529,370.2901],[18.8688,9.3548,372.8087],[18.8806,9.3614,371.8488],[18.9152,9.3722,372.5057],[18.9316,9.3826,374.2737],[18.927,9.4109,373.1507],[18.9232,9.4222,374.9085],[18.9253,9.4407,383.8477],[18.9145,9.4512,400.8991],[18.9071,9.4501,404.2815],[18.8971,9.4549,418.0762],[18.8904,9.4627,432.4213],[18.8692,9.4946,441.0361],[18.8616,9.5076,454.7734],[18.8588,9.5228,474.5521],[18.8556,9.5312,486.7427],[18.8437,9.6008,479.3091],[18.8354,9.6146,453.5184],[18.8203,9.6165,442.0712],[18.7094,9.5771,451.5427],[18.7032,9.5708,445.9862],[18.7068,9.563,452.8466],[18.7194,9.548,438.7615],[18.7269,9.5333,424.2567],[18.7281,9.5217,424.5322],[18.7234,9.5085,434.2961],[18.7159,9.4996,449.5946],[18.691,9.4861,486.9402],[18.6579,9.4738,526.1872],[18.6627,9.4494,571.7328],[18.6774,9.4318,545.4566],[18.7075,9.4083,490.7582],[18.7352,9.3897,449.3368],[18.7817,9.3371,367.0976],[18.8032,9.3294,370.8804],[18.8355,9.3405,371.0443],[18.8474,9.3465,370.9129]]]]}
,"properties": {"GID_3": "TCD.16.3.6_1","GID_0": "TCD","country": "Chad","GID_1": "TCD.16_1","province": "Moyen-Chari","NL_NAME_1": "NA","GID_2": "TCD.16.3_1","county": "LacIro","NL_NAME_2": "NA","city": "Dindje","VARNAME_3": "NA","NL_NAME_3": "NA","TYPE_3": "Sub-prefecture","ENGTYPE_3": "Sub-prefecture","CC_3": "NA","HASC_3": "NA","name": "Dindje.city","area_km2": 546.2421,"hist_schema_id": "Elevation0-9000","hist_area_km2": {"375": 118.9836,"400": 65.5702,"425": 85.9118,"450": 73.6722,"475": 70.5527,"500": 64.4253,"525": 48.785,"550": 16.5844,"575": 1.7568}}}