{"type":"Feature","properties":{"GID_3":"TCD.2.2.3_1","GID_0":"TCD","country":"Chad","GID_1":"TCD.2_1","province":"Batha","NL_NAME_1":"NA","GID_2":"TCD.2.2_1","county":"BathaOues","NL_NAME_2":"NA","city":"Medego","VARNAME_3":"NA","NL_NAME_3":"NA","TYPE_3":"Sub-prefecture","ENGTYPE_3":"Sub-prefecture","CC_3":"NA","HASC_3":"NA","name":"Medego.city"},
"geometry":{"type": "MultiPolygon","coordinates": [[[[18.018,12.452,388.6741],[18.065,12.452,368.0968],[18.095,12.486,359.7856],[18.33,12.618,355.2905],[18.475,12.692,350.2663],[18.501,12.693,354.9444],[18.457,12.888,339.9706],[18.432,12.883,338.8126],[18.376,12.96,330.3986],[18.333,13.091,332.5609],[18.308,13.037,330.8615],[18.197,12.999,329.2985],[18.104,13.036,328.3032],[18.045,13.066,316.7076],[18.018,12.955,313.6014],[17.966,12.867,309.8369],[17.943,12.771,307.4331],[17.939,12.671,312.4636],[17.967,12.572,332.5819],[17.991,12.511,349.4035],[18.018,12.452,388.6741]]]]}}