{"type": "Feature","bbox": [16.6073,9.3697,16.7824,9.4972],"geometry": {"type": "MultiPolygon","coordinates": [[[[16.6127,9.3715,359.437],[16.6216,9.3697,359.9507],[16.6547,9.3821,357.7799],[16.7058,9.3876,358.993],[16.7258,9.3878,356.9439],[16.749,9.385,353.5453],[16.7665,9.3867,352.0757],[16.7767,9.3851,351.5596],[16.7808,9.3811,352.5571],[16.7824,9.3923,351.0601],[16.7792,9.4278,348.8288],[16.7585,9.4972,348.2534],[16.7387,9.4959,348.9866],[16.713,9.4912,349.7401],[16.6568,9.4888,350.0671],[16.644,9.4863,351.5346],[16.6101,9.4701,351.9162],[16.6073,9.4673,351.7145],[16.61,9.4374,353.1428],[16.6096,9.3792,356.9784],[16.6127,9.3715,359.437]]]]}
,"properties": {"GID_3": "TCD.20.2.1_1","GID_0": "TCD","country": "Chad","GID_1": "TCD.20_1","province": "Tandjilé","NL_NAME_1": "NA","GID_2": "TCD.20.2_1","county": "TandjiléEst","NL_NAME_2": "NA","city": "Darbe","VARNAME_3": "NA","NL_NAME_3": "NA","TYPE_3": "Sub-prefecture","ENGTYPE_3": "Sub-prefecture","CC_3": "NA","HASC_3": "NA","name": "Darbe.city","area_km2": 213.7973,"hist_schema_id": "Elevation0-9000","hist_area_km2": {"350": 213.5254,"375": 0.2719}}}