{"type": "Feature","bbox": [15.2296,8.9199,15.441,9.2446],"geometry": {"type": "MultiPolygon","coordinates": [[[[15.365,8.937,435.7984],[15.394,8.988,428.5629],[15.387,9.033,457.7555],[15.441,9.061,430.1317],[15.432,9.092,445.8777],[15.432,9.179,390.134],[15.421,9.21,386.6461],[15.411,9.2075,392.6632],[15.3923,9.2141,405.5356],[15.3761,9.2236,426.4186],[15.3553,9.2302,441.9734],[15.3498,9.2375,452.5661],[15.3316,9.2446,456.2577],[15.2793,9.1667,398.1898],[15.2717,9.1524,383.3553],[15.262,9.1274,393.4832],[15.2336,9.0712,402.226],[15.2296,9.0494,415.0922],[15.2316,9.022,416.0315],[15.2337,9.0053,431.9814],[15.2523,8.9542,443.3597],[15.2661,8.9547,427.1241],[15.297,8.9379,458.268],[15.3167,8.93,443.845],[15.326,8.9266,432.7659],[15.3336,8.9276,431.9365],[15.3569,8.9199,429.1287],[15.363,8.9199,425.5462],[15.365,8.937,435.7984]]]]}
,"properties": {"GID_3": "TCD.15.2.9_1","GID_0": "TCD","country": "Chad","GID_1": "TCD.15_1","province": "Mayo-KebbiOuest","NL_NAME_1": "NA","GID_2": "TCD.15.2_1","county": "Mayo-Dallah","NL_NAME_2": "NA","city": "Korbo/Kordo","VARNAME_3": "NA","NL_NAME_3": "NA","TYPE_3": "Sub-prefecture","ENGTYPE_3": "Sub-prefecture","CC_3": "NA","HASC_3": "NA","name": "Korbo_Kordo.city","area_km2": 553.0593,"hist_schema_id": "Elevation0-9000","hist_area_km2": {"375": 45.4435,"400": 188.7905,"425": 200.861,"450": 100.2312,"475": 17.7331}}}