{"type":"Feature","properties":{"GID_3":"TCD.14.2.5_1","GID_0":"TCD","country":"Chad","GID_1":"TCD.14_1","province":"Mayo-KebbiEst","NL_NAME_1":"NA","GID_2":"TCD.14.2_1","county":"Mayo-Boneye","NL_NAME_2":"NA","city":"Katoa","VARNAME_3":"NA","NL_NAME_3":"NA","TYPE_3":"Sub-prefecture","ENGTYPE_3":"Sub-prefecture","CC_3":"NA","HASC_3":"NA","name":"Katoa.city"},
"geometry":{"type": "MultiPolygon","coordinates": [[[[15.0482,10.9978,306.0],[15.0628,10.984,309.2719],[15.0649,10.9801,309.0226],[15.0643,10.969,307.0908],[15.0657,10.9652,309.1896],[15.0838,10.95,309.842],[15.0898,10.9015,310.1796],[15.0972,10.877,312.1199],[15.096,10.8641,310.8578],[15.0916,10.8583,311.1601],[15.0808,10.8497,311.4429],[15.0749,10.8376,311.7143],[15.0724,10.8202,311.9834],[15.0693,10.8161,310.0],[15.0698,10.8134,311.9547],[15.0739,10.8078,310.0],[15.0805,10.7865,310.5],[15.0908,10.7708,313.1487],[15.0979,10.7567,313.6342],[15.1026,10.7406,311.5],[15.1261,10.7121,314.1017],[15.117,10.7268,314.3706],[15.1387,10.7625,311.9799],[15.1475,10.783,311.0066],[15.1575,10.8015,310.613],[15.171,10.8214,310.3638],[15.2005,10.8362,310.244],[15.2152,10.8393,310.1945],[15.2413,10.8409,310.1984],[15.2554,10.8468,310.1157],[15.2698,10.8469,310.4321],[15.2906,10.8433,310.2704],[15.3006,10.8388,310.6385],[15.3108,10.8381,310.979],[15.3112,10.8472,311.8719],[15.3077,10.8672,310.6074],[15.2889,10.912,311.5052],[15.278,10.9325,308.9308],[15.2611,10.9506,308.7254],[15.2538,10.9632,308.4259],[15.2385,10.9809,308.2193],[15.208,11.0108,307.7806],[15.1941,11.0186,307.6826],[15.1518,11.0522,307.1169],[15.1123,11.0943,306.4056],[15.0994,11.1044,306.2666],[15.1005,11.0984,306.3858],[15.1093,11.0928,306.5406],[15.112,11.0846,306.6264],[15.1097,11.0839,306.4684],[15.1088,11.0797,306.7327],[15.1032,11.075,307.1157],[15.1039,11.0686,307.1758],[15.1025,11.0653,307.2397],[15.0964,11.0609,305.6143],[15.0981,11.0454,305.6774],[15.0952,11.0434,306.0645],[15.0828,11.0417,307.5372],[15.084,11.0313,307.7396],[15.0742,11.0238,307.9034],[15.0578,11.0243,308.0206],[15.0486,11.0195,307.2527],[15.0473,11.0136,308.3564],[15.0547,11.0083,308.6085],[15.0553,11.0053,308.6925],[15.0486,11.0011,307.0979],[15.0482,10.9978,306.0]]]]}}