{"type": "Feature","bbox": [16.7057,8.4687,16.8493,8.6908],"geometry": {"type": "MultiPolygon","coordinates": [[[[16.7057,8.5796,384.4736],[16.715,8.5657,390.5659],[16.7252,8.5424,396.9981],[16.7321,8.5309,395.1505],[16.7502,8.505,400.3047],[16.7649,8.4791,389.9215],[16.771,8.4727,398.021],[16.793,8.4687,400.1886],[16.8136,8.4745,399.5849],[16.8207,8.4744,398.9799],[16.8308,8.4717,400.0449],[16.8443,8.4741,395.7713],[16.8429,8.48,396.6338],[16.8442,8.4896,394.3351],[16.8379,8.4972,391.9347],[16.8332,8.5078,391.0737],[16.8307,8.5185,393.5113],[16.8292,8.5424,394.0028],[16.8317,8.5501,389.8405],[16.8493,8.5751,383.6793],[16.8401,8.579,381.1992],[16.8325,8.5919,386.5879],[16.8006,8.6062,387.1796],[16.8013,8.6386,384.5244],[16.8078,8.6645,382.7249],[16.8066,8.6682,382.9855],[16.7966,8.6761,380.2494],[16.7902,8.6775,382.986],[16.7834,8.6749,382.8291],[16.7697,8.6777,382.1183],[16.7312,8.69,390.2392],[16.7207,8.6908,387.8356],[16.7151,8.6694,392.156],[16.714,8.6564,394.4176],[16.7122,8.6159,391.6202],[16.7149,8.5962,384.5583],[16.7135,8.5874,383.901],[16.7057,8.5796,384.4736]]]]}
,"properties": {"GID_3": "TCD.12.1.3_1","GID_0": "TCD","country": "Chad","GID_1": "TCD.12_1","province": "LogoneOriental","NL_NAME_1": "NA","GID_2": "TCD.12.1_1","county": "Lanya","NL_NAME_2": "NA","city": "Bero","VARNAME_3": "NA","NL_NAME_3": "NA","TYPE_3": "Sub-prefecture","ENGTYPE_3": "Sub-prefecture","CC_3": "NA","HASC_3": "NA","name": "Bero.city","area_km2": 249.7778,"hist_schema_id": "Elevation0-9000","hist_area_km2": {"375": 88.7568,"400": 161.021}}}