{"type": "Feature","bbox": [16.3757,8.727,16.4986,8.8956],"geometry": {"type": "MultiPolygon","coordinates": [[[[16.3757,8.8112,477.2092],[16.3891,8.7976,462.7388],[16.4027,8.7762,450.9289],[16.4146,8.762,446.737],[16.45,8.727,413.3294],[16.491,8.7451,403.5429],[16.4896,8.7493,406.7904],[16.4903,8.7712,415.1207],[16.4953,8.7928,420.0591],[16.4986,8.8003,420.6812],[16.4765,8.8314,447.2295],[16.4428,8.8691,482.7208],[16.428,8.8956,471.7104],[16.4068,8.8753,493.3919],[16.3918,8.8659,495.1772],[16.3779,8.8235,475.5075],[16.3757,8.8112,477.2092]]]]}
,"properties": {"GID_3": "TCD.11.3.4_1","GID_0": "TCD","country": "Chad","GID_1": "TCD.11_1","province": "LogoneOccidental","NL_NAME_1": "NA","GID_2": "TCD.11.3_1","county": "Ngourkosso","NL_NAME_2": "NA","city": "Besseye","VARNAME_3": "NA","NL_NAME_3": "NA","TYPE_3": "Sub-prefecture","ENGTYPE_3": "Sub-prefecture","CC_3": "NA","HASC_3": "NA","name": "Besseye.city","area_km2": 145.597,"hist_schema_id": "Elevation0-9000","hist_area_km2": {"400": 3.3529,"425": 40.0019,"450": 48.5472,"475": 43.6605,"500": 10.0346}}}