{"type": "Feature","bbox": [16.958,12.125,19.121,13.552],"geometry": {"type": "MultiPolygon","coordinates": [[[[18.475,12.692,350.2663],[18.501,12.693,354.9444],[18.99,12.689,409.2924],[19.103,12.694,384.5175],[19.121,12.841,367.2593],[19.119,12.877,357.3433],[19.12,12.881,356.2407],[19.088,12.91,361.9207],[19.077,12.955,364.6428],[19.061,12.996,365.2046],[19.036,13.041,359.363],[19.031,13.102,359.938],[18.998,13.121,352.0395],[18.903,13.114,350.0274],[18.868,13.122,349.4478],[18.844,13.115,347.791],[18.796,13.146,346.895],[18.774,13.163,345.4586],[18.736,13.179,344.1618],[18.706,13.229,342.674],[18.714,13.256,343.5564],[18.722,13.297,344.9528],[18.766,13.331,346.8111],[18.637,13.358,341.153],[18.566,13.398,337.8111],[18.466,13.422,336.9965],[18.405,13.45,334.5145],[18.34,13.447,332.1059],[18.289,13.468,330.4584],[18.247,13.463,329.2791],[18.165,13.552,329.6436],[18.116,13.537,328.3568],[18.098,13.529,319.3005],[18.069,13.525,322.5416],[18.014,13.477,312.9259],[17.967,13.482,309.6087],[17.757,13.481,304.5004],[17.612,13.456,302.5169],[17.533,13.48,304.2411],[17.45,13.497,305.0779],[17.371,13.473,300.174],[17.234,13.427,300.5247],[17.241,13.21,292.3882],[17.161,13.099,288.7693],[17.13,13.046,287.5225],[17.077,13.007,287.8844],[16.997,12.937,288.4872],[16.958,12.88,288.6144],[16.974,12.857,288.722],[17.016,12.832,289.6426],[17.054,12.816,289.5462],[17.092,12.783,289.5598],[17.113,12.735,290.3555],[17.15,12.609,295.0515],[17.254,12.501,295.9987],[17.293,12.487,297.0349],[17.295,12.406,299.3244],[17.31,12.346,302.7043],[17.34,12.3,304.9272],[17.388,12.27,306.7254],[17.408,12.229,312.0338],[17.411,12.184,315.6617],[17.446,12.155,317.6791],[17.504,12.158,319.8728],[17.552,12.133,328.4498],[17.598,12.125,335.4867],[17.567,12.199,319.247],[17.608,12.239,327.8034],[17.665,12.256,327.3107],[17.671,12.279,335.0955],[17.882,12.446,358.1155],[18.018,12.452,388.6741],[18.065,12.452,368.0968],[18.095,12.486,359.7856],[18.33,12.618,355.2905],[18.475,12.692,350.2663]]]]}
,"properties": {"GID_2": "TCD.2.2_1","GID_0": "TCD","country": "Chad","GID_1": "TCD.2_1","province": "Batha","NL_NAME_1": "NA","county": "BathaOues","VARNAME_2": "Ati","NL_NAME_2": "NA","TYPE_2": "Department","ENGTYPE_2": "Department","CC_2": "NA","HASC_2": "TD.BA.BO","name": "Batha_Oues.county","area_km2": 20926.58,"hist_schema_id": "Elevation0-9000","hist_area_km2": {"275": 450.79,"300": 9516.66,"325": 5827.01,"350": 4624.31,"375": 464.54,"400": 33.32,"425": 2.52,"450": 1.7,"475": 1.39,"500": 1.32,"525": 0.83,"550": 0.74,"575": 0.39,"600": 0.29,"625": 0.29,"650": 0.23,"675": 0.17}}}