{"type":"Feature","properties":{"GID_3":"TCD.12.1.1_1","GID_0":"TCD","country":"Chad","GID_1":"TCD.12_1","province":"LogoneOriental","NL_NAME_1":"NA","GID_2":"TCD.12.1_1","county":"Lanya","NL_NAME_2":"NA","city":"Bebedjia","VARNAME_3":"NA","NL_NAME_3":"NA","TYPE_3":"Sub-prefecture","ENGTYPE_3":"Sub-prefecture","CC_3":"NA","HASC_3":"NA","name":"Bebedjia.city"},
"geometry":{"type": "MultiPolygon","coordinates": [[[[16.3858,8.7013,396.5157],[16.4005,8.6838,381.5092],[16.4223,8.6514,381.673],[16.4381,8.6327,388.323],[16.4463,8.6264,392.8044],[16.4649,8.6049,396.3986],[16.4898,8.5874,407.2902],[16.5017,8.5743,414.801],[16.5077,8.5707,417.3263],[16.5204,8.5801,410.9028],[16.5256,8.5881,407.2257],[16.5399,8.6024,406.1213],[16.546,8.6109,401.5492],[16.5614,8.6236,400.236],[16.5711,8.6236,399.8073],[16.5859,8.6195,398.4236],[16.6227,8.6202,396.5379],[16.6323,8.6175,395.6615],[16.6724,8.6021,396.1672],[16.6932,8.5902,387.1794],[16.7057,8.5796,384.4736],[16.7023,8.59,384.2402],[16.6887,8.6171,392.6309],[16.6706,8.648,392.39],[16.6667,8.659,393.1874],[16.6599,8.6999,391.1639],[16.6473,8.7161,392.317],[16.6323,8.7535,385.2421],[16.6116,8.7693,379.4038],[16.5874,8.8004,376.0881],[16.5714,8.8141,387.5098],[16.558,8.83,413.9657],[16.521,8.777,401.6826],[16.493,8.746,403.6899],[16.45,8.727,413.3294],[16.406,8.717,405.4222],[16.3858,8.7013,396.5157]]]]}}