{"type": "Feature","bbox": [14.3766,9.1087,14.616,9.4188],"geometry": {"type": "MultiPolygon","coordinates": [[[[14.4703,9.1133,364.1261],[14.4727,9.1124,361.8442],[14.475,9.1087,366.3019],[14.4888,9.1137,349.3301],[14.4974,9.119,337.9883],[14.5055,9.1284,339.8985],[14.5373,9.1562,338.4922],[14.5509,9.1661,333.2861],[14.5741,9.1907,364.0312],[14.5829,9.2025,353.9125],[14.5897,9.2038,359.2195],[14.607,9.2558,329.2543],[14.616,9.2964,354.7792],[14.6057,9.3288,384.7206],[14.6018,9.3547,380.3641],[14.6022,9.3648,380.5489],[14.5703,9.3626,401.9438],[14.5533,9.3701,400.8037],[14.5398,9.3828,398.0405],[14.5262,9.4022,384.2394],[14.4556,9.4188,368.1692],[14.438,9.4166,376.575],[14.4175,9.3537,342.7377],[14.4134,9.3276,339.9813],[14.4131,9.3136,331.8554],[14.4182,9.2885,337.5712],[14.4286,9.2702,339.987],[14.4449,9.254,310.0841],[14.4485,9.234,321.9904],[14.4452,9.2271,325.1754],[14.4099,9.2104,298.7337],[14.3958,9.2071,296.2832],[14.3766,9.2072,300.6222],[14.3808,9.1969,297.6333],[14.391,9.1861,311.5022],[14.4044,9.1774,325.5015],[14.4129,9.167,333.3809],[14.4176,9.165,328.4503],[14.4199,9.1601,332.8508],[14.4303,9.1516,342.0512],[14.4359,9.1448,342.0924],[14.4458,9.1264,359.3062],[14.4495,9.1229,359.0908],[14.4585,9.1189,359.3417],[14.4678,9.1169,365.1467],[14.4703,9.1133,364.1261]]]]}
,"properties": {"GID_3": "TCD.15.2.10_1","GID_0": "TCD","country": "Chad","GID_1": "TCD.15_1","province": "Mayo-KebbiOuest","NL_NAME_1": "NA","GID_2": "TCD.15.2_1","county": "Mayo-Dallah","NL_NAME_2": "NA","city": "Lame","VARNAME_3": "NA","NL_NAME_3": "NA","TYPE_3": "Sub-prefecture","ENGTYPE_3": "Sub-prefecture","CC_3": "NA","HASC_3": "NA","name": "Lame.city","area_km2": 550.6072,"hist_schema_id": "Elevation0-9000","hist_area_km2": {"300": 40.7705,"325": 185.8221,"350": 173.3242,"375": 97.4076,"400": 51.7766,"425": 1.5063}}}