{"type":"Feature","properties":{"GID_2":"TCD.23.3_1","GID_0":"TCD","country":"Chad","GID_1":"TCD.23_1","province":"WadiFira","NL_NAME_1":"NA","county":"Kobé","VARNAME_2":"Iriba","NL_NAME_2":"NA","TYPE_2":"Department","ENGTYPE_2":"Department","CC_2":"NA","HASC_2":"TD.BI.KO","name":"Kobé.county"},
"geometry":{"type": "MultiPolygon","coordinates": [[[[22.238,14.698,978.5652],[22.348,14.622,933.1236],[22.408,14.585,924.0171],[22.4112,14.5959,911.6144],[22.4154,14.597,910.8035],[22.4256,14.5955,912.6003],[22.4314,14.5972,912.2451],[22.4429,14.6051,911.2529],[22.4472,14.6051,909.7828],[22.452,14.5969,906.8109],[22.4559,14.6068,905.6715],[22.4666,14.616,912.9153],[22.482,14.6238,907.0789],[22.4915,14.6255,907.0278],[22.5031,14.6304,915.4242],[22.5231,14.6345,929.7848],[22.6173,14.6503,898.9309],[22.7172,14.6864,884.4572],[22.7207,14.6913,888.2014],[22.7113,14.7385,884.0064],[22.7015,14.7614,883.3069],[22.6845,14.815,896.8079],[22.6711,14.8487,872.0044],[22.6747,14.8588,863.9525],[22.685,14.8747,872.0312],[22.704,14.8906,864.5928],[22.7257,14.8972,862.4877],[22.7408,14.8947,865.8711],[22.7444,14.8973,858.0091],[22.7524,14.8991,856.9412],[22.7571,14.9028,852.3959],[22.7599,14.91,850.8306],[22.7594,14.9173,856.4803],[22.7529,14.9359,847.7367],[22.75,14.937,843.5265],[22.7496,14.9504,845.9999],[22.7531,14.9651,843.695],[22.7569,14.9722,840.7384],[22.7671,14.9845,841.921],[22.777,14.9944,848.8508],[22.7924,15.0061,843.2418],[22.8142,15.0295,842.884],[22.8346,15.0444,831.6606],[22.838,15.0452,830.0778],[22.8522,15.0548,827.5885],[22.8707,15.0831,823.274],[22.8929,15.0944,820.4557],[22.9073,15.0954,818.0425],[22.9158,15.0932,817.8898],[22.921,15.0934,816.652],[22.9401,15.1075,813.4918],[22.9389,15.1112,813.042],[22.9397,15.1252,812.245],[22.9306,15.1575,811.0231],[22.9317,15.1658,809.0717],[22.936,15.172,808.1675],[22.9468,15.181,809.049],[22.965,15.1909,807.0387],[22.9692,15.1916,805.0983],[22.9753,15.1963,805.2771],[22.9789,15.2011,804.3767],[22.9868,15.2213,802.9803],[22.992,15.228,806.6649],[22.9969,15.2315,802.8595],[22.9997,15.2372,801.96],[22.9902,15.2559,799.9195],[22.9868,15.2595,799.5153],[22.9912,15.286,797.1008],[22.9992,15.2961,796.1636],[23.0039,15.3086,795.0527],[22.9995,15.3223,793.6329],[22.9933,15.3303,793.3932],[22.9911,15.3406,792.2599],[22.9904,15.3706,791.0453],[22.9964,15.3911,790.1813],[22.9969,15.3984,789.7124],[22.9902,15.4159,788.2842],[22.9638,15.4381,786.9473],[22.9496,15.4467,787.101],[22.9303,15.4652,785.0148],[22.925,15.4771,784.9669],[22.9221,15.4886,784.5778],[22.9282,15.5143,782.3762],[22.9243,15.5249,782.1505],[22.9261,15.5405,782.1483],[22.9306,15.5508,780.2343],[22.9473,15.572,778.8798],[22.9544,15.5787,778.2023],[22.9619,15.5812,777.707],[22.975,15.5799,776.8517],[22.9894,15.5807,776.6964],[22.9967,15.5837,780.076],[23.0047,15.5894,777.8398],[23.0226,15.6088,774.1534],[23.0248,15.6088,773.6868],[23.0259,15.6118,773.4957],[23.0359,15.6178,774.2616],[23.0427,15.6272,772.7756],[23.0544,15.6534,770.8445],[23.0577,15.6571,771.1503],[23.0773,15.6632,770.9109],[23.0854,15.6685,784.5355],[23.106,15.6906,769.0],[23.1152,15.7048,770.2879],[23.1223,15.7099,770.3879],[23.1315,15.7106,769.5574],[23.089,15.755,777.9189],[23.043,15.799,777.6621],[22.992,15.821,781.9335],[22.96,15.807,794.0925],[22.9,15.799,811.1177],[22.854,15.806,808.0997],[22.823,15.835,812.4279],[22.798,15.842,813.5474],[22.734,15.818,849.6559],[22.602,15.797,893.6592],[22.549,15.812,918.0264],[22.543,15.872,861.4257],[22.524,15.89,847.3704],[22.414,15.919,756.899],[22.37,15.896,740.0962],[22.324,15.889,754.8015],[22.277,15.903,694.6256],[22.213,15.948,671.0042],[22.183,15.934,694.7401],[22.161,15.955,670.6326],[22.125,15.966,656.0295],[22.074,15.954,666.6024],[21.971,15.918,640.2643],[21.897,15.929,625.6002],[21.746,15.962,580.8164],[21.672,15.931,608.6798],[21.634,15.819,589.6953],[21.593,15.733,573.2524],[21.57,15.626,565.2358],[21.564,15.537,575.7991],[21.532,15.453,581.0582],[21.492,15.379,585.0834],[21.443,15.294,563.1599],[21.402,15.244,581.7827],[21.368,15.219,590.9688],[21.321,15.189,584.4537],[21.252,15.177,523.7397],[21.188,15.176,518.2006],[21.104,15.114,507.1852],[21.026,15.039,556.4601],[21.009,14.974,491.4232],[21.006,14.917,484.9277],[21.082,14.915,504.8307],[21.157,14.889,602.5052],[21.241,14.876,552.3905],[21.322,14.834,611.61],[21.391,14.787,610.7646],[21.438,14.74,594.3723],[21.469,14.718,658.7634],[21.496,14.777,639.6626],[21.553,14.81,826.4775],[21.653,14.88,775.4323],[21.777,14.96,930.4042],[21.924,14.982,963.4553],[22.022,14.976,963.542],[22.079,14.905,976.9131],[22.157,14.795,962.8562],[22.238,14.698,978.5652]]]]}}