{"type": "Feature","bbox": [18.874,11.0003,20.1647,12.123],"geometry": {"type": "MultiPolygon","coordinates": [[[[20.1369,11.2709,429.5761],[20.1239,11.2974,430.5741],[20.1183,11.3231,428.0617],[20.1285,11.3909,431.0343],[20.1173,11.4197,431.8771],[20.1077,11.4431,430.9186],[20.0872,11.4685,432.3222],[20.0668,11.5189,444.9986],[20.0518,11.5371,450.0291],[20.0086,11.576599999999999,453.1613],[19.9889,11.602,465.3884],[19.9772,11.6222,443.4659],[19.9716,11.6483,450.8181],[19.972,11.6779,448.929],[19.974,11.699,446.027],[19.996,11.7488,449.0673],[20.027,11.7811,465.8402],[20.038,11.8027,458.6017],[20.0922,11.8831,463.6566],[20.1191,11.9328,456.1414],[20.1414,11.9995,465.7468],[20.1481,12.0359,448.9471],[20.019,12.027,453.5631],[20.011,11.982,439.2983],[19.97,11.965,441.1681],[19.9211,11.96,452.718],[19.912,12.029,443.866],[19.906,12.04,451.161],[19.751,12.053,467.2791],[19.58,12.083,447.7868],[19.496,12.109,458.2919],[19.465,12.123,465.6407],[19.313,11.982,461.8651],[19.341,11.855,452.2736],[19.256,11.726,465.2962],[19.215,11.638,474.1238],[19.088,11.6,500.8874],[19.055,11.689,509.9269],[18.902,11.692,498.0441],[18.874,11.477,477.4404],[18.883,11.402,471.2256],[18.902,11.331,444.3339],[18.967,11.313,444.1942],[19.001,11.273,439.4542],[19.056,11.245,437.6089],[19.13,11.217,434.831],[19.192,11.187,434.7756],[19.238,11.179,438.206],[19.261,11.154,431.0555],[19.405,11.104,431.26],[19.479,11.048,423.7961],[19.57,11.034,417.7849],[19.657,11.003,417.8885],[19.7245,11.0003,416.4039],[19.7624,11.0013,417.7283],[19.8029,11.0154,417.1644],[19.8507,11.0386,418.1381],[19.8806,11.0464,420.8948],[19.93,11.0764,421.1754],[20.0129,11.1187,425.5287],[20.0465,11.119,425.4001],[20.0661,11.1248,427.1936],[20.0897,11.136,427.9138],[20.1426,11.1652,431.5939],[20.1594,11.1786,429.6739],[20.1647,11.1948,430.4515],[20.1519,11.2195,427.4196],[20.15,11.2444,427.2462],[20.1369,11.2709,429.5761]]]]}
,"properties": {"GID_2": "TCD.18.1_1","GID_0": "TCD","country": "Chad","GID_1": "TCD.18_1","province": "Salamat","NL_NAME_1": "NA","county": "Aboudeïa","VARNAME_2": "AbouDeia","NL_NAME_2": "NA","TYPE_2": "Department","ENGTYPE_2": "Department","CC_2": "NA","HASC_2": "TD.SA.AD","name": "Aboudeïa.county","area_km2": 11454.467,"hist_schema_id": "Elevation0-9000","hist_area_km2": {"425": 4035.486,"450": 4722.178,"475": 1866.191,"500": 395.821,"525": 159.811,"550": 88.923,"575": 57.489,"600": 39.31,"625": 25.41,"650": 17.162,"675": 14.731,"700": 9.952,"725": 7.5,"750": 5.631,"775": 3.636,"800": 2.306,"825": 1.247,"850": 0.852,"875": 0.457,"900": 0.27,"925": 0.104}}}