{"type": "Feature","bbox": [15.573,8.281,16.3918,9.129],"geometry": {"type": "MultiPolygon","coordinates": [[[[15.834,8.403,441.9726],[15.862,8.435,438.1562],[15.918,8.462,422.4141],[15.958,8.491,411.5927],[15.99,8.512,404.5541],[15.996,8.536,403.8359],[16.043,8.558,395.0],[16.077,8.569,401.4833],[16.117,8.608,390.5021],[16.203,8.634,391.0815],[16.273,8.66,391.6723],[16.351,8.655,383.8521],[16.369,8.685,381.7602],[16.3648,8.7099,407.5217],[16.3597,8.7236,426.1757],[16.3569,8.7371,438.3495],[16.3522,8.7474,446.7303],[16.3497,8.7685,462.2604],[16.3561,8.7841,471.2579],[16.3685,8.8034,486.148],[16.3757,8.8112,477.2092],[16.3779,8.8235,475.5075],[16.3918,8.8659,495.1772],[16.3541,8.8693,496.7645],[16.3437,8.8649,506.2834],[16.3213,8.8591,522.8636],[16.3034,8.8718,525.6646],[16.2832,8.8919,526.6238],[16.2081,8.8786,517.5581],[16.2105,8.8912,527.04],[16.209,8.922,534.5343],[16.2057,8.9341,519.0082],[16.1852,8.9765,496.5606],[16.1762,9.0174,446.6942],[16.1642,9.0421,422.6937],[16.1542,9.0795,395.884],[16.133,9.083,390.2533],[16.088,9.102,393.6171],[16.044,9.128,382.7423],[15.984,9.129,379.4662],[15.959,9.113,387.1385],[15.929,9.061,398.0057],[15.893,9.052,382.0798],[15.859,9.053,399.7435],[15.819,9.039,428.053],[15.778,9.051,396.6694],[15.713,9.051,389.4253],[15.652,9.061,437.2389],[15.602,9.033,420.9954],[15.573,9.023,437.222],[15.5833,9.0132,422.518],[15.5945,8.994,426.2534],[15.6081,8.9766,409.7332],[15.6705,8.9229,393.8196],[15.6998,8.8881,387.1127],[15.7111,8.8692,390.7148],[15.7349,8.8512,392.2323],[15.753,8.8487,389.2476],[15.7708,8.8203,391.0459],[15.7788,8.7963,400.447],[15.7817,8.7804,411.1766],[15.7697,8.7437,443.1909],[15.7441,8.7115,437.9657],[15.7332,8.704,449.2393],[15.7253,8.6933,447.8641],[15.7119,8.6799,439.3129],[15.679,8.6221,440.028],[15.6745,8.6109,433.4726],[15.6732,8.6024,428.8616],[15.6699,8.5971,424.0016],[15.6553,8.5302,456.5999],[15.6769,8.5051,451.9366],[15.6775,8.4871,446.9113],[15.662,8.4718,439.3647],[15.63,8.4651,432.6291],[15.6112,8.4508,457.1255],[15.5982,8.4336,459.1729],[15.585,8.4043,477.9656],[15.5797,8.3614,517.3618],[15.5856,8.2964,479.2807],[15.581,8.281,466.2848],[15.607,8.286,466.4526],[15.648,8.311,461.4268],[15.685,8.33,450.4518],[15.768,8.337,434.3221],[15.803,8.334,421.8107],[15.822,8.364,456.2755],[15.834,8.403,441.9726]]]]}
,"properties": {"GID_2": "TCD.11.2_1","GID_0": "TCD","country": "Chad","GID_1": "TCD.11_1","province": "LogoneOccidental","NL_NAME_1": "NA","county": "LacWey","VARNAME_2": "Moundou","NL_NAME_2": "NA","TYPE_2": "Department","ENGTYPE_2": "Department","CC_2": "NA","HASC_2": "TD.LO.LW","name": "Lac_Wey.county","area_km2": 4363.356,"hist_schema_id": "Elevation0-9000","hist_area_km2": {"375": 198.755,"400": 866.76,"425": 994.252,"450": 1087.706,"475": 705.084,"500": 325.513,"525": 155.897,"550": 29.389}}}