{"type": "Feature","bbox": [15.573,8.7804,15.9327,9.061],"geometry": {"type": "MultiPolygon","coordinates": [[[[15.7817,8.7804,411.1766],[15.7911,8.7806,404.7886],[15.8265,8.7914,426.8326],[15.8506,8.8062,424.5772],[15.87,8.8155,452.19],[15.8957,8.8181,484.9973],[15.9177,8.8147,490.539],[15.9327,8.8178,479.1235],[15.9199,8.8588,426.9868],[15.9205,8.8767,412.5073],[15.91,8.9148,396.6193],[15.9019,8.9294,393.6695],[15.9056,8.9603,393.3274],[15.9109,8.9814,398.606],[15.9205,9.0028,392.0129],[15.929,9.061,398.0057],[15.893,9.052,382.0798],[15.859,9.053,399.7435],[15.819,9.039,428.053],[15.778,9.051,396.6694],[15.713,9.051,389.4253],[15.652,9.061,437.2389],[15.602,9.033,420.9954],[15.573,9.023,437.222],[15.5833,9.0132,422.518],[15.5945,8.994,426.2534],[15.6081,8.9766,409.7332],[15.6705,8.9229,393.8196],[15.6998,8.8881,387.1127],[15.7111,8.8692,390.7148],[15.7349,8.8512,392.2323],[15.753,8.8487,389.2476],[15.7708,8.8203,391.0459],[15.7788,8.7963,400.447],[15.7817,8.7804,411.1766]]]]}
,"properties": {"GID_3": "TCD.11.2.8_1","GID_0": "TCD","country": "Chad","GID_1": "TCD.11_1","province": "LogoneOccidental","NL_NAME_1": "NA","GID_2": "TCD.11.2_1","county": "LacWey","NL_NAME_2": "NA","city": "Krim-Krim","VARNAME_3": "NA","NL_NAME_3": "NA","TYPE_3": "Sub-prefecture","ENGTYPE_3": "Sub-prefecture","CC_3": "NA","HASC_3": "NA","name": "Krim-Krim.city","area_km2": 756.0083,"hist_schema_id": "Elevation0-9000","hist_area_km2": {"375": 71.2228,"400": 353.7979,"425": 275.7036,"450": 44.18,"475": 10.7897,"500": 0.3143}}}