{"type": "Feature","bbox": [15.421,9.023,17.591,10.265],"geometry": {"type": "MultiPolygon","coordinates": [[[[15.959,9.113,387.1385],[15.984,9.129,379.4662],[16.044,9.128,382.7423],[16.088,9.102,393.6171],[16.133,9.083,390.2533],[16.157,9.079,399.7266],[16.187,9.098,400.7762],[16.202,9.122,391.6862],[16.214,9.154,374.6972],[16.239,9.165,368.3464],[16.279,9.175,365.2005],[16.289,9.181,363.9789],[16.335,9.225,360.7455],[16.364,9.245,359.631],[16.381,9.21,359.8554],[16.411,9.181,360.4333],[16.414,9.15,362.1847],[16.427,9.118,362.8237],[16.467,9.132,371.9079],[16.543,9.153,414.5497],[16.596,9.149,432.51369999999997],[16.624,9.125,460.9213],[16.654,9.106,494.6443],[16.684,9.113,499.8199],[16.772,9.071,471.314],[16.986,9.05,469.8042],[17.134,9.078,521.037],[17.222,9.166,385.2345],[17.075,9.261,369.5257],[17.201,9.355,356.5549],[17.228,9.371,359.8567],[17.23,9.393,353.8706],[17.228,9.47,350.1866],[17.257,9.492,346.1147],[17.216,9.545,344.8169],[17.209,9.576,344.3195],[17.251,9.596,343.4028],[17.288,9.601,342.7347],[17.317,9.594,346.197],[17.347,9.599,349.9286],[17.371,9.612,352.1404],[17.427,9.62,354.5831],[17.449,9.632,349.2567],[17.484,9.641,348.5521],[17.507,9.616,351.873],[17.554,9.597,353.9871],[17.575,9.624,355.0051],[17.591,9.673,352.9009],[17.521,9.74,358.116],[17.461,9.785,353.3111],[17.381,9.826,347.7145],[17.322,9.827,349.4396],[17.256,9.84,347.0449],[17.218,9.857,344.1806],[17.188,9.871,342.9179],[17.164,9.92,343.3952],[17.098,9.931,339.2692],[17.04,9.945,341.1867],[16.974,9.949,339.481],[16.942,9.945,340.0063],[16.929,9.971,340.1117],[16.897,9.99,340.8295],[16.81,10.014,335.6171],[16.776,10.01,336.5892],[16.768,10.031,335.0215],[16.746,10.034,336.9871],[16.738,10.053,336.2613],[16.713,10.066,335.698],[16.69,10.067,335.1111],[16.662,10.071,331.3207],[16.646,10.095,335.7249],[16.648,10.117,334.3327],[16.639,10.134,335.8983],[16.626,10.146,331.8474],[16.619,10.171,331.1797],[16.617,10.193,330.7089],[16.623,10.234,333.2465],[16.602,10.236,333.7292],[16.584,10.265,333.5002],[16.483,10.2,337.5361],[16.23,10.202,337.0044],[16.1939,10.2092,334.0323],[16.238,10.18,335.2886],[16.243,10.086,337.7897],[16.263,10.031,338.642],[16.2291,9.9835,340.1557],[16.2179,9.9487,340.8017],[16.2017,9.911,341.8141],[16.1853,9.8858,342.2502],[16.1663,9.8641,342.6313],[16.138,9.8104,344.6029],[16.1064,9.7772,345.7029],[16.0945,9.7612,344.8204],[16.0675,9.7405,345.498],[16.0325,9.7019,345.8074],[15.9977,9.6843,345.4254],[15.9644,9.6622,344.6534],[15.9328,9.6542,344.3931],[15.9145,9.6558,343.8254],[15.8892,9.6761,343.2586],[15.8809,9.7014,341.6504],[15.8654,9.7113,340.2084],[15.8531,9.713,342.3989],[15.8414,9.7169,342.1716],[15.8217,9.715,341.4856],[15.8027,9.7165,341.1225],[15.7967,9.7192,340.777],[15.7938,9.7247,340.7392],[15.755,9.708,339.6074],[15.727,9.676,338.456],[15.714,9.602,348.4015],[15.682,9.586,350.418],[15.675,9.525,359.0696],[15.665,9.504,360.5041],[15.611,9.459,357.2895],[15.566,9.419,355.2267],[15.484,9.319,395.1607],[15.475,9.289,387.5073],[15.445,9.242,391.9383],[15.421,9.21,386.6461],[15.432,9.179,390.134],[15.432,9.092,445.8777],[15.441,9.061,430.1317],[15.573,9.023,437.222],[15.602,9.033,420.9954],[15.652,9.061,437.2389],[15.713,9.051,389.4253],[15.778,9.051,396.6694],[15.819,9.039,428.053],[15.859,9.053,399.7435],[15.893,9.052,382.0798],[15.929,9.061,398.0057],[15.959,9.113,387.1385]]]]}
,"properties": {"GID_1": "TCD.20_1","GID_0": "TCD","country": "Chad","province": "Tandjilé","VARNAME_1": "Tandjile","NL_NAME_1": "NA","TYPE_1": "Région","ENGTYPE_1": "Region","CC_1": "NA","HASC_1": "TD.TA","ISO_1": "NA","name": "Tandjilé.province","area_km2": 17604.68,"hist_schema_id": "Elevation0-9000","hist_area_km2": {"325": 969.17,"350": 12135.99,"375": 2320.71,"400": 890.05,"425": 538.73,"450": 431.86,"475": 247.31,"500": 62.05,"525": 8.5,"550": 0.31}}}