{"type": "Feature","id": "1487","bbox": [15.4378,8.99113,17.56103,10.25167],"geometry": {"type": "Polygon","coordinates": [[[16.75369,10.02357,335.7252],[16.74717,10.02394,338.0487],[16.73989,10.02647,337.4276],[16.73038,10.03319,337.0469],[16.72542,10.03856,336.7591],[16.72185,10.04383,336.0992],[16.71767,10.04848,335.8133],[16.71147,10.05282,336.2275],[16.64413,10.0859,335.7162],[16.63623,10.0921,335.3954],[16.63297,10.09561,335.6685],[16.63018,10.09964,335.5321],[16.62785,10.10419,336.6437],[16.62289,10.1262,335.0814],[16.62072,10.13075,336.1804],[16.60997,10.14098,335.7296],[16.6078,10.14543,334.5375],[16.60687,10.15122,332.9407],[16.60889,10.17695,332.9555],[16.60811,10.20263,334.0513],[16.60703,10.20821,334.5502],[16.60501,10.21312,334.4097],[16.60207,10.21705,334.5783],[16.59866,10.22046,334.3765],[16.58703,10.22976,334.0406],[16.58377,10.23343,334.4138],[16.58098,10.23751,333.9626],[16.57866,10.24206,333.7098],[16.57587,10.24614,333.9251],[16.57261,10.24981,334.1456],[16.56812,10.25167,335.329],[16.56222,10.25085,334.7204],[16.50073,10.20413,334.4275],[16.44022,10.19287,333.9731],[16.2194,10.19586,333.3519],[16.2286,10.18646,335.3801],[16.24193,10.16517,335.5736],[16.24395,10.16031,335.4439],[16.24627,10.14972,336.0486],[16.24131,10.0952,337.2535],[16.24333,10.07158,337.3906],[16.23465,10.02378,338.8889],[16.2115,9.95521,340.1636],[16.16649,9.86679,342.8779],[16.15842,9.85573,343.5018],[15.97394,9.68323,345.4303],[15.96789,9.68251,344.7515],[15.962,9.6884,345.2248],[15.91219,9.73119,339.1932],[15.88826,9.74044,342.5522],[15.85446,9.74287,337.473],[15.84444,9.74519,341.0091],[15.83069,9.74132,341.6046],[15.71633,9.60407,350.084],[15.70843,9.59084,348.3289],[15.70517,9.57833,351.6239],[15.67603,9.49968,360.3214],[15.67417,9.49591,359.8121],[15.6706,9.49146,358.7124],[15.5981,9.41865,359.383],[15.57608,9.39023,351.2442],[15.56911,9.3723,351.0],[15.56012,9.35953,366.644],[15.55391,9.35333,369.9749],[15.54332,9.34806,364.0194],[15.5396,9.34413,362.4723],[15.53185,9.33359,364.1182],[15.52394,9.32584,359.0075],[15.51542,9.31375,356.8785],[15.50394,9.28982,371.1884],[15.50172,9.28657,370.9601],[15.47614,9.24088,376.679],[15.46932,9.23375,372.4205],[15.46188,9.22424,368.0308],[15.44529,9.19551,371.9657],[15.43826,9.18683,377.7588],[15.4378,9.18518,375.0709],[15.43857,9.18409,376.0456],[15.44219,9.1827,418.7373],[15.44415,9.17872,413.283],[15.44601,9.17381,397.5513],[15.45134,9.15086,395.4113],[15.45165,9.14234,401.5347],[15.44917,9.1196,416.3116],[15.44994,9.06746,419.772],[15.45242,9.04999,427.8428],[15.46389,9.02674,431.667],[15.48048,9.01299,444.7409],[15.48901,9.00772,436.6676],[15.50921,8.99826,446.4359],[15.51852,8.99485,452.035],[15.5303,8.99232,466.8257],[15.54332,8.99113,464.741],[15.56973,8.99139,439.0486],[15.59562,8.99423,426.0184],[15.7553,9.03221,381.0227],[15.79333,9.02539,406.7109],[15.81814,9.02508,428.5515],[15.82945,9.02844,422.277],[15.97813,9.10611,376.0594],[16.00143,9.11397,376.8081],[16.02205,9.11727,377.9666],[16.03352,9.11789,384.2029],[16.04236,9.11712,385.3828],[16.14137,9.08833,383.2326],[16.14695,9.08854,386.4858],[16.15424,9.09175,393.725],[16.1623,9.09758,394.9734],[16.17455,9.11185,389.4807],[16.1884,9.13701,389.5051],[16.19723,9.149,389.9229],[16.20421,9.15593,378.612],[16.21212,9.16073,370.8701],[16.24922,9.1768,373.1325],[16.27185,9.18414,372.3611],[16.29408,9.189,362.8264],[16.30431,9.19241,361.8882],[16.31113,9.19696,361.9594],[16.31935,9.20393,361.219],[16.34823,9.23365,360.8124],[16.35743,9.23871,358.8662],[16.37102,9.23758,359.1266],[16.37908,9.22507,360.3532],[16.42053,9.18084,361.2664],[16.43324,9.15138,362.4028],[16.43396,9.13608,362.7075],[16.43536,9.12761,362.9042],[16.45298,9.12782,374.6606],[16.51582,9.14042,403.312],[16.54372,9.1398,426.2779],[16.56874,9.13608,450.0279],[16.61323,9.12394,466.9653],[16.65343,9.10766,495.0235],[16.66723,9.10038,489.7459],[16.71999,9.08864,483.8713],[16.75043,9.07676,474.6213],[16.9191,9.03614,450.498],[16.94499,9.0349,453.6161],[16.99899,9.03748,450.5139],[17.10483,9.06978,504.4784],[17.18027,9.14694,402.2198],[17.18565,9.15655,390.3944],[17.18245,9.16414,385.5522],[17.17278,9.17329,385.1417],[17.07925,9.24243,371.7394],[17.06865,9.25282,371.8174],[17.06323,9.26336,369.0033],[17.07196,9.27551,368.4955],[17.20198,9.37726,355.9236],[17.21004,9.38599,354.9114],[17.21144,9.39519,353.1698],[17.21082,9.40759,352.1999],[17.20678,9.43482,353.5425],[17.20694,9.45167,349.1302],[17.20911,9.47002,351.34],[17.21764,9.49596,350.5218],[17.21826,9.50733,348.4706],[17.21686,9.51456,346.7198],[17.21454,9.51901,345.9523],[17.21252,9.53043,345.4968],[17.21082,9.53544,345.0131],[17.2074,9.53895,345.1707],[17.1995,9.54484,342.7593],[17.19764,9.5497,343.9417],[17.19764,9.55539,343.7008],[17.19888,9.56086,343.6139],[17.20446,9.5682,344.3181],[17.21345,9.57673,344.8922],[17.23422,9.59202,344.6796],[17.24544,9.59807,342.422],[17.25459,9.60148,343.9091],[17.30099,9.59921,342.9536],[17.30688,9.60014,344.2385],[17.3337,9.60861,343.3077],[17.34771,9.61709,344.342],[17.35391,9.61998,343.2909],[17.36026,9.62184,344.3501],[17.366,9.62257,344.6727],[17.38491,9.62164,346.401],[17.39592,9.62277,343.4668],[17.40026,9.62391,345.6796],[17.4029,9.62499,344.8104],[17.42806,9.63941,346.4685],[17.43814,9.64303,347.1396],[17.44372,9.64375,346.6371],[17.44977,9.64344,347.7186],[17.45519,9.64189,346.4481],[17.45974,9.63921,348.6819],[17.46325,9.63579,350.5878],[17.46641,9.63213,353.3636],[17.47214,9.62412,357.7013],[17.47524,9.6205,355.248],[17.47896,9.61724,355.837],[17.48842,9.61228,349.8795],[17.49788,9.60918,350.7345],[17.50578,9.60748,349.54],[17.51607,9.60422,352.4344],[17.52072,9.60179,354.2482],[17.52459,9.59879,354.2918],[17.53359,9.58805,352.5356],[17.53653,9.58706,350.7409],[17.53963,9.59177,352.4296],[17.55917,9.64086,353.3376],[17.56103,9.65362,352.8078],[17.55839,9.66318,354.4462],[17.54382,9.68396,356.5128],[17.52273,9.70525,358.9037],[17.42729,9.7748,352.3663],[17.35339,9.81175,350.3735],[17.3475,9.81397,351.2802],[17.34052,9.81553,350.8239],[17.32952,9.81584,352.1079],[17.31463,9.8148,352.3128],[17.30704,9.81573,350.9357],[17.29789,9.81826,351.45],[17.28389,9.82472,348.1204],[17.26978,9.82927,348.2522],[17.25645,9.83072,347.7971],[17.24156,9.82891,345.7772],[17.23505,9.82937,345.8546],[17.22756,9.83185,345.2626],[17.21826,9.83909,343.7765],[17.19919,9.85092,344.6371],[17.16394,9.86808,346.6133],[17.15619,9.87433,344.9768],[17.1534,9.87831,343.5775],[17.15077,9.8826,344.9951],[17.13806,9.91066,343.0219],[17.1348,9.91433,342.689],[17.13015,9.91697,342.7177],[17.12457,9.91852,343.5407],[17.1163,9.91784,341.9926],[17.10436,9.91443,343.1809],[17.10002,9.91412,343.6202],[17.09599,9.91609,343.0047],[17.09366,9.92095,339.9379],[17.08328,9.92596,342.5464],[17.0654,9.93149,345.037],[17.02897,9.93898,341.6583],[16.99992,9.94156,341.2024],[16.99419,9.94063,341.881],[16.94391,9.93717,341.0981],[16.93693,9.93852,341.1472],[16.93011,9.94193,340.6827],[16.92251,9.95081,341.6299],[16.91538,9.96942,339.2067],[16.91166,9.97262,339.9059],[16.89843,9.98048,338.966],[16.89083,9.98688,339.0023],[16.88541,9.99484,339.0765],[16.88277,9.99789,339.5688],[16.87983,10.00011,335.5778],[16.85006,10.00022,340.0388],[16.83032,10.0044,339.9087],[16.82164,10.00766,339.6954],[16.80428,10.01898,334.7136],[16.7956,10.02239,337.5048],[16.76903,10.02497,335.8858],[16.75369,10.02357,335.7252]]]}
,"properties": {"ISO3166-1-Alpha-3": "TCD","country": "Chad","fill": "#000","name": "Tandjilé","area_km2": 17360.81,"hist_schema_id": "Elevation0-9000","hist_area_km2": {"325": 899.44,"350": 11911.0,"375": 2229.04,"400": 880.04,"425": 591.6,"450": 491.94,"475": 284.98,"500": 67.37,"525": 5.09,"550": 0.31}}}