{"type": "Feature","id": "5581","bbox": [15.59046,13.04758,17.99289,16.34187],"geometry": {"type": "Polygon","coordinates": [[[17.99289,15.61641,279.9272],[17.90912,15.70798,279.3833],[17.86349,15.7764,276.2386],[17.85527,15.78457,275.7452],[17.84282,15.79252,274.1056],[16.67139,16.34187,232.9447],[16.48908,16.03738,274.181],[16.26443,15.26129,311.9597],[16.13167,14.81198,319.3793],[16.11125,14.57711,309.9484],[16.04998,14.47499,314.7046],[15.77427,14.14822,311.6881],[15.59046,14.07674,310.6556],[15.60072,13.75393,283.8117],[15.71618,13.75492,295.701],[15.72197,13.75699,295.4974],[15.7261,13.75999,292.4199],[15.74848,13.78665,285.2077],[15.75235,13.78955,286.8004],[15.75824,13.79017,285.9146],[15.76413,13.7896,288.5785],[15.77545,13.78655,292.9509],[15.79628,13.77869,289.7492],[15.81984,13.77311,290.8413],[15.84175,13.76578,282.2273],[15.84733,13.76221,290.0824],[15.8526,13.75689,287.4182],[15.85741,13.7451,285.9662],[15.86144,13.73027,286.5697],[15.86532,13.70717,295.2254],[15.86501,13.70092,288.8936],[15.85989,13.68816,289.4219],[15.8416,13.65653,293.1227],[15.84005,13.65012,285.7521],[15.8402,13.64263,283.0999],[15.85074,13.60899,290.5168],[15.85338,13.59545,287.8085],[15.85818,13.58124,288.7042],[15.86051,13.57685,292.5811],[15.86981,13.56527,292.8089],[15.89095,13.54377,288.8315],[15.89653,13.5355,289.5708],[15.89839,13.5215,294.908],[15.89994,13.25046,288.5052],[15.89699,13.22679,292.7774],[15.88361,13.18788,285.399],[15.96526,13.12199,285.1739],[15.97022,13.11352,284.5871],[15.98681,13.0515,287.0054],[15.99998,13.04758,287.7453],[16.24689,13.05197,290.629],[16.25666,13.05347,287.4827],[16.27154,13.05838,287.9595],[16.29129,13.06788,288.731],[16.3071,13.07316,291.2532],[16.31485,13.07434,286.9536],[16.32493,13.07445,289.0417],[16.36172,13.06918,289.4501],[16.37288,13.06608,292.5392],[16.39665,13.06463,287.6516],[16.40983,13.06184,288.2308],[16.42425,13.05497,287.5523],[16.43495,13.0513,287.9738],[16.44099,13.05026,287.5635],[16.44781,13.05099,287.6212],[16.45639,13.05517,287.8013],[16.46182,13.05905,287.5934],[16.47267,13.07042,287.4273],[16.48073,13.07631,285.8903],[16.48941,13.08163,287.9048],[16.71937,13.11305,288.0384],[16.731,13.1161,288.7481],[16.74004,13.12065,287.8083],[16.74841,13.12612,287.2816],[16.76345,13.13956,289.4492],[16.77074,13.14318,290.4929],[16.78066,13.147,288.1531],[16.80118,13.15253,288.9216],[16.81079,13.15687,287.0382],[16.81869,13.15951,287.7969],[16.82412,13.15982,288.2292],[16.83885,13.15124,287.7245],[16.84727,13.14726,288.9244],[16.87192,13.14297,288.033],[16.88014,13.14318,287.9651],[16.89766,13.14979,288.2953],[16.90887,13.15248,288.7705],[16.96628,13.16049,288.9901],[16.97403,13.16292,287.9636],[16.97993,13.16571,288.1985],[16.99372,13.17961,289.0085],[16.99729,13.18209,288.3282],[17.00582,13.18235,289.8779],[17.05966,13.17057,289.9495],[17.1317,13.144,288.6817],[17.19562,13.23526,292.1346],[17.20213,13.25097,292.6932],[17.20384,13.27082,287.2473],[17.19702,13.50062,302.5103],[17.19779,13.5107,303.3532],[17.22911,13.69648,296.6919],[17.23252,13.70934,296.0928],[17.23815,13.72061,295.2395],[17.24962,13.72769,296.0577],[17.55141,13.82009,293.9532],[17.99289,15.61641,279.9272]]]}
,"properties": {"ISO3166-1-Alpha-3": "TCD","country": "Chad","fill": "#F0F","name": "Barh El Gazel","area_km2": 56801.24,"hist_schema_id": "Elevation0-9000","hist_area_km2": {"225": 11.72,"250": 493.36,"275": 26119.07,"300": 28941.44,"325": 1235.58}}}