{"type":"Feature","properties":{"GID_3":"TCD.19.1.2_1","GID_0":"TCD","country":"Chad","GID_1":"TCD.19_1","province":"Sila","NL_NAME_1":"NA","GID_2":"TCD.19.1_1","county":"DjourfAlAhmar","NL_NAME_2":"NA","city":"Bandala","VARNAME_3":"NA","NL_NAME_3":"NA","TYPE_3":"Sub-prefecture","ENGTYPE_3":"Sub-prefecture","CC_3":"NA","HASC_3":"NA","name":"Bandala.city"},
"geometry":{"type": "MultiPolygon","coordinates": [[[[20.49,12.538,445.7251],[20.531,12.461,461.8607],[20.547,12.451,461.3989],[20.589,12.449,461.0326],[20.639,12.458,456.798],[20.673,12.468,464.7399],[20.712,12.505,479.2611],[20.76,12.526,467.8607],[20.779,12.583,462.7729],[20.782,12.683,467.5707],[20.745,12.713,469.9461],[20.618,12.718,457.3506],[20.578,12.71,450.6967],[20.537,12.697,443.1288],[20.485,12.7,442.7616],[20.469,12.685,444.9947],[20.45,12.621,438.5024],[20.464,12.588,449.3632],[20.489,12.543,446.1188],[20.49,12.538,445.7251]]]]}}