{"type": "Feature","bbox": [20.056,13.529,20.846,14.414],"geometry": {"type": "MultiPolygon","coordinates": [[[[20.314,13.529,441.1026],[20.448,13.543,454.91],[20.524,13.572,461.4972],[20.587,13.622,485.0267],[20.638,13.689,499.1134],[20.69,13.859,660.0438],[20.695,13.904,648.8698],[20.607,13.956,484.7357],[20.574,13.973,480.8985],[20.534,13.97,471.3053],[20.485,13.977,460.8898],[20.451,13.989,452.6847],[20.442,14.022,462.973],[20.469,14.074,470.8717],[20.508,14.094,476.645],[20.564,14.086,480.9852],[20.614,14.098,486.5026],[20.647,14.12,475.5139],[20.648,14.164,483.1897],[20.652,14.206,473.46],[20.707,14.231,506.596],[20.766,14.245,500.6804],[20.82,14.274,512.2519],[20.846,14.32,511.6616],[20.767,14.367,483.1189],[20.718,14.379,476.427],[20.662,14.395,465.7358],[20.606,14.414,458.6089],[20.533,14.398,449.0348],[20.486,14.376,436.6702],[20.357,14.386,425.7029],[20.288,14.325,414.4367],[20.241,14.299,408.8739],[20.21,14.26,403.6921],[20.136,14.158,400.1253],[20.062,14.082,410.3776],[20.056,13.956,413.7078],[20.268,13.829,429.9197],[20.295,13.755,436.8947],[20.276,13.671,428.6974],[20.267,13.613,436.5262],[20.276,13.586,431.6429],[20.314,13.529,441.1026]]]]}
,"properties": {"GID_3": "TCD.17.3.2_1","GID_0": "TCD","country": "Chad","GID_1": "TCD.17_1","province": "Ouaddaï","NL_NAME_1": "NA","GID_2": "TCD.17.3_1","county": "Ouara","NL_NAME_2": "NA","city": "Guerri","VARNAME_3": "NA","NL_NAME_3": "NA","TYPE_3": "Sub-prefecture","ENGTYPE_3": "Sub-prefecture","CC_3": "NA","HASC_3": "NA","name": "Guerri.city","area_km2": 4480.777,"hist_schema_id": "Elevation0-9000","hist_area_km2": {"400": 281.25,"425": 1396.447,"450": 1518.426,"475": 700.421,"500": 303.678,"525": 103.436,"550": 61.083,"575": 46.342,"600": 22.832,"625": 13.486,"650": 11.036,"675": 8.236,"700": 6.054,"725": 3.809,"750": 2.244,"775": 0.968,"800": 0.7,"825": 0.288,"850": 0.041}}}