{"type":"Feature","properties":{"GID_3":"TCD.1.1.2_1","GID_0":"TCD","country":"Chad","GID_1":"TCD.1_1","province":"BarhelGhazel","NL_NAME_1":"NA","GID_2":"TCD.1.1_1","county":"BarhElGazel","NL_NAME_2":"NA","city":"Moussoro","VARNAME_3":"NA","NL_NAME_3":"NA","TYPE_3":"Sub-prefecture","ENGTYPE_3":"Sub-prefecture","CC_3":"NA","HASC_3":"NA","name":"Moussoro.city"},
"geometry":{"type": "MultiPolygon","coordinates": [[[[15.935,13.339,290.5335],[15.929,13.207,291.7246],[15.91,13.173,285.6227],[15.966,13.122,285.1739],[15.991,13.08,287.7307],[15.998,13.044,288.3004],[16.108,13.036,289.4623],[16.179,13.023,289.3748],[16.215,13.04,290.783],[16.261,13.036,288.6932],[16.361,13.051,290.7913],[16.425,13.044,288.1811],[16.468,13.034,286.8527],[16.493,13.055,287.8038],[16.547,13.07,286.9514],[16.762,13.09,288.1464],[16.787,13.111,288.475],[16.846,13.136,288.6379],[16.9,13.109,289.1455],[16.997,13.137,288.3198],[17.024,13.157,289.636],[17.063,13.137,289.6341],[17.101,13.133,288.6976],[17.161,13.099,288.7693],[17.241,13.21,292.3882],[17.234,13.427,300.5247],[17.271,13.662,301.1361],[17.196,13.717,296.1293],[17.018,13.818,291.6922],[16.858,13.844,290.5924],[16.679,13.858,277.6924],[16.509,13.883,293.071],[16.2493,13.89,287.1352],[16.2477,13.8915,289.8954],[16.179,13.765,284.6343],[16.089,13.659,290.2643],[16.012,13.533,289.5294],[15.935,13.339,290.5335]]]]}}