{"type":"Feature","properties":{"GID_2":"TCD.10.2_1","GID_0":"TCD","country":"Chad","GID_1":"TCD.10_1","province":"Lac","NL_NAME_1":"NA","county":"Wayi","VARNAME_2":"Ngouri","NL_NAME_2":"NA","TYPE_2":"Department","ENGTYPE_2":"Department","CC_2":"NA","HASC_2":"TD.LC.WA","name":"Wayi.county"},
"geometry":{"type": "MultiPolygon","coordinates": [[[[15.576,13.247,293.9448],[15.553,13.362,297.5637],[15.501,13.457,291.3837],[15.393,13.742,300.9968],[15.196,13.718,311.3332],[15.016,13.674,302.6261],[14.96,13.665,298.8449],[14.851,13.672,290.6373],[14.793,13.635,293.3503],[14.827,13.509,292.8746],[14.872,13.414,279.7479],[14.952,13.307,277.9649],[15.009,13.244,286.179],[15.027,13.252,279.2312],[15.101,13.219,278.8374],[15.145,13.223,285.5361],[15.19,13.199,281.835],[15.208,13.156,281.6046],[15.244,13.116,281.8274],[15.26,13.095,286.427],[15.275,13.103,283.5964],[15.29,13.14,290.7212],[15.31,13.149,281.5468],[15.332,13.136,285.0241],[15.399,13.189,295.1014],[15.378,13.215,290.5552],[15.313,13.239,278.5508],[15.258,13.299,292.5529],[15.231,13.372,290.2999],[15.38,13.393,287.6427],[15.428,13.317,298.4993],[15.576,13.247,293.9448]]]]}}