{"type": "Feature","bbox": [19.282,9.8498,19.703,10.588],"geometry": {"type": "MultiPolygon","coordinates": [[[[19.284,10.224,426.2546],[19.284,10.2008,407.1819],[19.282,10.1849,416.2144],[19.2842,10.1678,426.0009],[19.2902,10.1454,411.3498],[19.2935,10.1256,395.7502],[19.2917,10.1,388.8704],[19.2861,10.079,388.086],[19.291,10.0497,390.1566],[19.286,9.9904,388.0408],[19.2926,9.9696,389.1695],[19.2954,9.9542,387.6415],[19.3334,9.9563,390.463],[19.353,9.9446,389.8475],[19.3685,9.9231,388.3222],[19.3997,9.8992,389.0983],[19.4018,9.8692,388.0221],[19.422,9.8676,387.9963],[19.4403,9.8639,388.3526],[19.4564,9.8558,388.235],[19.4757,9.8498,390.651],[19.4873,9.8498,390.639],[19.5025,9.8745,392.1587],[19.5107,9.8806,390.969],[19.5226,9.888,389.6377],[19.5324,9.8879,389.9317],[19.5432,9.8851,389.4778],[19.5522,9.8947,389.9813],[19.556,9.9083,390.4308],[19.5706,9.9421,392.134],[19.6017,9.9498,392.4654],[19.6034,9.966,392.9738],[19.612,9.9798,393.031],[19.6234,9.9874,393.4751],[19.6567,9.9996,394.006],[19.613,10.067,396.4634],[19.654,10.097,398.7444],[19.648,10.156,397.7988],[19.681,10.213,400.1369],[19.692,10.267,400.4955],[19.635,10.289,404.1219],[19.703,10.588,406.3282],[19.619,10.526,409.1622],[19.584,10.478,402.3688],[19.533,10.475,401.893],[19.496,10.496,400.2784],[19.43,10.469,411.1162],[19.391,10.425,415.0414],[19.382,10.382,406.8703],[19.344,10.344,394.825],[19.355,10.299,412.8535],[19.321,10.27,419.5235],[19.284,10.224,426.2546]]]]}
,"properties": {"GID_3": "TCD.16.3.5_1","GID_0": "TCD","country": "Chad","GID_1": "TCD.16_1","province": "Moyen-Chari","NL_NAME_1": "NA","GID_2": "TCD.16.3_1","county": "LacIro","NL_NAME_2": "NA","city": "Boum-Kebir","VARNAME_3": "NA","NL_NAME_3": "NA","TYPE_3": "Sub-prefecture","ENGTYPE_3": "Sub-prefecture","CC_3": "NA","HASC_3": "NA","name": "Boum-Kebir.city","area_km2": 2365.993,"hist_schema_id": "Elevation0-9000","hist_area_km2": {"375": 108.165,"400": 1861.065,"425": 394.592,"450": 2.17}}}