{"type": "Feature","id": "4858","bbox": [13.94595,8.42182,15.46389,9.99531],"geometry": {"type": "Polygon","coordinates": [[[14.73246,9.92381,354.1336],[14.44049,9.99531,367.2776],[14.19634,9.97915,390.7006],[14.1817,9.97818,399.678],[14.17353,9.97503,401.7332],[14.17116,9.96761,398.2141],[14.17064,9.95784,389.8437],[14.16836,9.94774,370.3502],[14.11979,9.85201,364.2278],[14.08847,9.80963,385.0751],[14.00672,9.73928,324.3286],[13.94595,9.65264,226.0058],[13.9476,9.63776,225.998],[14.03649,9.56877,306.0483],[14.32133,9.24316,317.6722],[14.33115,9.20021,299.7958],[14.34954,9.16836,315.6869],[14.5717,8.99099,411.9066],[14.79386,8.81362,355.4442],[14.80988,8.80861,365.5024],[14.81918,8.81161,355.1164],[14.82796,8.81316,357.2358],[14.83675,8.813,358.779],[14.84605,8.81099,357.9226],[14.8599,8.80331,374.6298],[14.89938,8.77432,402.0577],[14.90827,8.76484,375.5687],[14.91333,8.75244,394.2774],[14.91995,8.74771,393.5757],[14.92728,8.74507,397.6159],[14.93442,8.739,407.8217],[14.9401,8.72965,444.136],[14.94909,8.70428,471.3073],[14.95147,8.69211,458.3435],[14.95147,8.68283,459.8537],[14.95509,8.67622,471.9797],[14.96852,8.67216,464.1809],[15.00583,8.66663,447.3741],[15.03126,8.65875,465.7113],[15.05193,8.64379,469.3599],[15.06857,8.62387,503.1494],[15.11074,8.55514,544.069],[15.16851,8.4986,555.6121],[15.1837,8.47915,520.7333],[15.21071,8.42182,529.4841],[15.22789,8.43003,529.2812],[15.27321,8.44863,510.0782],[15.27099,8.46052,514.513],[15.26602,8.47566,517.7534],[15.26478,8.48124,522.4463],[15.26401,8.49271,535.775],[15.26494,8.50212,554.917],[15.30592,8.67177,502.4409],[15.30948,8.67885,496.2083],[15.31693,8.68805,501.9647],[15.37263,8.74153,466.9496],[15.37542,8.74624,463.0],[15.37728,8.75239,458.155],[15.3762,8.76959,457.5119],[15.37852,8.79182,441.4426],[15.37806,8.79802,436.044],[15.37682,8.80375,431.7792],[15.37232,8.81951,420.9443],[15.37108,8.83145,414.9836],[15.37294,8.86427,419.1672],[15.37713,8.88328,409.4891],[15.4178,9.00431,448.6818],[15.42819,9.01346,459.5516],[15.46389,9.02674,431.667],[15.45242,9.04999,427.8428],[15.44994,9.06746,419.772],[15.44917,9.1196,416.3116],[15.45165,9.14234,401.5347],[15.45134,9.15086,395.4113],[15.44601,9.17381,397.5513],[15.44415,9.17872,413.283],[15.44219,9.1827,418.7373],[15.43857,9.18409,376.0456],[15.4378,9.18518,375.0709],[15.43826,9.18683,377.7588],[15.37372,9.21303,429.7688],[15.29956,9.24481,434.4709],[15.2201,9.29249,473.3082],[15.13005,9.36665,467.1673],[15.08964,9.39443,445.51],[15.07119,9.5279,386.3756],[15.02272,9.59127,369.7247],[15.02645,9.6416,351.0266],[14.99477,9.67142,358.1124],[14.94071,9.69565,379.382],[14.89039,9.6826,388.0009],[14.79294,9.66297,421.4132],[14.73754,9.66583,382.6772],[14.72285,9.78727,338.8745],[14.73246,9.92381,354.1336]]]}
,"properties": {"ISO3166-1-Alpha-3": "TCD","country": "Chad","fill": "#F00","name": "Mayo-Kebbi Ouest","area_km2": 13325.81,"hist_schema_id": "Elevation0-9000","hist_area_km2": {"225": 166.64,"250": 262.37,"275": 355.39,"300": 755.29,"325": 1329.79,"350": 1690.38,"375": 2055.39,"400": 2285.61,"425": 1869.41,"450": 1194.06,"475": 750.31,"500": 384.38,"525": 145.08,"550": 66.83,"575": 14.55,"600": 0.34}}}