{"type": "Feature","bbox": [16.813,8.4093,17.13,8.631],"geometry": {"type": "MultiPolygon","coordinates": [[[[16.8443,8.4741,395.7713],[16.8366,8.4656,397.9724],[16.8208,8.4357,396.7302],[16.813,8.414,395.7145],[16.8425,8.4217,394.0097],[16.8697,8.4123,402.3232],[16.9375,8.4093,397.4562],[16.9569,8.4177,392.8331],[16.9901,8.4255,396.568],[17.0027,8.4317,394.3226],[17.0169,8.4442,387.7774],[17.0223,8.4543,392.1783],[17.031,8.465,394.4939],[17.0441,8.4899,393.0486],[17.0596,8.5107,392.3356],[17.0793,8.5244,390.4844],[17.092,8.5311,389.4575],[17.1051,8.5372,388.1407],[17.1185,8.54,388.3145],[17.13,8.545,387.6786],[17.046,8.631,385.2645],[17.0263,8.631,385.8879],[17.0079,8.6273,386.0666],[16.9683,8.6103,388.0183],[16.8652,8.5856,386.6933],[16.8493,8.5751,383.6793],[16.8317,8.5501,389.8405],[16.8292,8.5424,394.0028],[16.8307,8.5185,393.5113],[16.8332,8.5078,391.0737],[16.8379,8.4972,391.9347],[16.8442,8.4896,394.3351],[16.8429,8.48,396.6338],[16.8443,8.4741,395.7713]]]]}
,"properties": {"GID_3": "TCD.12.4.2_1","GID_0": "TCD","country": "Chad","GID_1": "TCD.12_1","province": "LogoneOriental","NL_NAME_1": "NA","GID_2": "TCD.12.4_1","county": "Pendé","NL_NAME_2": "NA","city": "Beti","VARNAME_3": "NA","NL_NAME_3": "NA","TYPE_3": "Sub-prefecture","ENGTYPE_3": "Sub-prefecture","CC_3": "NA","HASC_3": "NA","name": "Beti.city","area_km2": 532.7826,"hist_schema_id": "Elevation0-9000","hist_area_km2": {"375": 118.6442,"400": 414.1384}}}