{"type": "Feature","bbox": [21.824,14.55,22.093,14.745],"geometry": {"type": "MultiPolygon","coordinates": [[[[21.842,14.55,920.2438],[21.951,14.567,967.3625],[22.03,14.602,974.5059],[22.093,14.639,997.7417],[22.043,14.65,969.834],[21.991,14.745,941.9372],[21.963,14.729,965.4867],[21.889,14.704,937.2701],[21.826,14.69,919.862],[21.824,14.624,910.3279],[21.842,14.55,920.2438]]]]}
,"properties": {"GID_3": "TCD.23.2.9_1","GID_0": "TCD","country": "Chad","GID_1": "TCD.23_1","province": "WadiFira","NL_NAME_1": "NA","GID_2": "TCD.23.2_1","county": "DarTama","NL_NAME_2": "NA","city": "Koursigue","VARNAME_3": "NA","NL_NAME_3": "NA","TYPE_3": "Sub-prefecture","ENGTYPE_3": "Sub-prefecture","CC_3": "NA","HASC_3": "NA","name": "Koursigue.city","area_km2": 366.8884,"hist_schema_id": "Elevation0-9000","hist_area_km2": {"875": 0.6974,"900": 47.7742,"925": 145.7517,"950": 131.9642,"975": 36.7213,"1000": 3.3643,"1025": 0.3076,"1050": 0.1846,"1075": 0.1025,"1100": 0.0205}}}