{"type":"Feature","properties":{"GID_3":"TCD.11.3.8_1","GID_0":"TCD","country":"Chad","GID_1":"TCD.11_1","province":"LogoneOccidental","NL_NAME_1":"NA","GID_2":"TCD.11.3_1","county":"Ngourkosso","NL_NAME_2":"NA","city":"Manso","VARNAME_3":"NA","NL_NAME_3":"NA","TYPE_3":"Sub-prefecture","ENGTYPE_3":"Sub-prefecture","CC_3":"NA","HASC_3":"NA","name":"Manso.city"},
"geometry":{"type": "MultiPolygon","coordinates": [[[[16.1762,9.0174,446.6942],[16.1853,9.0401,420.9433],[16.1971,9.0529,404.7049],[16.2093,9.0622,394.4919],[16.2329,9.0851,407.7173],[16.25,9.0942,401.3558],[16.257,9.0962,400.4186],[16.2584,9.1001,403.5383],[16.2518,9.1259,393.9565],[16.2486,9.1567,370.0139],[16.2456,9.1667,368.0051],[16.214,9.154,374.6972],[16.202,9.122,391.6862],[16.187,9.098,400.7762],[16.157,9.079,399.7266],[16.1542,9.0795,395.884],[16.1642,9.0421,422.6937],[16.1762,9.0174,446.6942]]]]}}