{"type":"Feature","properties":{"GID_3":"TCD.12.1.6_1","GID_0":"TCD","country":"Chad","GID_1":"TCD.12_1","province":"LogoneOriental","NL_NAME_1":"NA","GID_2":"TCD.12.1_1","county":"Lanya","NL_NAME_2":"NA","city":"Miandoum","VARNAME_3":"NA","NL_NAME_3":"NA","TYPE_3":"Sub-prefecture","ENGTYPE_3":"Sub-prefecture","CC_3":"NA","HASC_3":"NA","name":"Miandoum.city"},
"geometry":{"type": "MultiPolygon","coordinates": [[[[16.5077,8.5707,417.3263],[16.5021,8.5583,424.8345],[16.4786,8.5262,426.0373],[16.4431,8.4862,447.8845],[16.4438,8.4807,448.2968],[16.4489,8.4751,445.004],[16.454,8.4557,442.5551],[16.4758,8.4279,427.6505],[16.4784,8.415,422.5359],[16.487,8.4065,409.638],[16.5144,8.4288,413.7729],[16.5685,8.462,406.8107],[16.5968,8.4825,395.1075],[16.6815,8.5566,386.1928],[16.6946,8.5652,387.9377],[16.7057,8.5796,384.4736],[16.6932,8.5902,387.1794],[16.6724,8.6021,396.1672],[16.6323,8.6175,395.6615],[16.6227,8.6202,396.5379],[16.5859,8.6195,398.4236],[16.5711,8.6236,399.8073],[16.5614,8.6236,400.236],[16.546,8.6109,401.5492],[16.5399,8.6024,406.1213],[16.5256,8.5881,407.2257],[16.5204,8.5801,410.9028],[16.5077,8.5707,417.3263]]]]}}