{"type":"Feature","properties":{"GID_3":"TCD.20.1.3_1","GID_0":"TCD","country":"Chad","GID_1":"TCD.20_1","province":"Tandjilé","NL_NAME_1":"NA","GID_2":"TCD.20.1_1","county":"Béré","NL_NAME_2":"NA","city":"Tamion-Ngolo","VARNAME_3":"NA","NL_NAME_3":"NA","TYPE_3":"Sub-prefecture","ENGTYPE_3":"Sub-prefecture","CC_3":"NA","HASC_3":"NA","name":"Tamion-Ngolo.city"},
"geometry":{"type": "MultiPolygon","coordinates": [[[[16.364,9.245,359.631],[16.3474,9.2836,358.4701],[16.314,9.317,357.1415],[16.2922,9.3507,356.6719],[16.2826,9.3619,354.22],[16.2773,9.3795,355.244],[16.219,9.3374,357.9832],[16.1815,9.3069,365.8397],[16.184,9.2664,369.0771],[16.1902,9.253,370.8926],[16.2074,9.2279,375.4281],[16.2106,9.2244,375.2036],[16.2225,9.2188,373.4841],[16.2488,9.2095,365.1448],[16.2647,9.1976,372.2412],[16.279,9.175,365.2005],[16.289,9.181,363.9789],[16.335,9.225,360.7455],[16.364,9.245,359.631]]]]}}