{"type":"Feature","properties":{"GID_3":"TCD.16.1.1_1","GID_0":"TCD","country":"Chad","GID_1":"TCD.16_1","province":"Moyen-Chari","NL_NAME_1":"NA","GID_2":"TCD.16.1_1","county":"BarhKöh","NL_NAME_2":"NA","city":"Balimba","VARNAME_3":"NA","NL_NAME_3":"NA","TYPE_3":"Sub-prefecture","ENGTYPE_3":"Sub-prefecture","CC_3":"NA","HASC_3":"NA","name":"Balimba.city"},
"geometry":{"type": "MultiPolygon","coordinates": [[[[18.0492,8.7092,376.2886],[18.053,8.707,375.3812],[18.0653,8.7094,370.8491],[18.0879,8.6984,372.1612],[18.0975,8.6974,370.4138],[18.1043,8.7021,372.8399],[18.1152,8.7129,368.404],[18.1182,8.7231,372.0813],[18.1216,8.7608,370.2297],[18.1199,8.7864,370.3528],[18.121,8.8013,370.9984],[18.134,8.8165,369.5964],[18.16,8.8355,368.5994],[18.1713,8.8405,368.6333],[18.1906,8.8402,370.8685],[18.2087,8.8442,369.7529],[18.2179,8.8443,368.3688],[18.2316,8.8538,366.2885],[18.2403,8.8544,367.4768],[18.2453,8.8571,367.2372],[18.254,8.8662,368.1843],[18.2569,8.8757,365.7823],[18.2633,8.8832,366.2381],[18.3131,8.8987,367.3462],[18.3285,8.9118,367.528],[18.3388,8.9317,367.0975],[18.3409,8.9553,367.2073],[18.3448,8.9706,364.2833],[18.3494,8.979,362.7306],[18.3857,9.0172,365.9857],[18.3877,9.0264,364.4915],[18.3771,9.0391,364.8643],[18.3759,9.0488,364.6764],[18.3771,9.059,364.8478],[18.3846,9.0825,363.9203],[18.3937,9.0957,364.0536],[18.3894,9.1176,363.7761],[18.3814,9.1299,366.0],[18.3676,9.144,358.1248],[18.3671,9.1557,365.9636],[18.3594,9.1609,365.2713],[18.3592,9.1745,363.9282],[18.3493,9.1888,364.6464],[18.2957,9.1879,363.4193],[18.2824,9.1889,362.0786],[18.2712,9.1926,361.083],[18.2572,9.1922,362.8999],[18.2467,9.1942,361.7856],[18.234,9.1856,361.3976],[18.1999,9.1762,356.2724],[18.1977,9.1623,363.6245],[18.1918,9.1488,363.5717],[18.1623,9.1032,365.0865],[18.1492,9.0789,363.0798],[18.109,9.0274,368.6042],[18.1005,9.02,367.7028],[18.0674,9.0131,366.8805],[18.0257,8.9976,365.8775],[17.9993,8.9676,368.5105],[17.9958,8.959,367.0868],[17.9977,8.9171,366.1687],[18.0038,8.8931,371.1572],[18.0087,8.8837,370.0268],[18.0097,8.8737,370.9355],[18.019,8.844,370.9634],[18.0248,8.8406,371.6107],[18.0279,8.8303,372.3184],[18.0426,8.8094,373.8477],[18.0518,8.8026,372.9504],[18.0585,8.7952,370.1831],[18.0615,8.7851,371.5945],[18.0617,8.763,371.0831],[18.0525,8.7324,372.1924],[18.0492,8.7092,376.2886]]]]}}