{"type":"Feature","properties":{"ISO3166-1-Alpha-3":"TCD","country":"Chad","fill":"#F00","id":"1473","name":"Wadi Fira"},
"geometry":{"type": "Polygon","coordinates": [[[21.91595,15.94445,610.0628],[21.90851,15.94456,607.0333],[21.89037,15.94941,611.7314],[21.84459,15.9705,592.2898],[21.76263,15.99825,580.4438],[21.75751,15.99944,579.6383],[21.74186,16.00068,577.7979],[21.73178,15.99985,576.6887],[21.69514,15.9921,573.7406],[21.64331,15.97598,567.6346],[21.3888,15.92378,537.528],[21.37811,15.92058,536.5773],[21.3193,15.88895,524.0599],[21.31263,15.88792,522.4126],[21.30488,15.88787,520.1097],[21.29341,15.89009,522.9021],[21.1823,15.93598,509.561],[21.11156,15.98011,492.8199],[21.10221,15.98466,493.8952],[21.09662,15.98517,492.9727],[21.09151,15.98383,495.2711],[21.07694,15.9752,489.7147],[21.05322,15.955,490.7068],[21.03534,15.94502,487.5846],[20.97684,15.92885,482.0533],[20.9587,15.91872,474.1319],[20.95064,15.91278,472.6562],[20.94351,15.9057,471.3374],[20.94056,15.90167,470.9402],[20.92284,15.86952,469.9648],[20.91043,15.85361,466.2066],[20.89633,15.83945,460.4565],[20.83287,15.79945,458.4655],[20.66027,15.73702,437.4584],[20.62508,15.7177,435.7991],[20.59697,15.69723,431.3001],[20.58735,15.69279,429.4474],[20.5672,15.68545,430.7378],[20.55836,15.68545,429.537],[20.54668,15.68726,426.0341],[20.52436,15.69475,423.1424],[20.50638,15.70307,422.1489],[20.49707,15.70912,423.7214],[20.4916,15.71088,423.4402],[20.48354,15.7116,421.5039],[20.39264,15.69992,411.6383],[20.35305,15.68266,408.7957],[20.30432,15.66953,405.6262],[20.29828,15.66881,405.3059],[20.29176,15.66902,405.2517],[20.27781,15.67367,404.32619999999997],[20.18283,15.71775,398.6844],[20.13301,15.75341,395.4734],[20.11286,15.764099999999999,394.19],[20.08025,15.7734,391.8813],[20.00005,15.78384,387.9533],[20.00005,14.15598,390.6917],[20.15787,14.32626,405.6885],[20.21368,14.37101,412.5518],[20.22939,14.38088,413.8818],[20.23404,14.39519,413.9373],[20.23823,14.40124,414.3834],[20.24148,14.40455,414.6743],[20.26598,14.41147,417.0897],[20.27068,14.41504,417.8533],[20.27425,14.41928,418.2964],[20.28122,14.43178,419.9716],[20.28804,14.44139,420.5913],[20.29455,14.44501,421.0977],[20.30153,14.44682,421.843],[20.31982,14.44811,423.5814],[20.32603,14.44749,424.4799],[20.33786,14.4448,425.578],[20.34329,14.44294,425.5896],[20.34809,14.44072,426.0379],[20.3529,14.43922,426.3921],[20.35755,14.43938,426.5995],[20.3622,14.44108,427.2084],[20.37135,14.44563,428.6628],[20.37605,14.44728,429.6508],[20.38132,14.44739,429.684],[20.41636,14.43933,432.6046],[20.42891,14.43762,434.4752],[20.43496,14.43788,435.0417],[20.44075,14.43891,435.9547],[20.48726,14.46248,441.3589],[20.49211,14.46413,444.0911],[20.49676,14.46522,444.8597],[20.54188,14.47074,450.5739],[20.55154,14.47023,449.8193],[20.55883,14.46904,449.2309],[20.73556,14.41168,474.3839],[20.7399,14.40915,474.4529],[20.74812,14.40305,475.9484],[20.75323,14.40026,477.0849],[20.77478,14.39395,540.3035],[20.78026,14.39147,482.8933],[20.78445,14.38863,484.5908],[20.79933,14.37514,489.6459],[20.80739,14.36915,489.364],[20.81561,14.36486,492.3743],[20.84419,14.35504,503.6633],[20.84822,14.35199,503.2635],[20.85132,14.34817,502.7424],[20.8538,14.34378,504.3193],[20.87488,14.2967,523.8248],[20.89896,14.26476,537.3442],[20.95808,14.20415,588.9232],[20.96258,14.20079,592.7126],[20.96893,14.19831,602.1468],[20.97792,14.19624,610.0728],[20.98955,14.19779,622.3337],[20.99606,14.19748,628.8423],[21.0003,14.19686,643.4396],[21.0712,14.1489,706.7495],[21.1682,14.10147,733.2634],[21.20246,14.09284,792.8156],[21.22127,14.09165,775.96],[21.23228,14.0934,786.0531],[21.25196,14.09929,761.3795],[21.26142,14.10348,754.744],[21.27894,14.11366,773.4708],[21.28705,14.1195,785.3811],[21.3331,14.14265,801.5502],[21.36183,14.14797,790.2394],[21.42172,14.1519,789.6348],[21.43552,14.15149,777.4723],[21.70227,14.11087,868.8196],[22.04225,13.99946,924.6647],[22.08463,13.97346,927.6171],[22.08912,13.96866,933.8953],[22.11362,13.93135,936.557],[22.12452,13.92049,927.2583],[22.1377,13.91739,935.6066],[22.15336,13.91745,951.9457],[22.18023,13.92049,961.7645],[22.18076,13.92055,961.7645],[22.19061,13.93279,977.7404],[22.2147,13.95662,1039.8362],[22.24353,13.97543,1063.4202],[22.40228,14.0493,1104.8215],[22.42161,14.06214,1054.426],[22.45871,14.09612,1005.6293],[22.48145,14.10855,1004.0922],[22.50822,14.11364,994.7109],[22.53147,14.12263,990.9037],[22.54635,14.13971,1007.6603],[22.5477,14.16903,987.0604],[22.54088,14.20118,986.8088],[22.53189,14.22063,978.2818],[22.51411,14.23146,952.3748],[22.45768,14.24115,947.905],[22.44104,14.24985,964.1093],[22.42905,14.26461,978.2128],[22.41995,14.28624,1004.0019],[22.41706,14.29809,1022.5779],[22.41809,14.30595,1033.2184],[22.42698,14.323,1018.1699],[22.43132,14.32721,1007.7916],[22.44486,14.33336,1021.8836],[22.44993,14.33838,1013.6552],[22.45096,14.34579,985.7628],[22.44734,14.35163,972.3865],[22.44238,14.35693,964.0675],[22.43907,14.36292,966.3427],[22.42491,14.47044,932.0897],[22.41716,14.4841,930.2642],[22.38636,14.50653,927.429],[22.36352,14.54353,944.3347],[22.38233,14.57911,938.2886],[22.42274,14.60908,909.3356],[22.46543,14.62929,917.0146],[22.66635,14.68174,897.1002],[22.67658,14.68898,897.6147],[22.68144,14.70293,902.4919],[22.67968,14.71182,889.4565],[22.66459,14.74375,888.4092],[22.65901,14.76127,902.8213],[22.65084,14.81615,903.741],[22.65084,14.84194,881.5532],[22.65891,14.85741,863.944],[22.69549,14.88147,871.6016],[22.71534,14.89943,866.4729],[22.72102,14.91594,868.4467],[22.72195,14.93467,850.1848],[22.72722,14.95904,866.5468],[22.7389,14.97981,857.9309],[22.82902,15.07164,840.5613],[22.84877,15.0875,842.0119],[22.87161,15.0997,838.3525],[22.90551,15.11257,837.4418],[22.91326,15.12169,833.1755],[22.95801,15.20163,814.6014],[22.96566,15.2239,813.6547],[22.97837,15.3402,801.9678],[22.97641,15.37364,799.8385],[22.96648,15.40482,799.1723],[22.94499,15.43312,795.8264],[22.92359,15.45557,787.347],[22.90685,15.48141,794.9575],[22.89951,15.51019,794.4442],[22.90675,15.5414,790.6114],[22.92566,15.56393,785.9323],[23.00452,15.61143,774.4626],[23.06849,15.68669,779.7878],[23.09464,15.70426,769.0],[23.11925,15.70722,772.7257],[23.11914,15.70752,772.7257],[23.11805,15.71036,769.883],[23.06963,15.78477,787.4213],[23.06622,15.78844,782.6245],[23.06219,15.79154,779.9644],[23.05754,15.79397,782.9252],[22.99765,15.8165,785.2929],[22.97424,15.82115,788.2697],[22.96633,15.82157,791.8123],[22.95718,15.82095,790.3063],[22.9438,15.8179,794.5874],[22.93605,15.81526,796.4559],[22.91574,15.80606,803.4272],[22.89491,15.79919,810.8038],[22.88344,15.79728,810.9562],[22.87553,15.79749,810.7415],[22.86654,15.79862,819.4652],[22.85306,15.8026,810.5485],[22.84546,15.80575,816.567],[22.83952,15.80901,815.353],[22.83455,15.81118,819.106],[22.80913,15.81464,813.7549],[22.80355,15.81645,814.2507],[22.79859,15.81867,816.9891],[22.77854,15.83418,828.2338],[22.77404,15.83697,827.1273],[22.76753,15.83852,829.9849],[22.75931,15.83841,830.8181],[22.7466,15.83521,840.4889],[22.72748,15.82834,843.2562],[22.71926,15.82782,843.044],[22.69058,15.83025,859.4738],[22.66914,15.82984,876.3188],[22.63395,15.82425,897.4072],[22.60351,15.8226,907.1611],[22.59204,15.82064,926.2465],[22.58677,15.81888,921.7986],[22.57312,15.81175,914.3498],[22.56754,15.81009,922.4919],[22.56082,15.80958,927.036],[22.5509,15.81237,922.4512],[22.54455,15.81516,908.704],[22.54052,15.81929,915.6918],[22.53835,15.82389,927.7218],[22.53664,15.8289,916.0369],[22.53416,15.83335,907.4223],[22.53044,15.83671,913.5432],[22.52579,15.83934,907.833],[22.52176,15.84244,893.8201],[22.51912,15.84678,891.3307],[22.51556,15.85676,897.9663],[22.51339,15.86131,893.3301],[22.50998,15.86477,899.116],[22.50543,15.86673,889.2078],[22.49783,15.86921,888.5267],[22.49396,15.87138,894.282],[22.49023,15.87428,875.5585],[22.48682,15.87795,864.9178],[22.48419,15.88208,865.204],[22.47861,15.89805,808.323],[22.47504,15.90487,802.2963],[22.4707,15.9089,833.8762],[22.43158,15.92203,797.5418],[22.41856,15.92394,763.6912],[22.3967,15.93153,744.4026],[22.39215,15.93422,740.7624],[22.38812,15.93732,733.8689],[22.38099,15.94414,727.4338],[22.37665,15.94699,723.4638],[22.37091,15.94843,717.4055],[22.36301,15.94874,718.636],[22.35603,15.94817,725.7377],[22.34766,15.94363,718.1813],[22.33722,15.9366,719.3383],[22.33257,15.93427,718.6974],[22.31722,15.92895,714.4905],[22.3118,15.92761,709.7746],[22.3042,15.92688,711.2233],[22.2949,15.92699,709.2028],[22.27965,15.92916,712.3439],[22.27097,15.93143,703.0747],[22.25888,15.93588,686.1284],[22.24927,15.94073,685.8391],[22.20891,15.97164,669.8782],[22.18131,15.9984,660.579],[22.17945,15.99975,661.2183],[22.17713,15.9998,658.5211],[22.17325,15.99882,657.519],[22.16638,15.99417,653.4059],[22.15429,15.98228,652.1395],[22.14964,15.98001,652.0307],[22.14421,15.97892,651.0827],[22.11816,15.986,645.5935],[22.09269,15.99045,640.6138],[22.06091,15.99096,639.5063],[22.01822,15.986,631.9547],[21.99104,15.97784,619.7605],[21.96794,15.96481,614.2714],[21.922,15.94569,607.7274],[21.91595,15.94445,610.0628]]]}}