{"type":"Feature","properties":{"GID_1":"TCD.23_1","GID_0":"TCD","country":"Chad","province":"WadiFira","VARNAME_1":"Biltine","NL_NAME_1":"NA","TYPE_1":"Région","ENGTYPE_1":"Region","CC_1":"NA","HASC_1":"TD.BI","ISO_1":"NA","name":"Wadi_Fira.province"},
"geometry":{"type": "MultiPolygon","coordinates": [[[[21.983,14.002,930.0735],[22.018,13.989,916.128],[22.089,13.968,933.8953],[22.13,13.947,953.6545],[22.172,13.918,958.5833],[22.2096,13.916,1023.1913],[22.2319,13.9474,1077.9568],[22.2635,13.9635,1086.4592],[22.2917,13.9748,1118.4348],[22.32,14.0045,1157.1252],[22.3281,14.011,1138.4257],[22.3519,14.0172,1139.1527],[22.3584,14.0175,1101.595],[22.3669,14.0229,1098.938],[22.3927,14.05,1074.967],[22.4261,14.0498,1070.6296],[22.431,14.0511,1067.4977],[22.4529,14.0656,1040.2036],[22.5037,14.1096,996.1745],[22.5364,14.1186,995.2775],[22.5763,14.1761,979.0762],[22.5791,14.1844,976.8922],[22.5534,14.209,1013.5748],[22.5582,14.2297,1003.1247],[22.5168,14.2438,943.2528],[22.5086,14.244,934.4799],[22.4792,14.232,965.688],[22.4376,14.2757,987.1871],[22.4316,14.2842,1001.4701],[22.4283,14.2922,1040.2388],[22.4291,14.3025,1051.6038],[22.4354,14.3125,1020.5233],[22.4459,14.3201,1023.2845],[22.4595,14.3239,1000.2334],[22.4618,14.329,1012.724],[22.4554,14.3567,968.1611],[22.45,14.3594,959.5049],[22.4436,14.3654,962.1785],[22.4412,14.4193,958.2303],[22.4435,14.426,951.6795],[22.4429,14.4308,946.7843],[22.4496,14.4724,937.4321],[22.4476,14.4825,934.6079],[22.4286,14.4968,919.8228],[22.418,14.5006,924.3042],[22.4101,14.5054,925.1917],[22.4007,14.5083,923.6896],[22.3873,14.5045,929.3622],[22.3842,14.5067,929.6164],[22.3974,14.5526,940.5271],[22.4025,14.5625,944.5594],[22.4112,14.5959,911.6144],[22.4154,14.597,910.8035],[22.4256,14.5955,912.6003],[22.4314,14.5972,912.2451],[22.4429,14.6051,911.2529],[22.4472,14.6051,909.7828],[22.452,14.5969,906.8109],[22.4559,14.6068,905.6715],[22.4666,14.616,912.9153],[22.482,14.6238,907.0789],[22.4915,14.6255,907.0278],[22.5031,14.6304,915.4242],[22.5231,14.6345,929.7848],[22.6173,14.6503,898.9309],[22.7172,14.6864,884.4572],[22.7207,14.6913,888.2014],[22.7113,14.7385,884.0064],[22.7015,14.7614,883.3069],[22.6845,14.815,896.8079],[22.6711,14.8487,872.0044],[22.6747,14.8588,863.9525],[22.685,14.8747,872.0312],[22.704,14.8906,864.5928],[22.7257,14.8972,862.4877],[22.7408,14.8947,865.8711],[22.7444,14.8973,858.0091],[22.7524,14.8991,856.9412],[22.7571,14.9028,852.3959],[22.7599,14.91,850.8306],[22.7594,14.9173,856.4803],[22.7529,14.9359,847.7367],[22.75,14.937,843.5265],[22.7496,14.9504,845.9999],[22.7531,14.9651,843.695],[22.7569,14.9722,840.7384],[22.7671,14.9845,841.921],[22.777,14.9944,848.8508],[22.7924,15.0061,843.2418],[22.8142,15.0295,842.884],[22.8346,15.0444,831.6606],[22.838,15.0452,830.0778],[22.8522,15.0548,827.5885],[22.8707,15.0831,823.274],[22.8929,15.0944,820.4557],[22.9073,15.0954,818.0425],[22.9158,15.0932,817.8898],[22.921,15.0934,816.652],[22.9401,15.1075,813.4918],[22.9389,15.1112,813.042],[22.9397,15.1252,812.245],[22.9306,15.1575,811.0231],[22.9317,15.1658,809.0717],[22.936,15.172,808.1675],[22.9468,15.181,809.049],[22.965,15.1909,807.0387],[22.9692,15.1916,805.0983],[22.9753,15.1963,805.2771],[22.9789,15.2011,804.3767],[22.9868,15.2213,802.9803],[22.992,15.228,806.6649],[22.9969,15.2315,802.8595],[22.9997,15.2372,801.96],[22.9902,15.2559,799.9195],[22.9868,15.2595,799.5153],[22.9868,15.2634,798.9249],[22.9912,15.286,797.1008],[22.9992,15.2961,796.1636],[23.0039,15.3086,795.0527],[22.9995,15.3223,793.6329],[22.9933,15.3303,793.3932],[22.9911,15.3406,792.2599],[22.9904,15.3706,791.0453],[22.9964,15.3911,790.1813],[22.9969,15.3984,789.7124],[22.9902,15.4159,788.2842],[22.9638,15.4381,786.9473],[22.9496,15.4467,787.101],[22.9303,15.4652,785.0148],[22.925,15.4771,784.9669],[22.9221,15.4886,784.5778],[22.9282,15.5143,782.3762],[22.9243,15.5249,782.1505],[22.9261,15.5405,782.1483],[22.9306,15.5508,780.2343],[22.9473,15.572,778.8798],[22.9544,15.5787,778.2023],[22.9619,15.5812,777.707],[22.975,15.5799,776.8517],[22.9894,15.5807,776.6964],[22.9967,15.5837,780.076],[23.0047,15.5894,777.8398],[23.0226,15.6088,774.1534],[23.0248,15.6088,773.6868],[23.0259,15.6118,773.4957],[23.0359,15.6178,774.2616],[23.0427,15.6272,772.7756],[23.0544,15.6534,770.8445],[23.0577,15.6571,771.1503],[23.0773,15.6632,770.9109],[23.0854,15.6685,784.5355],[23.106,15.6906,769.0],[23.1152,15.7048,770.2879],[23.1223,15.7099,770.3879],[23.1315,15.7106,769.5574],[23.089,15.755,777.9189],[23.043,15.799,777.6621],[22.992,15.821,781.9335],[22.96,15.807,794.0925],[22.9,15.799,811.1177],[22.854,15.806,808.0997],[22.823,15.835,812.4279],[22.798,15.842,813.5474],[22.734,15.818,849.6559],[22.602,15.797,893.6592],[22.549,15.812,918.0264],[22.543,15.872,861.4257],[22.524,15.89,847.3704],[22.414,15.919,756.899],[22.37,15.896,740.0962],[22.324,15.889,754.8015],[22.277,15.903,694.6256],[22.213,15.948,671.0042],[22.183,15.934,694.7401],[22.161,15.955,670.6326],[22.125,15.966,656.0295],[22.074,15.954,666.6024],[21.971,15.918,640.2643],[21.897,15.929,625.6002],[21.746,15.962,580.8164],[21.6721,15.9311,608.6798],[21.4931,15.898,618.0677],[21.4221,15.8711,547.5993],[21.359,15.8581,529.2275],[21.276,15.874,509.2696],[21.211,15.914,522.9667],[21.171,15.922,508.7229],[21.134,15.935,504.6588],[21.109,15.926,499.5798],[21.081,15.904,490.9867],[21.036,15.879,484.8114],[21.009,15.876,476.3002],[20.982,15.854,484.8575],[20.958,15.825,481.2161],[20.9221,15.7921,478.4144],[20.8681,15.7581,474.9348],[20.8341,15.7441,467.7765],[20.7921,15.7381,463.3744],[20.709,15.679,444.9107],[20.658,15.639,430.84],[20.602,15.618,428.2954],[20.549,15.628,426.6444],[20.497,15.655,420.9565],[20.399,15.64,412.6974],[20.319,15.617,409.7734],[20.251,15.63,404.9103],[20.112,15.719,397.2021],[20.043,15.742,393.0444],[20.062,14.082,410.3776],[20.136,14.158,400.1253],[20.21,14.26,403.6921],[20.241,14.299,408.8739],[20.288,14.325,414.4367],[20.357,14.386,425.7029],[20.486,14.376,436.6702],[20.533,14.398,449.0348],[20.606,14.414,458.6089],[20.662,14.395,465.7358],[20.718,14.379,476.427],[20.767,14.367,483.1189],[20.846,14.32,511.6616],[20.923,14.25,558.4091],[20.962,14.197,601.5369],[21.005,14.153,662.5126],[21.032,14.142,695.3797],[21.084,14.139,682.8083],[21.108,14.129,654.3206],[21.142,14.096,732.6277],[21.174,14.044,735.5714],[21.253,14.039,753.5449],[21.314,14.068,768.5224],[21.382,14.111,780.2016],[21.437,14.126,764.2476],[21.504,14.115,827.9267],[21.555,14.101,855.3551],[21.671,14.092,908.6443],[21.778,14.06,872.8749],[21.983,14.002,930.0735]]]]}}