{"type":"Feature","properties":{"GID_3":"TCD.13.3.8_1","GID_0":"TCD","country":"Chad","GID_1":"TCD.13_1","province":"Mandoul","NL_NAME_1":"NA","GID_2":"TCD.13.3_1","county":"MandoulOriental","NL_NAME_2":"NA","city":"Mouroum-Goulaye","VARNAME_3":"NA","NL_NAME_3":"NA","TYPE_3":"Sub-prefecture","ENGTYPE_3":"Sub-prefecture","CC_3":"NA","HASC_3":"NA","name":"Mouroum-Goulaye.city"},
"geometry":{"type": "MultiPolygon","coordinates": [[[[17.1511,8.9224,377.2905],[17.1841,8.9222,380.0657],[17.1996,8.9178,380.9294],[17.2137,8.91,382.2429],[17.2453,8.9053,378.7953],[17.2547,8.9062,378.7637],[17.2774,8.9204,377.3029],[17.2849,8.9227,376.5716],[17.2937,8.9371,377.725],[17.3308,8.9761,376.8841],[17.3472,8.9909,371.0305],[17.3392,9.0011,372.577],[17.3384,9.0176,376.1129],[17.3313,9.0424,377.4709],[17.327,9.0453,381.5962],[17.321,9.0575,376.363],[17.3225,9.0959,380.0322],[17.326,9.1032,382.9932],[17.2865,9.1267,396.8307],[17.2565,9.1349,398.3632],[17.2406,9.1452,391.7462],[17.2251,9.1511,390.7654],[17.2142,9.1582,388.8633],[17.134,9.078,521.037],[17.15,8.971,395.8194],[17.1511,8.9224,377.2905]]]]}}