{"type": "Feature","bbox": [17.3208,8.017,17.5819,8.1961],"geometry": {"type": "MultiPolygon","coordinates": [[[[17.3227,8.1731,388.3536],[17.3208,8.1572,390.3792],[17.325,8.1458,391.9145],[17.325,8.1342,397.8784],[17.3326,8.1109,400.3505],[17.3522,8.0954,396.5865],[17.3609,8.0904,399.9149],[17.3763,8.0865,403.9601],[17.4076,8.0732,412.2203],[17.4203,8.0713,413.1214],[17.4378,8.0624,414.2753],[17.454,8.0433,414.8909],[17.4645,8.0392,417.4099],[17.4748,8.029,415.3329],[17.4772,8.0226,414.9558],[17.4826,8.017,412.1909],[17.5041,8.0302,403.2594],[17.5176,8.0411,395.7599],[17.5293,8.0474,398.6074],[17.5378,8.0542,407.3276],[17.5554,8.0716,419.8982],[17.5716,8.0848,412.4761],[17.5819,8.106,398.3035],[17.5661,8.1135,398.046],[17.5588,8.126,397.5675],[17.5478,8.1693,394.3336],[17.552,8.1906,394.3502],[17.5511,8.1961,393.8676],[17.5162,8.1837,393.2432],[17.4962,8.1787,391.8289],[17.4793,8.1775,389.6674],[17.3908,8.1891,390.4534],[17.3757,8.1885,382.3246],[17.3485,8.1808,388.7668],[17.3379,8.1798,389.3257],[17.3227,8.1731,388.3536]]]]}
,"properties": {"GID_3": "TCD.13.1.4_1","GID_0": "TCD","country": "Chad","GID_1": "TCD.13_1","province": "Mandoul","NL_NAME_1": "NA","GID_2": "TCD.13.1_1","county": "BarhSara","NL_NAME_2": "NA","city": "Bekourou","VARNAME_3": "NA","NL_NAME_3": "NA","TYPE_3": "Sub-prefecture","ENGTYPE_3": "Sub-prefecture","CC_3": "NA","HASC_3": "NA","name": "Bekourou.city","area_km2": 348.3652,"hist_schema_id": "Elevation0-9000","hist_area_km2": {"375": 31.3557,"400": 270.1338,"425": 46.8758}}}