{"type": "Feature","bbox": [17.542,11.408,18.591,12.618],"geometry": {"type": "MultiPolygon","coordinates": [[[[17.598,12.125,335.4867],[17.576,12.04,334.7657],[17.542,11.95,336.4068],[17.545,11.911,336.3253],[17.578,11.871,346.9734],[17.634,11.796,350.3899],[17.68,11.68,358.85],[17.747,11.652,359.1648],[17.842,11.638,382.6831],[17.942,11.64,431.8292],[18.045,11.632,445.2414],[18.174,11.599,498.7552],[18.377,11.513,475.8186],[18.514,11.452,465.6004],[18.591,11.408,470.3335],[18.545,11.614,511.4275],[18.494,11.723,550.3301],[18.473,11.776,553.3361],[18.444,11.88,518.3581],[18.391,11.885,526.0739],[18.385,11.848,554.4335],[18.372,11.799,538.9965],[18.337,11.738,513.1732],[18.31,11.708,509.7766],[18.253,11.711,483.8851],[18.206,11.739,472.5134],[18.19,11.784,449.1221],[18.171,11.823,445.6699],[18.165,11.88,909.4849],[18.1589,11.9018,598.9645],[18.1518,11.9194,415.7322],[18.1384,11.9402,410.1758],[18.1128,11.9724,401.6318],[18.097,12.016,465.4621],[18.0926,12.0433,655.6677],[18.09,12.09,437.0396],[18.099,12.129,393.0641],[18.132,12.219,367.1538],[18.172,12.204,378.2367],[18.225,12.208,384.335],[18.283,12.185,395.0062],[18.308,12.162,404.8759],[18.383,12.166,483.5716],[18.472,12.188,521.7495],[18.489,12.278,388.864],[18.442,12.422,370.6194],[18.368,12.542,364.8858],[18.33,12.618,355.2905],[18.095,12.486,359.7856],[18.065,12.452,368.0968],[18.018,12.452,388.6741],[17.882,12.446,358.1155],[17.671,12.279,335.0955],[17.665,12.256,327.3107],[17.608,12.239,327.8034],[17.567,12.199,319.247],[17.598,12.125,335.4867]]]]}
,"properties": {"GID_3": "TCD.7.2.4_1","GID_0": "TCD","country": "Chad","GID_1": "TCD.7_1","province": "Guéra","NL_NAME_1": "NA","GID_2": "TCD.7.2_1","county": "Bitkine","NL_NAME_2": "NA","city": "Kenga","VARNAME_3": "NA","NL_NAME_3": "NA","TYPE_3": "Sub-prefecture","ENGTYPE_3": "Sub-prefecture","CC_3": "NA","HASC_3": "NA","name": "Kenga.city","area_km2": 7473.267,"hist_schema_id": "Elevation0-9000","hist_area_km2": {"325": 250.431,"350": 2154.521,"375": 2480.902,"400": 878.371,"425": 316.208,"450": 171.579,"475": 355.646,"500": 449.409,"525": 256.668,"550": 121.265,"575": 19.377,"600": 5.619,"625": 4.167,"650": 3.131,"675": 1.679,"700": 1.348,"725": 0.912,"750": 0.684,"775": 0.622,"800": 0.373,"825": 0.166,"850": 0.124,"875": 0.062}}}