{"type":"Feature","properties":{"GID_2":"TCD.15.2_1","GID_0":"TCD","country":"Chad","GID_1":"TCD.15_1","province":"Mayo-KebbiOuest","NL_NAME_1":"NA","county":"Mayo-Dallah","VARNAME_2":"Pala","NL_NAME_2":"NA","TYPE_2":"Department","ENGTYPE_2":"Department","CC_2":"NA","HASC_2":"TD.MW.MD","name":"Mayo-Dallah.county"},
"geometry":{"type": "MultiPolygon","coordinates": [[[[15.2529,8.3963,558.3495],[15.2794,8.339,556.7823],[15.2623,8.4106,544.6965],[15.2458,8.4702,539.4794],[15.2724,8.482,528.7414],[15.2691,8.5002,547.1566],[15.2707,8.5179,531.1376],[15.2664,8.542,531.0745],[15.263,8.611,500.4311],[15.277,8.662,513.5436],[15.292,8.701,472.5769],[15.307,8.716,474.6984],[15.357,8.759,469.8202],[15.355,8.822,418.9467],[15.357,8.87,437.597],[15.365,8.937,435.7984],[15.394,8.988,428.5629],[15.387,9.033,457.7555],[15.441,9.061,430.1317],[15.432,9.092,445.8777],[15.432,9.179,390.134],[15.421,9.21,386.6461],[15.411,9.2075,392.6632],[15.3923,9.2141,405.5356],[15.3761,9.2236,426.4186],[15.3553,9.2302,441.9734],[15.3498,9.2375,452.5661],[15.3376,9.2415,453.8375],[15.27,9.2713,471.4812],[15.2445,9.2947,498.9261],[15.1818,9.3246,511.4901],[15.1378,9.3574,485.7635],[15.1345,9.3668,475.9366],[15.1283,9.3765,454.3438],[15.1199,9.3951,451.1326],[15.1115,9.4014,440.8025],[15.1039,9.412,444.422],[15.0999,9.427,439.1922],[15.0893,9.4385,424.4163],[15.0879,9.4532,426.5518],[15.0919,9.4683,424.0269],[15.0921,9.4774,419.972],[15.0886,9.4813,416.0354],[15.086,9.4969,405.8676],[15.0881,9.5212,395.0623],[15.0808,9.5418,381.2709],[15.0742,9.5518,371.6434],[15.0708,9.5604,373.9364],[15.0577,9.5633,373.5349],[15.0487,9.5716,366.3104],[15.0412,9.5854,375.6231],[15.0362,9.5911,365.9734],[15.0272,9.5965,366.5066],[15.026,9.5995,363.9825],[15.0284,9.6101,357.0199],[15.0381,9.6183,350.911],[15.0466,9.6292,369.4775],[15.0472,9.6423,381.6293],[15.0446,9.6494,377.2192],[15.0389,9.6575,372.6299],[15.034,9.6615,368.6919],[15.0179,9.6656,357.9576],[14.9982,9.6742,355.4137],[14.9898,9.683,354.0428],[14.9663,9.6891,367.0896],[14.9501,9.6984,375.2188],[14.9304,9.6965,381.4464],[14.9072,9.6894,383.8256],[14.8909,9.6818,390.7883],[14.8605,9.6739,389.8013],[14.8419,9.6759,388.2907],[14.8178,9.668,407.244],[14.7932,9.6682,399.3229],[14.7673,9.6641,412.9937],[14.749,9.6698,398.1679],[14.7486,9.639,390.3727],[14.7527,9.6026,390.7325],[14.7529,9.5848,394.8788],[14.7459,9.5684,370.1527],[14.7363,9.5574,356.3618],[14.7168,9.516,333.7632],[14.7125,9.4994,350.5116],[14.6978,9.4777,317.5569],[14.6742,9.4758,304.1674],[14.6599,9.4689,318.145],[14.6537,9.4629,306.9356],[14.6454,9.4497,332.7321],[14.6432,9.4125,368.4554],[14.6349,9.3941,378.5829],[14.621,9.3716,382.201],[14.6022,9.3648,380.5489],[14.5703,9.3626,401.9438],[14.5533,9.3701,400.8037],[14.5398,9.3828,398.0405],[14.5262,9.4022,384.2394],[14.4556,9.4188,368.1692],[14.438,9.4166,376.575],[14.4283,9.4234,385.1148],[14.3973,9.4342,378.688],[14.386,9.4353,384.1842],[14.3516,9.4194,437.1528],[14.3429,9.4113,440.0298],[14.3246,9.4032,419.6516],[14.3103,9.3934,421.5918],[14.2653,9.3833,404.6291],[14.2566,9.38,392.334],[14.2744,9.3584,431.2249],[14.2792,9.3559,449.486],[14.2913,9.3594,455.9139],[14.3114,9.3687,445.0518],[14.3154,9.3648,437.5952],[14.3402,9.3153,382.7968],[14.3475,9.3048,376.5277],[14.3802,9.2921,333.8587],[14.3849,9.267,312.093],[14.3814,9.257,316.9303],[14.3777,9.2504,308.7346],[14.3708,9.2461,301.6073],[14.3681,9.2412,302.7925],[14.3569,9.2293,296.7416],[14.3577,9.2212,293.987],[14.3556,9.2182,294.4284],[14.3508,9.2175,293.2654],[14.3484,9.2129,292.5864],[14.3485,9.2068,292.3727],[14.3515,9.2033,292.8578],[14.3581,9.2025,297.9571],[14.3595,9.2002,291.007],[14.3578,9.1952,290.8508],[14.3642,9.1829,294.5002],[14.3685,9.1813,297.5881],[14.3733,9.182,307.2868],[14.3817,9.1744,303.9518],[14.3894,9.1706,313.5811],[14.3923,9.1651,306.9792],[14.3974,9.1622,319.0648],[14.4038,9.151,316.8926],[14.4262,9.1381,351.6623],[14.4337,9.1295,364.9253],[14.4462,9.1252,363.6649],[14.4523,9.1208,356.4209],[14.4678,9.1169,365.1467],[14.4708,9.1125,364.1261],[14.4712,9.1026,362.9312],[14.4884,9.0761,386.5499],[14.493,9.0577,392.9727],[14.4971,9.0537,399.2922],[14.5191,9.0426,411.7842],[14.5861,9.002,452.7338],[14.5903,8.9969,447.3637],[14.6183,8.9748,456.5155],[14.836,8.8152,362.2852],[14.8509,8.8153,359.689],[14.8537,8.8132,357.064],[14.8541,8.8197,358.0038],[14.8579,8.8218,365.1081],[14.8646,8.8174,363.8143],[14.873,8.8248,377.3195],[14.8776,8.823,374.2841],[14.879,8.8195,365.0506],[14.8823,8.8232,370.2256],[14.8887,8.8185,364.8093],[14.9014,8.8135,363.888],[14.9047,8.8016,364.8307],[14.908,8.7982,368.2522],[14.9078,8.7957,372.0941],[14.9116,8.7939,374.1813],[14.912,8.7909,373.8576],[14.9257,8.7786,376.2851],[14.9197,8.7709,383.8385],[14.9129,8.7669,382.8443],[14.9126,8.7649,386.22],[14.9219,8.7554,387.3432],[14.9361,8.7549,386.2427],[14.9405,8.7583,392.4181],[14.9469,8.7577,393.3799],[14.9515,8.7548,390.2838],[14.9586,8.7463,384.59],[14.9639,8.7436,385.1972],[14.9744,8.7423,389.5079],[14.9874,8.7323,390.4056],[14.9906,8.7271,392.3101],[14.9912,8.7157,393.72],[14.9864,8.7076,401.5413],[14.9879,8.7031,412.4683],[14.984,8.6999,417.3531],[14.9848,8.6978,415.9062],[14.982,8.6895,421.905],[15.0054,8.6898,448.9318],[15.0131,8.6861,436.1092],[15.0236,8.6851,438.0503],[15.0322,8.6776,437.8232],[15.0369,8.6757,434.9542],[15.0469,8.6788,444.019],[15.0591,8.6798,437.7325],[15.0666,8.6733,445.315],[15.0791,8.6703,459.425],[15.1083,8.656,478.0247],[15.111,8.6371,485.9736],[15.1238,8.6229,493.0365],[15.1406,8.609,517.8958],[15.1515,8.6022,505.9117],[15.1536,8.576,513.8513],[15.156,8.568,526.4022],[15.1651,8.5554,532.3986],[15.1778,8.525,565.4957],[15.1825,8.5194,581.7357],[15.192,8.5135,584.4032],[15.1976,8.5124,570.4983],[15.2002,8.509,574.4048],[15.2529,8.3963,558.3495]]]]}}