{"type": "Feature","bbox": [18.104,9.877,19.737,11.179],"geometry": {"type": "MultiPolygon","coordinates": [[[[18.632,9.919,371.116],[18.737,9.877,378.223],[18.794,9.879,380.3649],[18.825,9.988,383.7515],[19.078,9.988,386.5224],[19.084,10.015,384.6064],[19.126,10.084,387.2957],[19.138,10.129,389.4442],[19.161,10.155,389.1475],[19.208,10.146,390.9069],[19.215,10.187,391.0424],[19.241,10.209,403.0311],[19.284,10.224,426.2546],[19.321,10.27,419.5235],[19.355,10.299,412.8535],[19.344,10.344,394.825],[19.382,10.382,406.8703],[19.391,10.425,415.0414],[19.43,10.469,411.1162],[19.496,10.496,400.2784],[19.533,10.475,401.893],[19.584,10.478,402.3688],[19.619,10.526,409.1622],[19.703,10.588,406.3282],[19.726,10.717,411.8536],[19.707,10.873,414.8757],[19.737,10.911,415.1917],[19.706,10.942,417.922],[19.694,11.001,417.0071],[19.657,11.003,417.8885],[19.57,11.034,417.7849],[19.479,11.048,423.7961],[19.405,11.104,431.26],[19.261,11.154,431.0555],[19.238,11.179,438.206],[19.197,11.1,458.0475],[19.181,11.073,466.0914],[19.158,11.055,460.2543],[19.117,11.04,457.1247],[19.089,11.037,450.9626],[19.059,11.022,456.7999],[18.987,10.978,449.7938],[18.905,10.956,440.0498],[18.793,10.936,431.9065],[18.689,10.924,449.9247],[18.632,10.912,455.2532],[18.577,10.893,593.7831],[18.562,10.853,452.0255],[18.553,10.804,427.0411],[18.522,10.748,431.7858],[18.49,10.677,427.6579],[18.471,10.586,404.8222],[18.468,10.525,391.6544],[18.461,10.452,383.7601],[18.431,10.421,383.0368],[18.399,10.424,383.4507],[18.353,10.437,390.8782],[18.322,10.452,372.5119],[18.291,10.46,376.2529],[18.242,10.449,372.2565],[18.203,10.405,370.8496],[18.155,10.394,364.4857],[18.104,10.365,359.2461],[18.164,10.346,361.2156],[18.209,10.322,365.8643],[18.289,10.262,364.929],[18.341,10.24,368.7788],[18.381,10.247,367.4492],[18.437,10.212,369.0147],[18.496,10.186,375.2409],[18.642,10.025,377.0905],[18.632,9.919,371.116]]]]}
,"properties": {"GID_3": "TCD.7.3.1_1","GID_0": "TCD","country": "Chad","GID_1": "TCD.7_1","province": "Guéra","NL_NAME_1": "NA","GID_2": "TCD.7.3_1","county": "Guéra","NL_NAME_2": "NA","city": "Daguela","VARNAME_3": "NA","NL_NAME_3": "NA","TYPE_3": "Sub-prefecture","ENGTYPE_3": "Sub-prefecture","CC_3": "NA","HASC_3": "NA","name": "Daguela.city","area_km2": 12993.09,"hist_schema_id": "Elevation0-9000","hist_area_km2": {"350": 15.75,"375": 2225.95,"400": 3538.21,"425": 4343.55,"450": 2226.71,"475": 472.44,"500": 45.44,"525": 28.9,"550": 22.04,"575": 17.67,"600": 13.65,"625": 10.27,"650": 8.56,"675": 7.27,"700": 4.96,"725": 3.56,"750": 2.58,"775": 1.44,"800": 1.6,"825": 1.1,"850": 0.6,"875": 0.17,"900": 0.29,"925": 0.19,"950": 0.17}}}