{"type": "Feature","bbox": [21.087,12.647,21.44,13.145],"geometry": {"type": "MultiPolygon","coordinates": [[[[21.224,12.67,531.0534],[21.269,12.672,552.4709],[21.313,12.665,577.0409],[21.358,12.647,591.0487],[21.387,12.678,676.6882],[21.42,12.721,555.5839],[21.44,12.734,568.9501],[21.384,12.724,547.9587],[21.344,12.775,522.8786],[21.34,12.854,519.9404],[21.325,12.918,530.0457],[21.309,12.976,532.2416],[21.351,13.022,550.8735],[21.356,13.076,545.38],[21.371,13.089,543.7952],[21.407,13.128,563.9719],[21.408,13.145,572.3458],[21.303,13.136,561.7341],[21.152,13.094,525.7267],[21.095,13.081,549.267],[21.087,13.006,557.0726],[21.096,12.992,556.0907],[21.182,12.965,529.7042],[21.2,12.945,526.6752],[21.209,12.922,536.6708],[21.216,12.885,512.8842],[21.218,12.847,504.1437],[21.212,12.8,517.8499],[21.211,12.762,524.3198],[21.219,12.725,538.2234],[21.224,12.67,531.0534]]]]}
,"properties": {"GID_3": "TCD.17.2.1_1","GID_0": "TCD","country": "Chad","GID_1": "TCD.17_1","province": "Ouaddaï","NL_NAME_1": "NA","GID_2": "TCD.17.2_1","county": "DjourfAlAhmar","NL_NAME_2": "NA","city": "Abker","VARNAME_3": "NA","NL_NAME_3": "NA","TYPE_3": "Sub-prefecture","ENGTYPE_3": "Sub-prefecture","CC_3": "NA","HASC_3": "NA","name": "Abker.city","area_km2": 963.9771,"hist_schema_id": "Elevation0-9000","hist_area_km2": {"500": 101.7048,"525": 462.5676,"550": 313.9221,"575": 59.3059,"600": 12.9487,"625": 5.3987,"650": 1.9651,"675": 1.51,"700": 1.0963,"725": 0.5585,"750": 0.6206,"775": 0.4758,"800": 0.6206,"825": 0.3516,"850": 0.2482,"875": 0.1862,"900": 0.2896,"925": 0.1862,"950": 0.0207}}}