{"type":"Feature","properties":{"GID_3":"TCD.15.1.2_1","GID_0":"TCD","country":"Chad","GID_1":"TCD.15_1","province":"Mayo-KebbiOuest","NL_NAME_1":"NA","GID_2":"TCD.15.1_1","county":"LacLéré","NL_NAME_2":"NA","city":"Bipare","VARNAME_3":"NA","NL_NAME_3":"NA","TYPE_3":"Sub-prefecture","ENGTYPE_3":"Sub-prefecture","CC_3":"NA","HASC_3":"NA","name":"Bipare.city"},
"geometry":{"type": "MultiPolygon","coordinates": [[[[14.0466,9.6015,262.9146],[14.0552,9.6052,244.8541],[14.1011,9.6409,241.2923],[14.0922,9.6566,253.6578],[14.0811,9.6702,283.4859],[14.0597,9.6833,292.2299],[14.0486,9.692,297.5191],[14.0161,9.7113,295.5551],[13.9823,9.6443,226.1052],[13.9825,9.6419,225.1167],[14.0079,9.6227,228.2007],[14.0233,9.6202,228.5179],[14.0349,9.6155,230.4853],[14.0438,9.614,230.7441],[14.0459,9.6119,230.4662],[14.0466,9.6015,262.9146]]]]}}