{"type": "Feature","bbox": [15.263,8.542,15.5458,8.937],"geometry": {"type": "MultiPolygon","coordinates": [[[[15.4619,8.9008,419.5381],[15.4582,8.9048,416.7186],[15.4291,8.91,429.1479],[15.4006,8.9194,430.1962],[15.365,8.937,435.7984],[15.357,8.87,437.597],[15.355,8.822,418.9467],[15.357,8.759,469.8202],[15.307,8.716,474.6984],[15.292,8.701,472.5769],[15.277,8.662,513.5436],[15.263,8.611,500.4311],[15.2664,8.542,531.0745],[15.3004,8.5495,480.9841],[15.3264,8.5614,474.0898],[15.3508,8.5756,463.0634],[15.41,8.5939,489.4266],[15.4316,8.6057,504.2833],[15.5404,8.6492,419.9803],[15.5458,8.6548,414.0708],[15.5192,8.6661,426.294],[15.504,8.6768,419.5338],[15.4827,8.6961,430.7012],[15.4662,8.7228,417.8908],[15.4545,8.7644,425.313],[15.4548,8.785,420.9342],[15.4529,8.8009,411.1273],[15.4534,8.8451,412.2951],[15.4628,8.8864,409.158],[15.4619,8.9008,419.5381]]]]}
,"properties": {"GID_3": "TCD.11.1.1_1","GID_0": "TCD","country": "Chad","GID_1": "TCD.11_1","province": "LogoneOccidental","NL_NAME_1": "NA","GID_2": "TCD.11.1_1","county": "Dodjé","NL_NAME_2": "NA","city": "Beinamar","VARNAME_3": "NA","NL_NAME_3": "NA","TYPE_3": "Sub-prefecture","ENGTYPE_3": "Sub-prefecture","CC_3": "NA","HASC_3": "NA","name": "Beinamar.city","area_km2": 622.7909,"hist_schema_id": "Elevation0-9000","hist_area_km2": {"400": 42.4843,"425": 194.6567,"450": 142.4989,"475": 127.4218,"500": 98.6861,"525": 17.0432}}}