{"type": "Feature","bbox": [21.58,13.497,22.2222,14.002],"geometry": {"type": "MultiPolygon","coordinates": [[[[21.867,13.503,826.8401],[21.952,13.497,921.7744],[22.004,13.499,926.8368],[22.043,13.517,883.9774],[22.086,13.507,851.1486],[22.13,13.505,828.9706],[22.2167,13.5083,783.8936],[22.2222,13.5383,785.705],[22.2219,13.5491,802.0275],[22.215,13.5607,790.332],[22.2137,13.5665,791.8751],[22.1962,13.5817,795.8958],[22.1809,13.5881,798.1633],[22.179,13.5917,799.9466],[22.1701,13.5962,802.1469],[22.1673,13.5992,802.9358],[22.1679,13.6028,802.9166],[22.1608,13.617,806.9603],[22.157,13.6156,806.6128],[22.1516,13.6163,806.1823],[22.1462,13.6218,808.9881],[22.1353,13.6532,815.0992],[22.1204,13.668,824.2305],[22.1163,13.6852,826.4999],[22.1193,13.693,830.4277],[22.1251,13.6997,829.5002],[22.1294,13.7159,836.4308],[22.124,13.7225,836.8915],[22.1239,13.7326,838.8448],[22.114,13.7425,841.692],[22.1096,13.7433,848.6782],[22.1001,13.7526,850.4483],[22.0908,13.7656,851.6679],[22.0922,13.7762,865.071],[22.1222,13.8224,914.5234],[22.1264,13.8243,910.0406],[22.1324,13.8347,914.7256],[22.1493,13.8563,942.9692],[22.2096,13.916,1023.1913],[22.172,13.918,958.5833],[22.13,13.947,953.6545],[22.089,13.968,933.8953],[22.018,13.989,916.128],[21.983,14.002,930.0735],[21.962,13.963,913.6677],[21.912,13.947,908.0996],[21.85,13.909,867.3173],[21.777,13.886,802.4578],[21.761,13.865,789.5165],[21.759,13.813,768.412],[21.736,13.751,781.4225],[21.703,13.697,760.7538],[21.657,13.647,733.1721],[21.58,13.597,707.9219],[21.65,13.527,739.2111],[21.734,13.519,749.6492],[21.822,13.52,792.796],[21.85,13.506,804.6009],[21.867,13.503,826.8401]]]]}
,"properties": {"GID_3": "TCD.17.1.5_1","GID_0": "TCD","country": "Chad","GID_1": "TCD.17_1","province": "Ouaddaï","NL_NAME_1": "NA","GID_2": "TCD.17.1_1","county": "Assoungha","NL_NAME_2": "NA","city": "Molou","VARNAME_3": "NA","NL_NAME_3": "NA","TYPE_3": "Sub-prefecture","ENGTYPE_3": "Sub-prefecture","CC_3": "NA","HASC_3": "NA","name": "Molou.city","area_km2": 2360.089,"hist_schema_id": "Elevation0-9000","hist_area_km2": {"700": 0.124,"725": 14.364,"750": 75.791,"775": 164.861,"800": 272.885,"825": 342.089,"850": 346.585,"875": 348.591,"900": 429.482,"925": 250.732,"950": 71.109,"975": 25.567,"1000": 9.819,"1025": 3.85,"1050": 2.47,"1075": 1.256,"1100": 0.432,"1125": 0.082}}}