{"type": "Feature","bbox": [15.8156,9.6542,16.263,10.127],"geometry": {"type": "MultiPolygon","coordinates": [[[[15.8156,9.8193,339.6094],[15.832,9.8103,335.0],[15.8416,9.799,340.4227],[15.8605,9.7892,341.0543],[15.884,9.7623,341.8052],[15.8896,9.7316,341.0362],[15.8809,9.7014,341.6504],[15.8892,9.6761,343.2586],[15.9145,9.6558,343.8254],[15.9328,9.6542,344.3931],[15.9644,9.6622,344.6534],[15.9977,9.6843,345.4254],[16.0325,9.7019,345.8074],[16.0675,9.7405,345.498],[16.0945,9.7612,344.8204],[16.1064,9.7772,345.7029],[16.138,9.8104,344.6029],[16.1663,9.8641,342.6313],[16.1853,9.8858,342.2502],[16.2017,9.911,341.8141],[16.2179,9.9487,340.8017],[16.2291,9.9835,340.1557],[16.263,10.031,338.642],[16.243,10.086,337.7897],[16.242,10.1102,336.8156],[16.2149,10.1054,337.7248],[16.1518,10.0897,337.7415],[16.1161,10.0912,339.6927],[16.0811,10.0955,336.8272],[16.0458,10.1126,335.0456],[16.0229,10.1193,335.6063],[16.0051,10.127,336.1092],[15.9714,10.0864,336.1817],[15.9272,10.0517,337.8922],[15.9058,10.0246,337.9217],[15.8715,10.014,336.5515],[15.8259,9.9915,337.0689],[15.8427,9.9791,337.5584],[15.8509,9.9605,337.6208],[15.859,9.9265,338.5101],[15.8572,9.8975,339.0689],[15.848,9.8622,339.5562],[15.8284,9.8329,337.4612],[15.8156,9.8193,339.6094]]]]}
,"properties": {"GID_3": "TCD.14.2.6_1","GID_0": "TCD","country": "Chad","GID_1": "TCD.14_1","province": "Mayo-KebbiEst","NL_NAME_1": "NA","GID_2": "TCD.14.2_1","county": "Mayo-Boneye","NL_NAME_2": "NA","city": "Kim","VARNAME_3": "NA","NL_NAME_3": "NA","TYPE_3": "Sub-prefecture","ENGTYPE_3": "Sub-prefecture","CC_3": "NA","HASC_3": "NA","name": "Kim.city","area_km2": 1540.803,"hist_schema_id": "Elevation0-9000","hist_area_km2": {"325": 140.224,"350": 1400.58}}}