{"type": "Feature","bbox": [14.7212,9.8197,14.9971,9.9824],"geometry": {"type": "MultiPolygon","coordinates": [[[[14.8043,9.9363,346.0812],[14.7381,9.9503,373.5205],[14.7281,9.951,368.4204],[14.7416,9.916,355.0446],[14.7396,9.9045,354.8116],[14.735,9.8945,362.9116],[14.7262,9.8842,359.7389],[14.7248,9.8746,348.9044],[14.7322,9.8712,345.6685],[14.7349,9.8657,338.5095],[14.7332,9.8593,342.0872],[14.7261,9.852,350.6707],[14.7212,9.8389,330.3869],[14.7282,9.8226,315.0141],[14.735,9.8197,316.1326],[14.7627,9.8406,318.3622],[14.7749,9.8517,324.493],[14.8062,9.8679,326.5201],[14.8269,9.8713,322.0148],[14.8576,9.8704,319.8168],[14.8743,9.8765,319.5],[14.9365,9.8911,320.2243],[14.9563,9.8935,320.4065],[14.9971,9.8791,324.1476],[14.9855,9.8961,320.6882],[14.9732,9.9471,346.7379],[14.9515,9.9824,349.3979],[14.8043,9.9363,346.0812]]]]}
,"properties": {"GID_3": "TCD.14.3.6_1","GID_0": "TCD","country": "Chad","GID_1": "TCD.14_1","province": "Mayo-KebbiEst","NL_NAME_1": "NA","GID_2": "TCD.14.3_1","county": "MontIlli","NL_NAME_2": "NA","city": "Youe","VARNAME_3": "NA","NL_NAME_3": "NA","TYPE_3": "Sub-prefecture","ENGTYPE_3": "Sub-prefecture","CC_3": "NA","HASC_3": "NA","name": "Youe.city","area_km2": 259.089,"hist_schema_id": "Elevation0-9000","hist_area_km2": {"325": 102.2217,"350": 153.1708,"375": 3.6965}}}