{"type":"Feature","properties":{"GID_3":"TCD.17.2.2_1","GID_0":"TCD","country":"Chad","GID_1":"TCD.17_1","province":"Ouaddaï","NL_NAME_1":"NA","GID_2":"TCD.17.2_1","county":"DjourfAlAhmar","NL_NAME_2":"NA","city":"Kognere","VARNAME_3":"NA","NL_NAME_3":"NA","TYPE_3":"Sub-prefecture","ENGTYPE_3":"Sub-prefecture","CC_3":"NA","HASC_3":"NA","name":"Kognere.city"},
"geometry":{"type": "MultiPolygon","coordinates": [[[[21.095,13.081,549.267],[20.964,13.045,547.9667],[20.874,13.041,562.8983],[20.763,13.017,486.0927],[20.763,12.978,485.1526],[20.773,12.932,479.8849],[20.764,12.888,497.45],[20.791,12.886,504.9098],[20.845,12.866,505.2039],[20.915,12.853,510.8358],[20.941,12.8,483.9613],[20.929,12.752,482.4338],[20.932,12.694,471.8859],[21.022,12.658,482.7336],[21.087,12.635,508.6494],[21.111,12.649,509.887],[21.139,12.649,521.149],[21.224,12.67,531.0534],[21.219,12.725,538.2234],[21.211,12.762,524.3198],[21.212,12.8,517.8499],[21.218,12.847,504.1437],[21.216,12.885,512.8842],[21.209,12.922,536.6708],[21.2,12.945,526.6752],[21.182,12.965,529.7042],[21.096,12.992,556.0907],[21.087,13.006,557.0726],[21.095,13.081,549.267]]]]}}