{"type": "Feature","bbox": [17.305,9.877,19.737,11.68],"geometry": {"type": "MultiPolygon","coordinates": [[[[18.496,10.186,375.2409],[18.642,10.025,377.0905],[18.632,9.919,371.116],[18.737,9.877,378.223],[18.794,9.879,380.3649],[18.825,9.988,383.7515],[19.078,9.988,386.5224],[19.084,10.015,384.6064],[19.126,10.084,387.2957],[19.138,10.129,389.4442],[19.161,10.155,389.1475],[19.208,10.146,390.9069],[19.215,10.187,391.0424],[19.241,10.209,403.0311],[19.284,10.224,426.2546],[19.321,10.27,419.5235],[19.355,10.299,412.8535],[19.344,10.344,394.825],[19.382,10.382,406.8703],[19.391,10.425,415.0414],[19.43,10.469,411.1162],[19.496,10.496,400.2784],[19.533,10.475,401.893],[19.584,10.478,402.3688],[19.619,10.526,409.1622],[19.703,10.588,406.3282],[19.726,10.717,411.8536],[19.707,10.873,414.8757],[19.737,10.911,415.1917],[19.706,10.942,417.922],[19.694,11.001,417.0071],[19.657,11.003,417.8885],[19.57,11.034,417.7849],[19.479,11.048,423.7961],[19.405,11.104,431.26],[19.261,11.154,431.0555],[19.238,11.179,438.206],[19.192,11.187,434.7756],[19.13,11.217,434.831],[19.056,11.245,437.6089],[19.001,11.273,439.4542],[18.967,11.313,444.1942],[18.902,11.331,444.3339],[18.74,11.38,468.8392],[18.591,11.408,470.3335],[18.514,11.452,465.6004],[18.377,11.513,475.8186],[18.174,11.599,498.7552],[18.045,11.632,445.2414],[17.942,11.64,431.8292],[17.842,11.638,382.6831],[17.747,11.652,359.1648],[17.68,11.68,358.85],[17.619,11.679,349.8398],[17.545,11.672,357.7475],[17.487,11.632,349.4591],[17.425,11.586,338.4037],[17.378,11.539,336.1009],[17.335,11.472,334.7028],[17.315,11.324,335.8187],[17.311,11.304,335.3646],[17.305,11.23,336.3217],[17.329,11.075,337.7805],[17.345,11.029,339.2904],[17.36,10.935,337.9415],[17.363,10.795,342.2492],[17.352,10.671,341.8769],[17.327,10.574,340.9664],[17.383,10.537,341.739],[17.449,10.522,342.6501],[17.543,10.451,350.8359],[17.864,10.497,396.2153],[17.962,10.397,356.0126],[18.013,10.381,358.4543],[18.067,10.35,358.4732],[18.104,10.365,359.2461],[18.164,10.346,361.2156],[18.209,10.322,365.8643],[18.289,10.262,364.929],[18.341,10.24,368.7788],[18.381,10.247,367.4492],[18.437,10.212,369.0147],[18.496,10.186,375.2409]]]]}
,"properties": {"GID_2": "TCD.7.3_1","GID_0": "TCD","country": "Chad","GID_1": "TCD.7_1","province": "Guéra","NL_NAME_1": "NA","county": "Guéra","VARNAME_2": "Melfi","NL_NAME_2": "NA","TYPE_2": "Department","ENGTYPE_2": "Department","CC_2": "NA","HASC_2": "TD.GR.GU","name": "Guéra.county","area_km2": 32443.12,"hist_schema_id": "Elevation0-9000","hist_area_km2": {"325": 330.52,"350": 5513.5,"375": 6130.49,"400": 6046.74,"425": 6087.27,"450": 4074.42,"475": 1954.78,"500": 958.66,"525": 542.04,"550": 258.7,"575": 114.12,"600": 76.38,"625": 61.19,"650": 53.99,"675": 45.94,"700": 40.5,"725": 34.18,"750": 30.33,"775": 26.11,"800": 19.97,"825": 14.1,"850": 9.9,"875": 6.51,"900": 4.99,"925": 3.39,"950": 2.31,"975": 1.02,"1000": 0.48,"1025": 0.29}}}