{"type": "Feature","bbox": [18.333,12.689,19.121,13.45],"geometry": {"type": "MultiPolygon","coordinates": [[[[19.031,13.102,359.938],[18.998,13.121,352.0395],[18.903,13.114,350.0274],[18.868,13.122,349.4478],[18.844,13.115,347.791],[18.796,13.146,346.895],[18.774,13.163,345.4586],[18.736,13.179,344.1618],[18.706,13.229,342.674],[18.714,13.256,343.5564],[18.722,13.297,344.9528],[18.766,13.331,346.8111],[18.637,13.358,341.153],[18.566,13.398,337.8111],[18.466,13.422,336.9965],[18.405,13.45,334.5145],[18.34,13.447,332.1059],[18.368,13.259,333.4853],[18.333,13.091,332.5609],[18.376,12.96,330.3986],[18.432,12.883,338.8126],[18.457,12.888,339.9706],[18.501,12.693,354.9444],[18.99,12.689,409.2924],[19.103,12.694,384.5175],[19.121,12.841,367.2593],[19.119,12.877,357.3433],[19.12,12.881,356.2407],[19.088,12.91,361.9207],[19.077,12.955,364.6428],[19.061,12.996,365.2046],[19.036,13.041,359.363],[19.031,13.102,359.938]]]]}
,"properties": {"GID_3": "TCD.2.2.2_1","GID_0": "TCD","country": "Chad","GID_1": "TCD.2_1","province": "Batha","NL_NAME_1": "NA","GID_2": "TCD.2.2_1","county": "BathaOues","NL_NAME_2": "NA","city": "Kouka-Ati","VARNAME_3": "NA","NL_NAME_3": "NA","TYPE_3": "Sub-prefecture","ENGTYPE_3": "Sub-prefecture","CC_3": "NA","HASC_3": "NA","name": "Kouka-Ati.city","area_km2": 4723.579,"hist_schema_id": "Elevation0-9000","hist_area_km2": {"325": 1037.431,"350": 3255.17,"375": 400.018,"400": 29.926,"425": 0.744,"450": 0.165,"475": 0.103}}}