{"type": "Feature","bbox": [21.842,14.241,22.4462,14.639],"geometry": {"type": "MultiPolygon","coordinates": [[[[22.4429,14.4308,946.7843],[22.4462,14.4514,936.9409],[22.356,14.479,972.234],[22.311,14.54,965.1932],[22.237,14.593,979.2401],[22.168,14.611,1033.2681],[22.093,14.639,997.7417],[22.03,14.602,974.5059],[21.951,14.567,967.3625],[21.842,14.55,920.2438],[21.865,14.476,960.3644],[21.867,14.391,1017.8743],[21.878,14.332,1003.2552],[21.853,14.241,907.6187],[21.904,14.264,934.1056],[21.954,14.298,972.5995],[21.999,14.342,1051.9543],[22.028,14.376,1034.5671],[22.074,14.413,1024.2437],[22.131,14.421,1076.1045],[22.21,14.391,1068.3153],[22.27,14.326,1022.1744],[22.348,14.386,980.8199],[22.4429,14.4308,946.7843]]]]}
,"properties": {"GID_3": "TCD.23.2.10_1","GID_0": "TCD","country": "Chad","GID_1": "TCD.23_1","province": "WadiFira","NL_NAME_1": "NA","GID_2": "TCD.23.2_1","county": "DarTama","NL_NAME_2": "NA","city": "Lima","VARNAME_3": "NA","NL_NAME_3": "NA","TYPE_3": "Sub-prefecture","ENGTYPE_3": "Sub-prefecture","CC_3": "NA","HASC_3": "NA","name": "Lima.city","area_km2": 1396.752,"hist_schema_id": "Elevation0-9000","hist_area_km2": {"900": 0.288,"925": 25.788,"950": 180.559,"975": 302.052,"1000": 356.191,"1025": 276.461,"1050": 160.594,"1075": 73.259,"1100": 19.897,"1125": 1.54,"1150": 0.123}}}