{"type":"Feature","properties":{"GID_3":"TCD.13.1.14_1","GID_0":"TCD","country":"Chad","GID_1":"TCD.13_1","province":"Mandoul","NL_NAME_1":"NA","GID_2":"TCD.13.1_1","county":"BarhSara","NL_NAME_2":"NA","city":"Nadili","VARNAME_3":"NA","NL_NAME_3":"NA","TYPE_3":"Sub-prefecture","ENGTYPE_3":"Sub-prefecture","CC_3":"NA","HASC_3":"NA","name":"Nadili.city"},
"geometry":{"type": "MultiPolygon","coordinates": [[[[17.7978,8.406,381.1909],[17.7902,8.3748,381.9993],[17.7807,8.3526,374.4666],[17.7602,8.3178,385.5593],[17.7523,8.3112,388.381],[17.747,8.2997,388.8388],[17.7379,8.2918,388.7406],[17.7337,8.2859,390.6231],[17.7267,8.2676,387.0213],[17.7233,8.2511,384.8462],[17.726,8.2144,383.2912],[17.7287,8.207,380.1213],[17.7518,8.2005,382.5233],[17.8065,8.192,392.1855],[17.8374,8.2003,382.5817],[17.8856,8.1867,399.6712],[17.9173,8.1729,398.4808],[17.9469,8.1731,400.2131],[17.9798,8.1587,393.686],[18.0068,8.1566,398.3663],[17.9926,8.187,382.6811],[17.9853,8.193,384.2198],[17.9618,8.2191,382.2584],[17.9482,8.2368,384.3371],[17.9426,8.2516,387.2515],[17.9212,8.2823,377.4232],[17.9123,8.301,378.9782],[17.9076,8.3506,385.4615],[17.9093,8.3594,387.0581],[17.9089,8.3757,387.3888],[17.8916,8.3718,387.5728],[17.8815,8.3728,382.7046],[17.8587,8.3833,377.6065],[17.8291,8.3894,378.8988],[17.8158,8.3949,380.3531],[17.7978,8.406,381.1909]]]]}}