{"type": "Feature","bbox": [19.031,12.877,19.614,13.516],"geometry": {"type": "MultiPolygon","coordinates": [[[[19.598,13.435,382.3824],[19.56,13.467,379.2644],[19.501,13.496,376.5432],[19.446,13.516,373.3301],[19.422,13.507,371.5783],[19.39,13.488,370.6755],[19.35,13.426,370.4694],[19.309,13.354,370.0532],[19.307,13.294,368.1715],[19.29,13.247,367.7676],[19.239,13.215,365.3509],[19.177,13.165,363.0837],[19.119,13.144,366.8882],[19.061,13.126,358.1055],[19.031,13.102,359.938],[19.036,13.041,359.363],[19.061,12.996,365.2046],[19.077,12.955,364.6428],[19.088,12.91,361.9207],[19.12,12.881,356.2407],[19.119,12.877,357.3433],[19.158,12.911,360.2298],[19.213,12.932,363.6143],[19.352,13.05,373.1964],[19.439,13.098,385.1725],[19.498,13.147,379.2819],[19.555,13.17,374.0272],[19.562,13.222,372.6569],[19.601,13.281,384.3499],[19.614,13.337,385.801],[19.605,13.375,384.23],[19.598,13.435,382.3824]]]]}
,"properties": {"GID_3": "TCD.2.1.2_1","GID_0": "TCD","country": "Chad","GID_1": "TCD.2_1","province": "Batha","NL_NAME_1": "NA","GID_2": "TCD.2.1_1","county": "BathaEst","NL_NAME_2": "NA","city": "Kouka-Adjob","VARNAME_3": "NA","NL_NAME_3": "NA","TYPE_3": "Sub-prefecture","ENGTYPE_3": "Sub-prefecture","CC_3": "NA","HASC_3": "NA","name": "Kouka-Adjob.city","area_km2": 2001.6,"hist_schema_id": "Elevation0-9000","hist_area_km2": {"350": 198.005,"375": 1802.626,"400": 0.97}}}