{"type": "Feature","bbox": [16.4507,9.4701,16.9975,10.095],"geometry": {"type": "MultiPolygon","coordinates": [[[[16.646,10.095,335.7249],[16.6233,10.095,335.6968],[16.5946,10.0896,336.37],[16.5718,10.0735,336.3324],[16.5458,10.0148,336.5237],[16.5307,9.9906,336.8713],[16.5125,9.9652,338.2091],[16.4865,9.9399,339.6437],[16.4784,9.9173,340.4288],[16.4703,9.9033,340.8072],[16.4667,9.8638,341.4737],[16.4549,9.8376,343.3309],[16.4507,9.776,344.2606],[16.4696,9.7423,346.6562],[16.5016,9.6964,346.4213],[16.5128,9.6746,346.7479],[16.5275,9.6549,346.3149],[16.5348,9.6424,346.8586],[16.5429,9.6176,347.1895],[16.5578,9.589,348.5772],[16.5607,9.5644,349.1288],[16.5871,9.513,350.9492],[16.5995,9.4823,351.2229],[16.6101,9.4701,351.9162],[16.644,9.4863,351.5346],[16.6568,9.4888,350.0671],[16.713,9.4912,349.7401],[16.7387,9.4959,348.9866],[16.7585,9.4972,348.2534],[16.7656,9.5096,347.9933],[16.7693,9.528,347.7003],[16.7807,9.559,346.985],[16.7966,9.5696,346.4018],[16.8063,9.5596,346.4873],[16.824,9.5496,346.4327],[16.8452,9.5428,345.9309],[16.8695,9.541,344.9644],[16.9086,9.5336,345.2031],[16.948,9.521,344.3377],[16.9785,9.5084,343.6911],[16.9811,9.5658,343.6891],[16.9922,9.6394,343.0359],[16.9936,9.6617,342.023],[16.9975,9.6866,341.3246],[16.9957,9.7161,340.6609],[16.9736,9.7572,341.4833],[16.971,9.8021,340.4924],[16.9662,9.821,337.0388],[16.9563,9.8485,340.2425],[16.9538,9.874,340.7104],[16.9587,9.9227,340.1956],[16.9642,9.9478,341.3697],[16.942,9.945,340.0063],[16.929,9.971,340.1117],[16.897,9.99,340.8295],[16.81,10.014,335.6171],[16.776,10.01,336.5892],[16.768,10.031,335.0215],[16.746,10.034,336.9871],[16.738,10.053,336.2613],[16.713,10.066,335.698],[16.69,10.067,335.1111],[16.662,10.071,331.3207],[16.646,10.095,335.7249]]]]}
,"properties": {"GID_3": "TCD.20.2.15_1","GID_0": "TCD","country": "Chad","GID_1": "TCD.20_1","province": "Tandjilé","NL_NAME_1": "NA","GID_2": "TCD.20.2_1","county": "TandjiléEst","NL_NAME_2": "NA","city": "Soumraye","VARNAME_3": "NA","NL_NAME_3": "NA","TYPE_3": "Sub-prefecture","ENGTYPE_3": "Sub-prefecture","CC_3": "NA","HASC_3": "NA","name": "Soumraye.city","area_km2": 2954.056,"hist_schema_id": "Elevation0-9000","hist_area_km2": {"325": 234.658,"350": 2719.398}}}