{"type":"Feature","properties":{"GID_3":"TCD.4.1.3_1","GID_0":"TCD","country":"Chad","GID_1":"TCD.4_1","province":"Chari-Baguirmi","NL_NAME_1":"NA","GID_2":"TCD.4.1_1","county":"Baguirmi","NL_NAME_2":"NA","city":"Deredia","VARNAME_3":"NA","NL_NAME_3":"NA","TYPE_3":"Sub-prefecture","ENGTYPE_3":"Sub-prefecture","CC_3":"NA","HASC_3":"NA","name":"Deredia.city"},
"geometry":{"type": "MultiPolygon","coordinates": [[[[16.061,10.897,327.458],[16.096,10.914,327.3732],[16.348,10.949,331.3894],[16.459,10.996,330.9681],[16.627,11.032,333.1365],[16.711,11.054,330.3153],[16.688,11.12,333.6354],[16.64,11.164,333.6918],[16.55,11.222,332.0229],[16.434,11.242,332.1956],[16.349,11.306,329.3981],[16.256,11.311,331.6912],[16.165,11.31,329.8419],[16.105,11.284,329.3875],[16.075,11.219,330.6521],[16.044,11.159,327.6158],[16.031,11.026,327.3215],[16.038,10.947,326.8686],[16.061,10.897,327.458]]]]}}