{"type": "Feature","bbox": [15.6518,9.4181,15.9651,9.7247],"geometry": {"type": "MultiPolygon","coordinates": [[[[15.6518,9.493,357.6482],[15.6594,9.4788,352.8442],[15.6888,9.4346,359.5522],[15.7014,9.4217,364.0745],[15.7072,9.4186,364.1833],[15.7119,9.4181,364.248],[15.7317,9.423,362.6778],[15.7459,9.4246,361.2568],[15.7483,9.4294,359.516],[15.7566,9.4361,358.8218],[15.783,9.4477,358.0153],[15.8067,9.4553,356.654],[15.8499,9.4557,354.5064],[15.8913,9.4638,354.1318],[15.9175,9.4643,349.936],[15.9289,9.468,348.375],[15.9396,9.4666,349.434],[15.9412,9.4972,347.6451],[15.9361,9.5197,348.3962],[15.9317,9.55,347.4662],[15.944,9.6036,345.4214],[15.9514,9.6244,345.1801],[15.9545,9.6384,344.4453],[15.9591,9.6464,344.3513],[15.9651,9.6626,344.5986],[15.9328,9.6542,344.3931],[15.9145,9.6558,343.8254],[15.8892,9.6761,343.2586],[15.8809,9.7014,341.6504],[15.8654,9.7113,340.2084],[15.8531,9.713,342.3989],[15.8414,9.7169,342.1716],[15.8217,9.715,341.4856],[15.8027,9.7165,341.1225],[15.7967,9.7192,340.777],[15.7938,9.7247,340.7392],[15.755,9.708,339.6074],[15.727,9.676,338.456],[15.714,9.602,348.4015],[15.682,9.586,350.418],[15.675,9.525,359.0696],[15.665,9.504,360.5041],[15.6518,9.493,357.6482]]]]}
,"properties": {"GID_3": "TCD.20.3.5_1","GID_0": "TCD","country": "Chad","GID_1": "TCD.20_1","province": "Tandjilé","NL_NAME_1": "NA","GID_2": "TCD.20.3_1","county": "TandjiléOuest","NL_NAME_2": "NA","city": "Marba","VARNAME_3": "NA","NL_NAME_3": "NA","TYPE_3": "Sub-prefecture","ENGTYPE_3": "Sub-prefecture","CC_3": "NA","HASC_3": "NA","name": "Marba.city","area_km2": 760.4402,"hist_schema_id": "Elevation0-9000","hist_area_km2": {"350": 757.4912,"375": 2.949}}}