{"type": "Feature","bbox": [15.8988,9.28,16.2248,9.6683],"geometry": {"type": "MultiPolygon","coordinates": [[[[15.9651,9.6626,344.5986],[15.9591,9.6464,344.3513],[15.9545,9.6384,344.4453],[15.9514,9.6244,345.1801],[15.944,9.6036,345.4214],[15.9327,9.5568,347.4286],[15.9317,9.546,347.7298],[15.9412,9.4972,347.6451],[15.9405,9.4709,349.8607],[15.9304,9.4353,351.9618],[15.9181,9.4136,360.0022],[15.9159,9.4047,356.6985],[15.9043,9.3803,361.645],[15.9051,9.373,362.0747],[15.9034,9.355,366.25],[15.9062,9.3458,366.8404],[15.9021,9.3215,368.4361],[15.8992,9.313,369.7193],[15.9006,9.3046,365.0866],[15.8988,9.2908,368.7533],[15.912,9.2895,368.9034],[15.9184,9.286,369.2639],[15.9381,9.2806,369.9842],[15.9459,9.28,368.7678],[15.9563,9.2874,364.6811],[15.9627,9.2981,365.1801],[15.9842,9.3217,369.8806],[15.9936,9.3268,369.0356],[16.0044,9.3279,367.7561],[16.0242,9.3415,366.4898],[16.0792,9.3732,357.399],[16.1174,9.4107,354.7602],[16.1653,9.4724,351.6626],[16.1951,9.4937,351.0895],[16.2071,9.506,351.3689],[16.2248,9.5183,352.2408],[16.2065,9.5364,351.1898],[16.2002,9.5468,351.37],[16.1861,9.5608,350.6876],[16.1473,9.5855,349.9949],[16.1348,9.5856,349.3664],[16.0472,9.6139,347.1993],[16.0339,9.6224,346.6921],[16.0161,9.6473,343.6153],[16.0043,9.6552,345.3101],[15.9794,9.6635,345.5868],[15.9735,9.6683,344.9278],[15.9651,9.6626,344.5986]]]]}
,"properties": {"GID_3": "TCD.20.3.3_1","GID_0": "TCD","country": "Chad","GID_1": "TCD.20_1","province": "Tandjilé","NL_NAME_1": "NA","GID_2": "TCD.20.3_1","county": "TandjiléOuest","NL_NAME_2": "NA","city": "Kolon","VARNAME_3": "NA","NL_NAME_3": "NA","TYPE_3": "Sub-prefecture","ENGTYPE_3": "Sub-prefecture","CC_3": "NA","HASC_3": "NA","name": "Kolon.city","area_km2": 800.0973,"hist_schema_id": "Elevation0-9000","hist_area_km2": {"350": 707.5612,"375": 92.536}}}