{"type": "Feature","bbox": [15.506,12.086,16.45,12.432],"geometry": {"type": "MultiPolygon","coordinates": [[[[15.744,12.086,299.0122],[15.771,12.102,298.2897],[15.824,12.129,297.7111],[15.885,12.146,298.1713],[15.974,12.158,297.4058],[16.09,12.166,298.04],[16.173,12.187,296.1904],[16.248,12.195,296.9469],[16.306,12.198,296.5041],[16.362,12.217,295.0902],[16.45,12.305,295.1011],[16.302,12.354,293.8242],[16.09,12.432,292.7798],[16.048,12.382,293.9361],[15.976,12.338,294.7421],[15.831,12.343,294.2556],[15.684,12.338,293.4362],[15.564,12.273,293.4708],[15.506,12.222,294.2401],[15.551,12.209,295.2292],[15.624,12.161,296.6933],[15.688,12.112,297.723],[15.744,12.086,299.0122]]]]}
,"properties": {"GID_3": "TCD.4.1.5_1","GID_0": "TCD","country": "Chad","GID_1": "TCD.4_1","province": "Chari-Baguirmi","NL_NAME_1": "NA","GID_2": "TCD.4.1_1","county": "Baguirmi","NL_NAME_2": "NA","city": "Mai-Ache","VARNAME_3": "NA","NL_NAME_3": "NA","TYPE_3": "Sub-prefecture","ENGTYPE_3": "Sub-prefecture","CC_3": "NA","HASC_3": "NA","name": "Mai-Ache.city","area_km2": 1978.278,"hist_schema_id": "Elevation0-9000","hist_area_km2": {"300": 1978.278}}}