{"type": "Feature","bbox": [17.554,9.413,18.0867,9.7802],"geometry": {"type": "MultiPolygon","coordinates": [[[[17.7756,9.417,407.7555],[17.7895,9.4153,413.7074],[17.7987,9.4184,416.8469],[17.8292,9.416,426.8548],[17.8437,9.4133,422.6098],[17.8602,9.413,417.804],[17.8988,9.4208,409.3771],[17.9439,9.433,425.3011],[17.9689,9.4459,411.38],[17.9867,9.4478,416.0899],[18.0033,9.4473,420.2545],[18.0371,9.4541,390.3766],[18.0502,9.4578,370.0857],[18.0669,9.4675,358.224],[18.0867,9.4652,359.411],[18.0839,9.5096,359.3013],[18.0553,9.5367,361.5013],[18.0363,9.5599,360.9457],[17.9983,9.5882,358.2588],[17.972,9.6256,358.5343],[17.9498,9.6461,358.2757],[17.9294,9.6758,355.3742],[17.9186,9.7062,358.3043],[17.9005,9.7482,355.1863],[17.8994,9.7739,355.0126],[17.88,9.7802,353.9424],[17.833,9.7645,354.6297],[17.8101,9.7479,353.8467],[17.8008,9.7383,348.5896],[17.7912,9.7247,349.3992],[17.7482,9.7031,360.0367],[17.7298,9.6967,361.4467],[17.7082,9.6864,358.9033],[17.6902,9.6808,358.1494],[17.6741,9.6655,357.7847],[17.6511,9.6631,356.8795],[17.6246,9.6639,354.8649],[17.591,9.673,352.9009],[17.575,9.624,355.0051],[17.554,9.597,353.9871],[17.5956,9.5673,366.4301],[17.6205,9.5428,371.9713],[17.6444,9.5029,387.7633],[17.6588,9.4695,393.3145],[17.6658,9.4487,409.2858],[17.6758,9.4463,412.1399],[17.6851,9.4486,412.5443],[17.7238,9.4437,423.0581],[17.7366,9.4443,427.5028],[17.7459,9.4403,433.6071],[17.7567,9.4391,433.437],[17.763,9.436,430.4745],[17.7756,9.417,407.7555]]]]}
,"properties": {"GID_3": "TCD.16.1.8_1","GID_0": "TCD","country": "Chad","GID_1": "TCD.16_1","province": "Moyen-Chari","NL_NAME_1": "NA","GID_2": "TCD.16.1_1","county": "BarhKöh","NL_NAME_2": "NA","city": "Niellim","VARNAME_3": "NA","NL_NAME_3": "NA","TYPE_3": "Sub-prefecture","ENGTYPE_3": "Sub-prefecture","CC_3": "NA","HASC_3": "NA","name": "Niellim.city","area_km2": 1365.631,"hist_schema_id": "Elevation0-9000","hist_area_km2": {"350": 478.229,"375": 447.104,"400": 341.398,"425": 96.392,"450": 1.839,"475": 0.585,"500": 0.084}}}