{"type":"Feature","properties":{"GID_3":"TCD.20.2.12_1","GID_0":"TCD","country":"Chad","GID_1":"TCD.20_1","province":"Tandjilé","NL_NAME_1":"NA","GID_2":"TCD.20.2_1","county":"TandjiléEst","NL_NAME_2":"NA","city":"Ndam","VARNAME_3":"NA","NL_NAME_3":"NA","TYPE_3":"Sub-prefecture","ENGTYPE_3":"Sub-prefecture","CC_3":"NA","HASC_3":"NA","name":"Ndam.city"},
"geometry":{"type": "MultiPolygon","coordinates": [[[[16.9642,9.9478,341.3697],[16.9587,9.9227,340.1956],[16.9538,9.874,340.7104],[16.9563,9.8485,340.2425],[16.9662,9.821,337.0388],[16.971,9.8021,340.4924],[16.9736,9.7572,341.4833],[16.9957,9.7161,340.6609],[16.9975,9.6866,341.3246],[16.9936,9.6617,342.023],[16.9922,9.6394,343.0359],[16.9811,9.5658,343.6891],[16.9785,9.5084,343.6911],[17.0123,9.4742,350.4324],[17.033,9.4611,345.0864],[17.0928,9.4455,349.0435],[17.1174,9.4376,352.2685],[17.1594,9.4208,357.6546],[17.1912,9.4129,352.4933],[17.2296,9.4084,354.7447],[17.228,9.47,350.1866],[17.257,9.492,346.1147],[17.216,9.545,344.8169],[17.209,9.576,344.3195],[17.251,9.596,343.4028],[17.288,9.601,342.7347],[17.317,9.594,346.197],[17.347,9.599,349.9286],[17.371,9.612,352.1404],[17.427,9.62,354.5831],[17.449,9.632,349.2567],[17.484,9.641,348.5521],[17.507,9.616,351.873],[17.554,9.597,353.9871],[17.575,9.624,355.0051],[17.591,9.673,352.9009],[17.521,9.74,358.116],[17.461,9.785,353.3111],[17.381,9.826,347.7145],[17.322,9.827,349.4396],[17.256,9.84,347.0449],[17.218,9.857,344.1806],[17.188,9.871,342.9179],[17.164,9.92,343.3952],[17.098,9.931,339.2692],[17.04,9.945,341.1867],[16.974,9.949,339.481],[16.9642,9.9478,341.3697]]]]}}