{"type":"Feature","properties":{"GID_3":"TCD.23.3.6_1","GID_0":"TCD","country":"Chad","GID_1":"TCD.23_1","province":"WadiFira","NL_NAME_1":"NA","GID_2":"TCD.23.3_1","county":"Kobé","NL_NAME_2":"NA","city":"Kobe-Sud","VARNAME_3":"NA","NL_NAME_3":"NA","TYPE_3":"Sub-prefecture","ENGTYPE_3":"Sub-prefecture","CC_3":"NA","HASC_3":"NA","name":"Kobe-Sud.city"},
"geometry":{"type": "MultiPolygon","coordinates": [[[[22.408,14.585,924.0171],[22.4112,14.5959,911.6144],[22.4154,14.597,910.8035],[22.4256,14.5955,912.6003],[22.4314,14.5972,912.2451],[22.4429,14.6051,911.2529],[22.4472,14.6051,909.7828],[22.452,14.5969,906.8109],[22.4559,14.6068,905.6715],[22.4666,14.616,912.9153],[22.482,14.6238,907.0789],[22.4915,14.6255,907.0278],[22.5031,14.6304,915.4242],[22.5231,14.6345,929.7848],[22.6173,14.6503,898.9309],[22.7172,14.6864,884.4572],[22.7207,14.6913,888.2014],[22.7113,14.7385,884.0064],[22.7015,14.7614,883.3069],[22.6845,14.815,896.8079],[22.6711,14.8487,872.0044],[22.6747,14.8588,863.9525],[22.685,14.8747,872.0312],[22.704,14.8906,864.5928],[22.7257,14.8972,862.4877],[22.7408,14.8947,865.8711],[22.7444,14.8973,858.0091],[22.7524,14.8991,856.9412],[22.7571,14.9028,852.3959],[22.7599,14.91,850.8306],[22.7594,14.9173,856.4803],[22.7529,14.9359,847.7367],[22.75,14.937,843.5265],[22.7496,14.9504,845.9999],[22.7531,14.9651,843.695],[22.7569,14.9722,840.7384],[22.7671,14.9845,841.921],[22.777,14.9944,848.8508],[22.7924,15.0061,843.2418],[22.8142,15.0295,842.884],[22.8346,15.0444,831.6606],[22.838,15.0452,830.0778],[22.806,15.071,851.7228],[22.725,15.097,873.104],[22.618,15.092,889.8652],[22.467,15.119,901.1193],[22.401,15.146,923.2435],[22.352,15.177,934.1276],[22.305,15.185,938.4467],[22.242,15.173,945.4744],[22.238,15.121,918.3546],[22.251,15.037,922.1553],[22.267,14.948,924.1243],[22.237,14.894,953.83989999999994],[22.217,14.797,972.5098],[22.238,14.698,978.5652],[22.348,14.622,933.1236],[22.408,14.585,924.0171]]]]}}