{"type":"Feature","properties":{"GID_3":"TCD.14.1.5_1","GID_0":"TCD","country":"Chad","GID_1":"TCD.14_1","province":"Mayo-KebbiEst","NL_NAME_1":"NA","GID_2":"TCD.14.1_1","county":"Kabbia","NL_NAME_2":"NA","city":"Gounou-Gaya","VARNAME_3":"NA","NL_NAME_3":"NA","TYPE_3":"Sub-prefecture","ENGTYPE_3":"Sub-prefecture","CC_3":"NA","HASC_3":"NA","name":"Gounou-Gaya.city"},
"geometry":{"type": "MultiPolygon","coordinates": [[[[15.494,9.523,357.0409],[15.5058,9.5346,355.7574],[15.5218,9.5375,350.8483],[15.5348,9.5557,342.4309],[15.5396,9.5712,343.5598],[15.5488,9.5906,345.9745],[15.5623,9.5903,345.8753],[15.582,9.5987,346.8703],[15.6093,9.6017,349.7204],[15.6162,9.6157,346.3352],[15.5956,9.6286,344.3112],[15.584,9.6399,344.2687],[15.5719,9.6549,343.5141],[15.5696,9.668,342.5142],[15.559,9.6726,342.3311],[15.5474,9.6729,342.0038],[15.5188,9.6678,339.0769],[15.4893,9.6581,343.1525],[15.4685,9.6532,345.7073],[15.4363,9.6539,344.1343],[15.4134,9.6603,343.6538],[15.4064,9.6536,346.2845],[15.4036,9.6404,353.3617],[15.396,9.6196,356.2049],[15.3951,9.6002,364.5154],[15.4008,9.5447,372.5128],[15.4631,9.5267,364.0936],[15.494,9.523,357.0409]]]]}}