{"type": "Feature","bbox": [20.962,14.139,21.096,14.268],"geometry": {"type": "MultiPolygon","coordinates": [[[[21.084,14.139,682.8083],[21.096,14.193,739.3364],[21.09,14.268,757.0784],[21.039,14.247,715.8094],[20.962,14.197,601.5369],[21.005,14.153,662.5126],[21.032,14.142,695.3797],[21.084,14.139,682.8083]]]]}
,"properties": {"GID_3": "TCD.23.1.5_1","GID_0": "TCD","country": "Chad","GID_1": "TCD.23_1","province": "WadiFira","NL_NAME_1": "NA","GID_2": "TCD.23.1_1","county": "Biltine","NL_NAME_2": "NA","city": "Kodoye-Ii","VARNAME_3": "NA","NL_NAME_3": "NA","TYPE_3": "Sub-prefecture","ENGTYPE_3": "Sub-prefecture","CC_3": "NA","HASC_3": "NA","name": "Kodoye-Ii.city","area_km2": 129.51514,"hist_schema_id": "Elevation0-9000","hist_area_km2": {"600": 2.26099,"625": 3.2065,"650": 7.79083,"675": 29.68325,"700": 38.66508,"725": 37.24258,"750": 10.41931,"775": 0.2466}}}