{"type":"Feature","properties":{"GID_3":"TCD.19.2.5_1","GID_0":"TCD","country":"Chad","GID_1":"TCD.19_1","province":"Sila","NL_NAME_1":"NA","GID_2":"TCD.19.2_1","county":"Sila","NL_NAME_2":"NA","city":"Koloye","VARNAME_3":"NA","NL_NAME_3":"NA","TYPE_3":"Sub-prefecture","ENGTYPE_3":"Sub-prefecture","CC_3":"NA","HASC_3":"NA","name":"Koloye.city"},
"geometry":{"type": "MultiPolygon","coordinates": [[[[21.743,12.826,695.4113],[21.718,12.807,689.4677],[21.69,12.756,646.1707],[21.671,12.694,677.7253],[21.684,12.623,630.0797],[21.678,12.59,627.3306],[21.787,12.549,621.1265],[21.916,12.512,643.6808],[22.015,12.491,650.9442],[22.106,12.486,680.6131],[22.13,12.454,729.0551],[22.074,12.385,696.1454],[22.061,12.345,668.2235],[22.047,12.233,640.4544],[22.041,12.171,599.2425],[22.214,12.137,569.8818],[22.219,12.171,585.2011],[22.232,12.189,608.6616],[22.248,12.226,622.1051],[22.253,12.262,631.6688],[22.209,12.314,656.0815],[22.2,12.336,723.8397],[22.208,12.379,798.9716],[22.229,12.404,734.9146],[22.247,12.459,675.9103],[22.287,12.553,614.0959],[22.328,12.594,643.0812],[22.378,12.593,652.0208],[22.425,12.598,687.1682],[22.4505,12.5937,680.2303],[22.4589,12.6198,713.1742],[22.4584,12.6241,721.7143],[22.451,12.6312,737.0472],[22.4166,12.6382,702.04],[22.3594,12.6614,683.214],[22.2874,12.6966,828.1241],[22.2858,12.6998,895.0944],[22.2771,12.7034,917.3643],[22.2544,12.719,781.3915],[22.1979,12.7502,718.8933],[22.1951,12.7069,714.9714],[22.1839,12.693,663.0554],[22.1645,12.6788,652.2588],[22.1362,12.6659,656.5955],[22.0328,12.6372,630.2532],[21.9605,12.6394,639.3041],[21.9411,12.6355,625.8176],[21.9342,12.6394,626.8422],[21.9155,12.6647,628.4179],[21.8878,12.6864,631.2678],[21.8853,12.7014,632.9537],[21.8803,12.7091,633.4927],[21.8659,12.7195,640.3567],[21.858,12.7341,637.1611],[21.8598,12.7549,639.03],[21.8533,12.7716,641.6465],[21.8433,12.7859,643.1234],[21.8389,12.7983,657.3719],[21.8391,12.8017,656.0579],[21.826,12.806,647.3782],[21.776,12.816,708.4246],[21.743,12.826,695.4113]]]]}}