{"type": "Feature","bbox": [14.5897,9.0853,14.9167,9.5684],"geometry": {"type": "MultiPolygon","coordinates": [[[[14.6022,9.3648,380.5489],[14.6018,9.3547,380.3641],[14.6057,9.3288,384.7206],[14.616,9.2964,354.7792],[14.607,9.2558,329.2543],[14.5897,9.2038,359.2195],[14.6039,9.1827,355.1507],[14.6258,9.1662,374.7678],[14.694,9.1285,432.5226],[14.7004,9.1097,435.5002],[14.7209,9.1001,429.323],[14.7287,9.0853,412.8426],[14.7574,9.1059,406.3208],[14.7923,9.1231,422.4541],[14.8453,9.1381,421.4329],[14.8683,9.1414,398.9976],[14.898,9.1547,399.4956],[14.9167,9.1656,390.631],[14.9091,9.1788,400.1159],[14.8631,9.2283,436.7459],[14.8435,9.2385,395.8339],[14.8367,9.2475,404.7292],[14.805,9.2778,410.7133],[14.7823,9.3054,389.2628],[14.7681,9.3316,391.6606],[14.7651,9.355,420.6895],[14.769,9.3865,391.226],[14.7837,9.4184,360.1005],[14.8211,9.4902,415.6945],[14.8131,9.5015,404.1392],[14.7848,9.5299,407.9414],[14.7613,9.5456,377.0301],[14.7526,9.5549,371.3943],[14.7459,9.5684,370.1527],[14.7363,9.5574,356.3618],[14.7168,9.516,333.7632],[14.7125,9.4994,350.5116],[14.6978,9.4777,317.5569],[14.6742,9.4758,304.1674],[14.6599,9.4689,318.145],[14.6537,9.4629,306.9356],[14.6454,9.4497,332.7321],[14.6432,9.4125,368.4554],[14.6349,9.3941,378.5829],[14.621,9.3716,382.201],[14.6022,9.3648,380.5489]]]]}
,"properties": {"GID_3": "TCD.15.2.2_1","GID_0": "TCD","country": "Chad","GID_1": "TCD.15_1","province": "Mayo-KebbiOuest","NL_NAME_1": "NA","GID_2": "TCD.15.2_1","county": "Mayo-Dallah","NL_NAME_2": "NA","city": "Doue","VARNAME_3": "NA","NL_NAME_3": "NA","TYPE_3": "Sub-prefecture","ENGTYPE_3": "Sub-prefecture","CC_3": "NA","HASC_3": "NA","name": "Doue.city","area_km2": 936.7822,"hist_schema_id": "Elevation0-9000","hist_area_km2": {"300": 2.8651,"325": 62.5824,"350": 171.5657,"375": 268.5542,"400": 210.3729,"425": 144.9646,"450": 73.5957,"475": 2.2816}}}