{"type":"Feature","properties":{"GID_3":"TCD.4.2.3_1","GID_0":"TCD","country":"Chad","GID_1":"TCD.4_1","province":"Chari-Baguirmi","NL_NAME_1":"NA","GID_2":"TCD.4.2_1","county":"LougChari","NL_NAME_2":"NA","city":"Bousso","VARNAME_3":"NA","NL_NAME_3":"NA","TYPE_3":"Sub-prefecture","ENGTYPE_3":"Sub-prefecture","CC_3":"NA","HASC_3":"NA","name":"Bousso.city"},
"geometry":{"type": "MultiPolygon","coordinates": [[[[16.627,11.032,333.1365],[16.566,10.984,332.8174],[16.516,10.919,332.6852],[16.456,10.846,331.2718],[16.414,10.754,331.4777],[16.398,10.702,332.0635],[16.397,10.642,329.0382],[16.379,10.627,321.1824],[16.391,10.587,321.5933],[16.448,10.541,326.1049],[16.527,10.512,323.8175],[16.593,10.493,326.1622],[16.64,10.487,332.6577],[16.736,10.47,334.2557],[16.857,10.436,335.2056],[17.017,10.464,340.0374],[17.131,10.511,340.2456],[17.221,10.551,342.2298],[17.277,10.587,341.7987],[17.254,10.599,338.9249],[17.241,10.654,339.6277],[17.214,10.683,339.087],[17.189,10.681,340.6505],[17.152,10.721,340.5937],[17.134,10.775,337.8233],[17.147,10.836,337.9899],[17.122,10.977,335.3913],[17.1,11.013,331.5404],[17.033,11.065,333.6229],[16.992,11.101,333.3042],[16.856,11.075,334.5632],[16.711,11.054,330.3153],[16.627,11.032,333.1365]]]]}}