{"type":"Feature","properties":{"GID_1":"TCD.7_1","GID_0":"TCD","country":"Chad","province":"Guéra","VARNAME_1":"Guera|Baguirmi","NL_NAME_1":"NA","TYPE_1":"Région","ENGTYPE_1":"Region","CC_1":"NA","HASC_1":"TD.GR","ISO_1":"NA","name":"Guéra.province"},
"geometry":{"type": "MultiPolygon","coordinates": [[[[18.381,10.247,367.4492],[18.437,10.212,369.0147],[18.496,10.186,375.2409],[18.642,10.025,377.0905],[18.632,9.919,371.116],[18.737,9.877,378.223],[18.794,9.879,380.3649],[18.825,9.988,383.7515],[19.078,9.988,386.5224],[19.084,10.015,384.6064],[19.126,10.084,387.2957],[19.138,10.129,389.4442],[19.161,10.155,389.1475],[19.208,10.146,390.9069],[19.215,10.187,391.0424],[19.241,10.209,403.0311],[19.284,10.224,426.2546],[19.321,10.27,419.5235],[19.355,10.299,412.8535],[19.344,10.344,394.825],[19.382,10.382,406.8703],[19.391,10.425,415.0414],[19.43,10.469,411.1162],[19.496,10.496,400.2784],[19.533,10.475,401.893],[19.584,10.478,402.3688],[19.619,10.526,409.1622],[19.703,10.588,406.3282],[19.726,10.717,411.8536],[19.707,10.873,414.8757],[19.737,10.911,415.1917],[19.706,10.942,417.922],[19.694,11.001,417.0071],[19.657,11.003,417.8885],[19.57,11.034,417.7849],[19.479,11.048,423.7961],[19.405,11.104,431.26],[19.261,11.154,431.0555],[19.238,11.179,438.206],[19.192,11.187,434.7756],[19.13,11.217,434.831],[19.056,11.245,437.6089],[19.001,11.273,439.4542],[18.967,11.313,444.1942],[18.902,11.331,444.3339],[18.883,11.402,471.2256],[18.874,11.477,477.4404],[18.902,11.692,498.0441],[19.055,11.689,509.9269],[19.088,11.6,500.8874],[19.215,11.638,474.1238],[19.256,11.726,465.2962],[19.341,11.855,452.2736],[19.313,11.982,461.8651],[19.465,12.123,465.6407],[19.496,12.109,458.2919],[19.58,12.083,447.7868],[19.751,12.053,467.2791],[19.906,12.04,451.161],[19.889,12.079,445.7538],[19.905,12.118,464.8142],[19.94,12.246,448.3839],[20.001,12.385,466.616],[20.082,12.494,455.7078],[20.154,12.531,450.7625],[20.114,12.614,451.0885],[20.174,12.727,472.685],[20.204,12.729,467.9661],[20.244,12.764,450.2167],[20.23,12.8,434.8976],[20.163,12.838,435.1052],[20.117,12.882,448.8032],[20.045,12.935,452.4562],[19.993,12.957,432.989],[19.777,13.031,421.7097],[19.601,12.939,401.1452],[19.215,12.713,385.7573],[19.2,12.711,381.7095],[19.184,12.687,372.9362],[19.103,12.694,384.5175],[18.99,12.689,409.2924],[18.501,12.693,354.9444],[18.475,12.692,350.2663],[18.33,12.618,355.2905],[18.095,12.486,359.7856],[18.065,12.452,368.0968],[18.018,12.452,388.6741],[17.882,12.446,358.1155],[17.671,12.279,335.0955],[17.665,12.256,327.3107],[17.608,12.239,327.8034],[17.567,12.199,319.247],[17.598,12.125,335.4867],[17.576,12.04,334.7657],[17.542,11.95,336.4068],[17.545,11.911,336.3253],[17.578,11.871,346.9734],[17.634,11.796,350.3899],[17.68,11.68,358.85],[17.619,11.679,349.8398],[17.545,11.672,357.7475],[17.487,11.632,349.4591],[17.425,11.586,338.4037],[17.378,11.539,336.1009],[17.335,11.472,334.7028],[17.315,11.324,335.8187],[17.311,11.304,335.3646],[17.305,11.23,336.3217],[17.329,11.075,337.7805],[17.345,11.029,339.2904],[17.36,10.935,337.9415],[17.363,10.795,342.2492],[17.352,10.671,341.8769],[17.327,10.574,340.9664],[17.383,10.537,341.739],[17.449,10.522,342.6501],[17.543,10.451,350.8359],[17.864,10.497,396.2153],[17.962,10.397,356.0126],[18.013,10.381,358.4543],[18.067,10.35,358.4732],[18.104,10.365,359.2461],[18.164,10.346,361.2156],[18.209,10.322,365.8643],[18.289,10.262,364.929],[18.341,10.24,368.7788],[18.381,10.247,367.4492]]]]}}