{"type": "Feature","id": "1474","bbox": [17.25496,9.86668,20.17492,13.05557],"geometry": {"type": "Polygon","coordinates": [[[19.99028,12.97058,429.0668],[19.70575,13.05557,407.8151],[19.47088,12.95346,393.538],[19.16723,12.77648,371.1635],[19.11261,12.75173,376.3684],[19.09618,12.74868,382.5002],[19.0814,12.74785,385.9101],[18.4727,12.77059,343.9036],[18.45544,12.76863,343.3565],[18.43529,12.76377,341.7269],[18.07526,12.56967,340.5911],[18.04611,12.54983,353.171],[18.00017,12.49381,361.7685],[17.98669,12.48244,364.313],[17.97382,12.47903,366.5478],[17.86023,12.46818,343.8925],[17.84375,12.4642,334.5306],[17.82592,12.45717,334.882],[17.56475,12.23626,323.6288],[17.54537,12.20887,319.3761],[17.5601,12.15564,330.1768],[17.56738,12.12908,327.37],[17.51989,11.96227,335.4847],[17.51731,11.9479,335.8991],[17.5171,11.93281,336.988],[17.52366,11.91514,336.2737],[17.62557,11.7151,345.9779],[17.45919,11.66679,348.3965],[17.26517,11.49319,333.663],[17.25496,11.2379,334.5465],[17.2958,10.9724,339.1161],[17.31622,10.74774,340.4868],[17.2958,10.58436,341.7036],[17.53374,10.4637,351.5657],[17.82716,10.47388,379.7161],[17.83429,10.47047,384.0047],[17.84111,10.46525,380.0044],[17.92493,10.38614,354.4865],[17.93129,10.38242,358.2038],[17.93733,10.38014,357.8749],[17.94881,10.37756,358.4947],[17.95873,10.37322,357.5532],[17.97227,10.36567,357.6418],[17.978,10.36361,358.6047],[17.99304,10.36112,360.1744],[18.01707,10.35384,359.5669],[18.02549,10.3526,357.4941],[18.03077,10.34996,358.2537],[18.03495,10.34676,359.8444],[18.03883,10.34469,359.525],[18.04317,10.345,360.0256],[18.05185,10.3526,358.9921],[18.05666,10.35399,357.4161],[18.06239,10.35151,358.7741],[18.06952,10.3495,358.5541],[18.08973,10.34671,359.3893],[18.09546,10.3433,359.6189],[18.10213,10.33508,361.7678],[18.10632,10.33296,361.1943],[18.11128,10.33343,360.9471],[18.11686,10.33735,360.2336],[18.12089,10.34138,359.7686],[18.12507,10.3449,359.9848],[18.1305,10.34645,362.4265],[18.13923,10.34418,361.1073],[18.14513,10.34149,361.8129],[18.14931,10.33756,362.5964],[18.15195,10.33312,363.3813],[18.15334,10.32774,362.1379],[18.15505,10.31617,363.0792],[18.15675,10.31126,363.4232],[18.16125,10.30816,364.358],[18.16714,10.30604,363.8781],[18.17567,10.30449,363.076],[18.18001,10.30097,362.3203],[18.18698,10.29374,362.8844],[18.19293,10.29178,362.9687],[18.21261,10.29069,362.1167],[18.21851,10.28857,364.2616],[18.22223,10.2848,363.592],[18.22579,10.27483,364.0873],[18.22858,10.27069,365.1606],[18.2323,10.26759,365.8853],[18.25266,10.25932,365.3761],[18.25638,10.25436,366.5339],[18.26057,10.25059,365.121],[18.26476,10.2478,367.1116],[18.27049,10.24645,366.3235],[18.31194,10.24506,365.0107],[18.33271,10.23907,367.2975],[18.34325,10.23834,368.2574],[18.34992,10.23638,369.4471],[18.35504,10.23359,369.2626],[18.36671,10.21783,367.6464],[18.37354,10.21064,367.4559],[18.3816,10.2048,366.6878],[18.39121,10.20031,369.227],[18.44552,10.18486,370.1746],[18.4494,10.18222,371.8191],[18.45312,10.17912,371.6719],[18.45606,10.17519,371.55],[18.46319,10.16181,370.9722],[18.47002,10.15473,371.7887],[18.47751,10.14832,370.7394],[18.48061,10.1445,371.1626],[18.48728,10.13075,373.9173],[18.50076,10.10791,372.5346],[18.50665,10.10207,373.2912],[18.51099,10.09954,374.1075],[18.51642,10.09773,373.7583],[18.52231,10.09633,375.0479],[18.52758,10.09447,375.7587],[18.53198,10.09189,374.1979],[18.55275,10.07091,374.6961],[18.55678,10.06786,373.7812],[18.5698,10.05985,371.9463],[18.57275,10.05592,373.4822],[18.57476,10.05117,374.7535],[18.57771,10.04078,375.991],[18.58019,10.03618,375.2188],[18.58381,10.03298,375.3445],[18.58846,10.0305,376.1523],[18.59915,10.02699,376.4869],[18.60365,10.0244,377.2368],[18.60706,10.02078,377.2213],[18.60908,10.01587,376.6558],[18.6097,10.01029,377.8122],[18.6097,10.00166,377.5002],[18.60024,9.91542,371.3868],[18.60039,9.91309,373.2794],[18.60241,9.91097,373.2351],[18.60582,9.90875,373.8974],[18.61528,9.9042,373.8374],[18.62163,9.90286,374.2854],[18.62908,9.90198,373.5143],[18.63993,9.90276,373.5886],[18.64758,9.90198,374.6214],[18.65347,9.90017,374.1898],[18.65781,9.89733,373.6012],[18.67812,9.8763,375.842],[18.69021,9.8673,375.5849],[18.6977,9.86668,378.4953],[18.70871,9.86844,379.2291],[18.72917,9.87645,375.7271],[18.75697,9.88177,377.7451],[18.76271,9.88451,376.878],[18.76643,9.89252,379.9893],[18.78845,9.9844,380.7732],[18.79527,9.99484,382.128],[18.80695,9.99867,382.5329],[18.94363,10.00006,385.3754],[18.99887,10.00704,384.5213],[19.03737,10.02657,384.7837],[19.04946,10.03567,385.9153],[19.06419,10.049,385.4731],[19.07985,10.06781,385.2706],[19.09261,10.08755,385.4276],[19.0985,10.0952,385.5068],[19.10502,10.10641,386.2505],[19.10905,10.11649,388.2002],[19.11199,10.12031,388.478],[19.11525,10.12279,389.1643],[19.1199,10.12202,388.2344],[19.1247,10.12228,389.8341],[19.13122,10.12579,389.0754],[19.14098,10.13535,388.3705],[19.14941,10.1384,388.4495],[19.15499,10.13871,388.6996],[19.15793,10.1369,389.3574],[19.16057,10.13628,389.5571],[19.16413,10.13752,388.0677],[19.16863,10.14946,388.7591],[19.17266,10.16641,391.9974],[19.19002,10.19824,392.6262],[19.19359,10.203,392.8837],[19.19845,10.20744,393.1019],[19.20759,10.21168,391.2991],[19.21488,10.21349,391.2627],[19.22046,10.21602,396.7565],[19.22496,10.22,398.3155],[19.22821,10.22821,393.6511],[19.23612,10.23653,397.011],[19.24108,10.24785,398.2431],[19.24495,10.25467,396.8339],[19.24976,10.26108,395.0096],[19.25601,10.26635,397.7222],[19.26873,10.27348,401.9061],[19.27555,10.27844,399.8922],[19.27989,10.28351,398.497],[19.28128,10.28976,395.0763],[19.28299,10.29405,397.3733],[19.28934,10.29596,399.009],[19.29508,10.29612,400.5533],[19.3002,10.29746,399.8048],[19.30268,10.29994,400.2087],[19.30004,10.3048,398.7979],[19.29152,10.3109,394.3806],[19.29012,10.31472,395.7134],[19.29167,10.31958,394.9244],[19.29446,10.32578,395.29],[19.29462,10.33136,396.7242],[19.29245,10.33555,396.7026],[19.28857,10.33865,397.1617],[19.28423,10.34144,396.225],[19.28144,10.34511,395.8276],[19.28159,10.34924,396.7812],[19.28516,10.35275,396.9628],[19.29353,10.35389,397.9052],[19.3064,10.35291,397.4205],[19.31182,10.3542,397.8764],[19.31637,10.3574,396.4403],[19.31901,10.36386,395.6814],[19.31901,10.36939,395.8108],[19.31839,10.37472,395.0426],[19.31854,10.37937,395.7991],[19.32102,10.38324,395.5934],[19.32536,10.38588,396.9881],[19.33203,10.38717,397.3852],[19.33606,10.39006,396.8452],[19.33622,10.39595,398.5062],[19.33249,10.40588,397.1489],[19.33327,10.41208,398.2139],[19.33684,10.41962,398.2434],[19.34738,10.43203,403.725],[19.35156,10.43972,395.6907],[19.36226,10.45316,395.7224],[19.37859,10.46913,399.274],[19.38526,10.47455,398.009],[19.39394,10.47822,399.2426],[19.40262,10.48474,402.8428],[19.41022,10.48804,404.8044],[19.41998,10.49083,404.0416],[19.42748,10.49383,406.003],[19.436,10.49941,400.8314],[19.4422,10.50205,401.9062],[19.44918,10.50174,401.3412],[19.45182,10.50081,399.7713],[19.45321,10.49993,401.5573],[19.45368,10.4959,404.4546],[19.45321,10.49145,411.1334],[19.45306,10.4867,415.701],[19.45693,10.48339,414.0844],[19.46437,10.48236,411.2231],[19.47915,10.48505,398.8652],[19.48892,10.48587,399.3984],[19.51341,10.49264,401.6292],[19.52117,10.49238,401.6556],[19.52799,10.493,401.4865],[19.53372,10.49538,401.925],[19.55641,10.53445,404.3672],[19.55641,10.54024,403.6603],[19.55517,10.5454,404.7523],[19.55501,10.54954,405.1367],[19.5578,10.55274,404.0854],[19.5654,10.55181,405.0884],[19.56928,10.5484,404.9738],[19.57269,10.54401,404.7725],[19.57594,10.54091,405.1877],[19.58013,10.54117,404.6158],[19.58462,10.54478,404.1917],[19.59088,10.56054,407.2385],[19.59491,10.56607,406.6589],[19.59971,10.57078,405.2428],[19.60793,10.576,405.3243],[19.61072,10.5824,405.6046],[19.60979,10.58685,406.0107],[19.61026,10.59119,407.1784],[19.61429,10.59537,407.2552],[19.64002,10.60442,405.914],[19.65837,10.61847,404.5873],[19.67712,10.70508,419.9662],[19.66581,10.8782,416.4906],[19.66689,10.89603,418.3913],[19.67433,10.90249,416.7625],[19.6903,10.91396,415.4105],[19.69294,10.91773,415.245],[19.69294,10.92269,416.4544],[19.68829,10.92993,417.5069],[19.68286,10.93365,416.2758],[19.67681,10.93597,417.5738],[19.67092,10.93732,415.9505],[19.66596,10.93959,417.2645],[19.66162,10.94481,416.8314],[19.65728,10.95204,416.9494],[19.65092,10.96533,416.4548],[19.63646,10.98538,418.2912],[19.63304,10.98899,417.6095],[19.62855,10.99168,418.8786],[19.62328,10.99364,418.7638],[19.61134,10.99618,418.2794],[19.60204,10.99995,418.2914],[19.60111,11.00052,417.1385],[19.5947,11.00791,417.9706],[19.59088,11.01085,418.6008],[19.58602,11.01333,421.2626],[19.58044,11.01494,418.5825],[19.56819,11.01721,419.5063],[19.56261,11.01876,419.6651],[19.55765,11.02108,419.6208],[19.55362,11.02388,420.3999],[19.5499,11.02713,422.2565],[19.54137,11.03266,422.1283],[19.5361,11.03457,420.8663],[19.52644,11.03917,421.1224],[19.52132,11.04098,421.0433],[19.51558,11.04108,422.1253],[19.50985,11.04072,421.743],[19.50086,11.0385,423.0041],[19.4976,11.03824,422.5045],[19.4928,11.03917,420.6623],[19.48814,11.04088,421.2291],[19.4836,11.04351,421.8799],[19.47957,11.04656,422.4258],[19.46933,11.0571,422.7848],[19.46546,11.06036,422.0109],[19.46081,11.06258,422.5118],[19.45538,11.06403,422.4651],[19.44965,11.06403,426.3788],[19.44406,11.06315,423.5009],[19.42789,11.05896,423.3721],[19.422,11.05824,423.5216],[19.40929,11.05927,424.0528],[19.39766,11.06212,424.5385],[19.3927,11.06423,426.1282],[19.3882,11.06692,424.8893],[19.38448,11.07044,426.4142],[19.38138,11.07436,425.8096],[19.37094,11.09204,426.626],[19.36784,11.09612,427.9811],[19.36443,11.09968,428.0826],[19.36009,11.10258,426.8289],[19.35482,11.10434,428.0639],[19.34893,11.10516,426.4865],[19.34288,11.10496,426.7371],[19.32645,11.1017,428.2313],[19.32071,11.10206,430.4121],[19.31544,11.10361,431.5118],[19.27741,11.12258,428.7243],[19.27353,11.12568,429.504],[19.26392,11.13699,430.2854],[19.26004,11.13994,429.6173],[19.2555,11.14258,430.174],[19.25023,11.14444,430.5101],[19.23162,11.14769,431.3138],[19.22589,11.14919,431.7733],[19.22062,11.15121,432.1034],[19.2079,11.15942,435.0947],[19.19142,11.16469,433.6914],[19.18165,11.16924,431.8143],[19.17793,11.1726,434.0171],[19.17467,11.17611,433.4153],[19.1708,11.17927,433.8901],[19.16568,11.18123,433.3696],[19.15979,11.18226,432.7901],[19.1416,11.18288,439.6746],[19.13602,11.18418,438.7144],[19.13153,11.18666,438.1539],[19.11153,11.2018,440.0835],[19.09804,11.20965,438.7145],[19.09277,11.21141,439.2986],[19.07504,11.21554,442.7518],[19.07039,11.21802,443.8304],[19.06698,11.22154,442.2845],[19.06466,11.22609,439.0552],[19.06202,11.23012,437.0338],[19.0583,11.23337,436.8424],[19.05303,11.23523,437.1294],[19.03453,11.23833,443.1254],[19.03039,11.24024,441.978],[18.98972,11.26474,441.6984],[18.97448,11.27766,442.2825],[18.97014,11.28029,445.4869],[18.96006,11.28448,437.8149],[18.95417,11.28587,442.6741],[18.94921,11.28799,442.791],[18.94456,11.29058,442.6265],[18.94115,11.29404,442.3618],[18.93851,11.29823,441.8789],[18.93433,11.30763,441.6286],[18.93185,11.31197,441.6318],[18.92828,11.31512,441.8683],[18.92311,11.31704,441.6684],[18.91087,11.31807,442.8263],[18.90544,11.31921,443.523],[18.90125,11.32174,442.5333],[18.89862,11.32582,443.84],[18.89645,11.33057,443.6924],[18.89366,11.33471,444.7868],[18.88963,11.33771,444.7523],[18.88436,11.33967,442.8219],[18.86524,11.34246,445.6766],[18.86043,11.34535,445.3237],[18.85748,11.35037,445.1689],[18.85609,11.35879,446.2778],[18.85438,11.36494,445.4917],[18.8488,11.37434,447.3739],[18.84694,11.38039,446.4301],[18.84632,11.38949,448.0172],[18.86513,11.6798,502.8343],[18.86761,11.69236,510.6597],[18.87304,11.70254,524.7433],[18.88653,11.70637,512.701],[18.99608,11.70812,481.9911],[19.0029,11.70688,481.1157],[19.0122,11.70321,483.4849],[19.01856,11.69324,483.0012],[19.04605,11.62591,476.1551],[19.05256,11.61666,477.5545],[19.0614,11.61573,481.7065],[19.0738,11.61893,487.692],[19.16196,11.65169,490.7441],[19.17561,11.66048,485.3828],[19.1908,11.67365,494.8636],[19.28578,11.84496,460.0237],[19.29121,11.85881,455.7226],[19.29369,11.87287,453.6705],[19.28795,11.88832,454.3598],[19.21922,11.99937,468.6114],[19.3896,12.15895,481.7468],[19.43538,12.15187,474.3347],[19.64204,12.09766,439.2569],[19.82001,12.08701,435.5265],[19.81898,12.14334,442.755],[19.82146,12.16319,438.9897],[19.88554,12.34338,453.8056],[19.91546,12.40756,449.7943],[19.92011,12.41542,446.5659],[19.92631,12.42312,448.999],[19.93008,12.42653,449.4243],[19.93396,12.42953,449.7878],[19.9383,12.43211,451.4558],[19.9445,12.43748,453.9951],[19.95179,12.44565,454.2906],[19.97504,12.47981,462.2053],[20.01199,12.51459,458.9992],[20.03695,12.55117,451.1006],[20.04336,12.55887,449.3619],[20.05064,12.56559,449.1308],[20.05452,12.56864,447.7563],[20.05901,12.57112,446.5377],[20.07483,12.57789,443.379],[20.09017,12.58931,441.6529],[20.09405,12.59484,441.9344],[20.09576,12.59939,442.8677],[20.09514,12.60306,443.9555],[20.09328,12.60714,443.8001],[20.08785,12.61515,444.3053],[20.05607,12.64631,439.5058],[20.05018,12.65453,437.8564],[20.04847,12.66021,436.8938],[20.04863,12.66848,434.6838],[20.05498,12.68,435.3278],[20.12247,12.7679,434.0262],[20.12774,12.77245,432.8996],[20.13301,12.77328,431.9202],[20.13844,12.7725,432.772],[20.14418,12.771,433.1897],[20.15136,12.77183,431.6341],[20.15896,12.77555,430.6444],[20.1695,12.78785,430.881],[20.17337,12.79653,433.2668],[20.17492,12.80434,432.1494],[20.17306,12.82609,437.0891],[20.17461,12.84066,436.3567],[20.17322,12.84852,439.2489],[20.17074,12.85441,440.4171],[20.16748,12.85798,442.1266],[20.16376,12.86071,442.2658],[20.16004,12.86268,443.1705],[20.15549,12.86195,439.076],[20.14635,12.85875,438.539],[20.14154,12.85808,439.1343],[20.13643,12.86046,440.0055],[19.99028,12.97058,429.0668]]]}
,"properties": {"ISO3166-1-Alpha-3": "TCD","country": "Chad","fill": "#F0F","name": "Guéra","area_km2": 62123.14,"hist_schema_id": "Elevation0-9000","hist_area_km2": {"325": 1149.51,"350": 9834.58,"375": 11574.79,"400": 10108.0,"425": 8709.32,"450": 7888.72,"475": 4905.81,"500": 2986.21,"525": 2054.54,"550": 1188.77,"575": 499.77,"600": 260.28,"625": 173.59,"650": 133.4,"675": 110.65,"700": 90.25,"725": 77.29,"750": 67.46,"775": 56.25,"800": 46.7,"825": 37.93,"850": 31.55,"875": 24.8,"900": 21.04,"925": 17.47,"950": 14.42,"975": 10.0,"1000": 8.85,"1025": 7.42,"1050": 6.45,"1075": 4.95,"1100": 4.54,"1125": 3.81,"1150": 3.36,"1175": 3.11,"1200": 1.99,"1225": 1.68,"1250": 1.12,"1275": 0.89,"1300": 0.52}}}