{"type":"Feature","properties":{"GID_3":"TCD.15.2.6_1","GID_0":"TCD","country":"Chad","GID_1":"TCD.15_1","province":"Mayo-KebbiOuest","NL_NAME_1":"NA","GID_2":"TCD.15.2_1","county":"Mayo-Dallah","NL_NAME_2":"NA","city":"Gouin","VARNAME_3":"NA","NL_NAME_3":"NA","TYPE_3":"Sub-prefecture","ENGTYPE_3":"Sub-prefecture","CC_3":"NA","HASC_3":"NA","name":"Gouin.city"},
"geometry":{"type": "MultiPolygon","coordinates": [[[[14.749,9.6698,398.1679],[14.7486,9.639,390.3727],[14.7527,9.6026,390.7325],[14.7529,9.5848,394.8788],[14.7459,9.5684,370.1527],[14.7526,9.5549,371.3943],[14.7613,9.5456,377.0301],[14.7848,9.5299,407.9414],[14.8131,9.5015,404.1392],[14.8211,9.4902,415.6945],[14.8284,9.4853,396.4281],[14.8346,9.478,390.4141],[14.8514,9.4721,400.2571],[14.8773,9.4708,417.5371],[14.9083,9.4814,408.105],[14.9328,9.4991,394.2137],[14.9412,9.5029,386.5312],[14.9427,9.509,389.4157],[14.942,9.5145,392.4615],[14.9184,9.5556,390.5921],[14.9115,9.5736,392.1548],[14.9092,9.5847,398.8377],[14.9084,9.5961,398.5221],[14.9125,9.6095,395.0145],[14.9167,9.6175,387.3182],[14.9188,9.6352,370.3249],[14.913,9.6694,392.613],[14.9072,9.6894,383.8256],[14.8909,9.6818,390.7883],[14.8605,9.6739,389.8013],[14.8419,9.6759,388.2907],[14.8178,9.668,407.244],[14.7932,9.6682,399.3229],[14.7673,9.6641,412.9937],[14.749,9.6698,398.1679]]]]}}